{
  "type": "FeatureCollection",
  "features": [
    {
      "type": "Feature",
      "properties": {
        "name": "阿尼玛卿转山参考轨迹",
        "type": "hiking",
        "source": "两步路用户轨迹",
        "segments": 1
      },
      "geometry": {
        "type": "LineString",
        "coordinates": [
          [
            99.686966,
            34.658849
          ],
          [
            99.686644,
            34.658197
          ],
          [
            99.687007,
            34.657548
          ],
          [
            99.68707,
            34.657243
          ],
          [
            99.686859,
            34.656483
          ],
          [
            99.686415,
            34.656051
          ],
          [
            99.686621,
            34.655466
          ],
          [
            99.686372,
            34.654982
          ],
          [
            99.685676,
            34.654439
          ],
          [
            99.685426,
            34.653845
          ],
          [
            99.68593,
            34.652741
          ],
          [
            99.685899,
            34.652555
          ],
          [
            99.685765,
            34.65239
          ],
          [
            99.684966,
            34.651875
          ],
          [
            99.684716,
            34.651387
          ],
          [
            99.684513,
            34.651331
          ],
          [
            99.684272,
            34.651384
          ],
          [
            99.684083,
            34.651279
          ],
          [
            99.684088,
            34.650766
          ],
          [
            99.683691,
            34.650566
          ],
          [
            99.683479,
            34.650291
          ],
          [
            99.683103,
            34.649384
          ],
          [
            99.682857,
            34.649087
          ],
          [
            99.682632,
            34.648126
          ],
          [
            99.682385,
            34.647757
          ],
          [
            99.681755,
            34.647248
          ],
          [
            99.681274,
            34.646535
          ],
          [
            99.681067,
            34.645278
          ],
          [
            99.680805,
            34.645029
          ],
          [
            99.678836,
            34.643974
          ],
          [
            99.677193,
            34.64286
          ],
          [
            99.676194,
            34.642404
          ],
          [
            99.675335,
            34.641805
          ],
          [
            99.674407,
            34.641407
          ],
          [
            99.673423,
            34.641105
          ],
          [
            99.670909,
            34.64056
          ],
          [
            99.670176,
            34.640171
          ],
          [
            99.669859,
            34.63984
          ],
          [
            99.669608,
            34.639377
          ],
          [
            99.66932,
            34.638487
          ],
          [
            99.668931,
            34.637674
          ],
          [
            99.666816,
            34.635738
          ],
          [
            99.665761,
            34.634278
          ],
          [
            99.664566,
            34.632859
          ],
          [
            99.664446,
            34.632819
          ],
          [
            99.663778,
            34.633111
          ],
          [
            99.662948,
            34.632742
          ],
          [
            99.662507,
            34.632333
          ],
          [
            99.662017,
            34.631123
          ],
          [
            99.659625,
            34.628987
          ],
          [
            99.65785,
            34.628198
          ],
          [
            99.657148,
            34.628642
          ],
          [
            99.656938,
            34.628687
          ],
          [
            99.655365,
            34.628317
          ],
          [
            99.654489,
            34.628405
          ],
          [
            99.653898,
            34.628565
          ],
          [
            99.653882,
            34.628391
          ],
          [
            99.654263,
            34.627872
          ],
          [
            99.653762,
            34.627442
          ],
          [
            99.65235,
            34.627159
          ],
          [
            99.651205,
            34.626783
          ],
          [
            99.64999,
            34.626676
          ],
          [
            99.648956,
            34.626388
          ],
          [
            99.647987,
            34.625979
          ],
          [
            99.647131,
            34.625867
          ],
          [
            99.646887,
            34.626096
          ],
          [
            99.646781,
            34.626087
          ],
          [
            99.646062,
            34.625457
          ],
          [
            99.645265,
            34.625115
          ],
          [
            99.644825,
            34.624776
          ],
          [
            99.644068,
            34.624818
          ],
          [
            99.643427,
            34.624539
          ],
          [
            99.64297,
            34.624546
          ],
          [
            99.64227,
            34.624409
          ],
          [
            99.641384,
            34.624673
          ],
          [
            99.639827,
            34.624641
          ],
          [
            99.639364,
            34.624564
          ],
          [
            99.63795,
            34.624653
          ],
          [
            99.637775,
            34.624554
          ],
          [
            99.637659,
            34.624083
          ],
          [
            99.637563,
            34.624044
          ],
          [
            99.637038,
            34.624019
          ],
          [
            99.636488,
            34.623787
          ],
          [
            99.636148,
            34.623812
          ],
          [
            99.635987,
            34.623681
          ],
          [
            99.63509,
            34.623358
          ],
          [
            99.6322,
            34.622893
          ],
          [
            99.631849,
            34.623169
          ],
          [
            99.631527,
            34.623086
          ],
          [
            99.63099,
            34.623276
          ],
          [
            99.629822,
            34.623469
          ],
          [
            99.627804,
            34.624086
          ],
          [
            99.626777,
            34.624134
          ],
          [
            99.626353,
            34.624336
          ],
          [
            99.626136,
            34.624599
          ],
          [
            99.624879,
            34.625165
          ],
          [
            99.623978,
            34.6258
          ],
          [
            99.623746,
            34.625674
          ],
          [
            99.622924,
            34.625826
          ],
          [
            99.62193,
            34.625748
          ],
          [
            99.620297,
            34.626068
          ],
          [
            99.618128,
            34.626085
          ],
          [
            99.617821,
            34.626256
          ],
          [
            99.617667,
            34.62664
          ],
          [
            99.617478,
            34.626426
          ],
          [
            99.617121,
            34.626352
          ],
          [
            99.616343,
            34.626681
          ],
          [
            99.615632,
            34.626728
          ],
          [
            99.614406,
            34.627151
          ],
          [
            99.613753,
            34.627462
          ],
          [
            99.613292,
            34.627514
          ],
          [
            99.61287,
            34.627707
          ],
          [
            99.612015,
            34.628415
          ],
          [
            99.61006,
            34.629151
          ],
          [
            99.609497,
            34.629512
          ],
          [
            99.608394,
            34.629715
          ],
          [
            99.605983,
            34.629953
          ],
          [
            99.605802,
            34.630194
          ],
          [
            99.605893,
            34.6309
          ],
          [
            99.604602,
            34.631175
          ],
          [
            99.602705,
            34.632893
          ],
          [
            99.60072,
            34.634353
          ],
          [
            99.599734,
            34.634937
          ],
          [
            99.598665,
            34.635343
          ],
          [
            99.597299,
            34.636226
          ],
          [
            99.596144,
            34.636755
          ],
          [
            99.595484,
            34.637339
          ],
          [
            99.593861,
            34.638397
          ],
          [
            99.593311,
            34.638487
          ],
          [
            99.59253,
            34.638935
          ],
          [
            99.59098,
            34.639985
          ],
          [
            99.590225,
            34.640673
          ],
          [
            99.589738,
            34.640719
          ],
          [
            99.589073,
            34.641647
          ],
          [
            99.587766,
            34.642595
          ],
          [
            99.586398,
            34.643268
          ],
          [
            99.58548,
            34.643445
          ],
          [
            99.585157,
            34.643606
          ],
          [
            99.584977,
            34.64378
          ],
          [
            99.585042,
            34.643954
          ],
          [
            99.585208,
            34.644121
          ],
          [
            99.585851,
            34.644391
          ],
          [
            99.585819,
            34.644571
          ],
          [
            99.585595,
            34.644705
          ],
          [
            99.585336,
            34.644701
          ],
          [
            99.584998,
            34.644635
          ],
          [
            99.58454,
            34.644375
          ],
          [
            99.583955,
            34.645014
          ],
          [
            99.58184,
            34.646163
          ],
          [
            99.581522,
            34.646454
          ],
          [
            99.581266,
            34.646905
          ],
          [
            99.580401,
            34.647087
          ],
          [
            99.580003,
            34.64729
          ],
          [
            99.578392,
            34.647513
          ],
          [
            99.57766,
            34.647469
          ],
          [
            99.576971,
            34.6473
          ],
          [
            99.574914,
            34.647667
          ],
          [
            99.574424,
            34.647978
          ],
          [
            99.574263,
            34.648561
          ],
          [
            99.573793,
            34.649173
          ],
          [
            99.572535,
            34.649963
          ],
          [
            99.572074,
            34.649964
          ],
          [
            99.570744,
            34.649517
          ],
          [
            99.569287,
            34.649603
          ],
          [
            99.569196,
            34.649559
          ],
          [
            99.569206,
            34.649423
          ],
          [
            99.569385,
            34.649228
          ],
          [
            99.56919,
            34.649338
          ],
          [
            99.569185,
            34.649597
          ],
          [
            99.568685,
            34.649839
          ],
          [
            99.566415,
            34.650339
          ],
          [
            99.566241,
            34.650477
          ],
          [
            99.565986,
            34.651068
          ],
          [
            99.565424,
            34.651279
          ],
          [
            99.564923,
            34.651253
          ],
          [
            99.563561,
            34.650902
          ],
          [
            99.562606,
            34.650839
          ],
          [
            99.561229,
            34.650452
          ],
          [
            99.560186,
            34.650461
          ],
          [
            99.559141,
            34.6507
          ],
          [
            99.557166,
            34.650576
          ],
          [
            99.556945,
            34.650496
          ],
          [
            99.556444,
            34.650042
          ],
          [
            99.555269,
            34.649774
          ],
          [
            99.554051,
            34.649647
          ],
          [
            99.552132,
            34.649696
          ],
          [
            99.55123,
            34.649609
          ],
          [
            99.549215,
            34.649921
          ],
          [
            99.547617,
            34.649985
          ],
          [
            99.546116,
            34.649771
          ],
          [
            99.545133,
            34.649918
          ],
          [
            99.543707,
            34.650299
          ],
          [
            99.542906,
            34.650549
          ],
          [
            99.542405,
            34.650864
          ],
          [
            99.541683,
            34.650923
          ],
          [
            99.540834,
            34.651455
          ],
          [
            99.538703,
            34.651848
          ],
          [
            99.538039,
            34.652102
          ],
          [
            99.537442,
            34.652176
          ],
          [
            99.537114,
            34.652366
          ],
          [
            99.534706,
            34.653015
          ],
          [
            99.529363,
            34.653881
          ],
          [
            99.528862,
            34.654121
          ],
          [
            99.527856,
            34.654941
          ],
          [
            99.526906,
            34.65531
          ],
          [
            99.526364,
            34.655616
          ],
          [
            99.526277,
            34.655583
          ],
          [
            99.525964,
            34.655739
          ],
          [
            99.525802,
            34.655738
          ],
          [
            99.524665,
            34.656847
          ],
          [
            99.52279,
            34.658453
          ],
          [
            99.521199,
            34.659626
          ],
          [
            99.520326,
            34.659938
          ],
          [
            99.517954,
            34.660495
          ],
          [
            99.516154,
            34.660614
          ],
          [
            99.514858,
            34.661116
          ],
          [
            99.513002,
            34.661667
          ],
          [
            99.510742,
            34.66207
          ],
          [
            99.510432,
            34.662332
          ],
          [
            99.51045,
            34.662242
          ],
          [
            99.510109,
            34.662172
          ],
          [
            99.506875,
            34.66259
          ],
          [
            99.505711,
            34.662628
          ],
          [
            99.505391,
            34.662718
          ],
          [
            99.504609,
            34.662707
          ],
          [
            99.504567,
            34.662828
          ],
          [
            99.504405,
            34.662703
          ],
          [
            99.504031,
            34.662703
          ],
          [
            99.502182,
            34.662961
          ],
          [
            99.500984,
            34.663419
          ],
          [
            99.499948,
            34.664298
          ],
          [
            99.499062,
            34.665345
          ],
          [
            99.498537,
            34.666148
          ],
          [
            99.498322,
            34.66624
          ],
          [
            99.497841,
            34.666709
          ],
          [
            99.497358,
            34.667961
          ],
          [
            99.496929,
            34.668594
          ],
          [
            99.495393,
            34.669435
          ],
          [
            99.493996,
            34.670004
          ],
          [
            99.493291,
            34.670088
          ],
          [
            99.491887,
            34.6699
          ],
          [
            99.490916,
            34.669874
          ],
          [
            99.489827,
            34.670078
          ],
          [
            99.487955,
            34.670763
          ],
          [
            99.487135,
            34.67161
          ],
          [
            99.485766,
            34.674202
          ],
          [
            99.485153,
            34.675092
          ],
          [
            99.484489,
            34.676622
          ],
          [
            99.484041,
            34.677189
          ],
          [
            99.483519,
            34.677601
          ],
          [
            99.481991,
            34.678324
          ],
          [
            99.479345,
            34.679327
          ],
          [
            99.47877,
            34.679218
          ],
          [
            99.47854,
            34.67964
          ],
          [
            99.47729,
            34.680016
          ],
          [
            99.47746,
            34.679958
          ],
          [
            99.477284,
            34.680154
          ],
          [
            99.477397,
            34.680411
          ],
          [
            99.476947,
            34.680352
          ],
          [
            99.476751,
            34.680028
          ],
          [
            99.475619,
            34.680042
          ],
          [
            99.473061,
            34.67917
          ],
          [
            99.472705,
            34.67921
          ],
          [
            99.471794,
            34.679859
          ],
          [
            99.470094,
            34.681723
          ],
          [
            99.469222,
            34.682209
          ],
          [
            99.468506,
            34.683088
          ],
          [
            99.46843,
            34.683293
          ],
          [
            99.468681,
            34.683747
          ],
          [
            99.469216,
            34.684385
          ],
          [
            99.469396,
            34.684854
          ],
          [
            99.469022,
            34.685993
          ],
          [
            99.469022,
            34.68676
          ],
          [
            99.469159,
            34.687214
          ],
          [
            99.469304,
            34.687365
          ],
          [
            99.469523,
            34.687429
          ],
          [
            99.470127,
            34.687385
          ],
          [
            99.47039,
            34.687584
          ],
          [
            99.470993,
            34.688783
          ],
          [
            99.471917,
            34.689681
          ],
          [
            99.472514,
            34.690563
          ],
          [
            99.472606,
            34.690863
          ],
          [
            99.472495,
            34.691271
          ],
          [
            99.472202,
            34.692068
          ],
          [
            99.471526,
            34.69276
          ],
          [
            99.471421,
            34.694186
          ],
          [
            99.47076,
            34.695304
          ],
          [
            99.469782,
            34.696399
          ],
          [
            99.469413,
            34.696996
          ],
          [
            99.469287,
            34.697058
          ],
          [
            99.468957,
            34.69697
          ],
          [
            99.468857,
            34.697524
          ],
          [
            99.46779,
            34.698746
          ],
          [
            99.467251,
            34.700366
          ],
          [
            99.466899,
            34.700786
          ],
          [
            99.466084,
            34.702798
          ],
          [
            99.465989,
            34.703506
          ],
          [
            99.466098,
            34.70419
          ],
          [
            99.465745,
            34.704689
          ],
          [
            99.465312,
            34.705593
          ],
          [
            99.464368,
            34.70664
          ],
          [
            99.46404,
            34.707496
          ],
          [
            99.463109,
            34.708816
          ],
          [
            99.463079,
            34.709191
          ],
          [
            99.462947,
            34.709429
          ],
          [
            99.461766,
            34.710439
          ],
          [
            99.460951,
            34.71141
          ],
          [
            99.460861,
            34.712331
          ],
          [
            99.459602,
            34.71369
          ],
          [
            99.459647,
            34.713867
          ],
          [
            99.460135,
            34.714328
          ],
          [
            99.460107,
            34.714618
          ],
          [
            99.459591,
            34.715062
          ],
          [
            99.458717,
            34.715146
          ],
          [
            99.458408,
            34.715263
          ],
          [
            99.458256,
            34.715651
          ],
          [
            99.45787,
            34.716181
          ],
          [
            99.45769,
            34.716277
          ],
          [
            99.45753,
            34.716643
          ],
          [
            99.455956,
            34.718477
          ],
          [
            99.455664,
            34.718675
          ],
          [
            99.454966,
            34.718877
          ],
          [
            99.454508,
            34.719296
          ],
          [
            99.454197,
            34.719901
          ],
          [
            99.454124,
            34.720308
          ],
          [
            99.454338,
            34.721303
          ],
          [
            99.45428,
            34.721489
          ],
          [
            99.454113,
            34.721623
          ],
          [
            99.453526,
            34.72176
          ],
          [
            99.45326,
            34.721998
          ],
          [
            99.452668,
            34.722859
          ],
          [
            99.452296,
            34.72412
          ],
          [
            99.451726,
            34.724652
          ],
          [
            99.450958,
            34.724941
          ],
          [
            99.450581,
            34.725327
          ],
          [
            99.450037,
            34.726248
          ],
          [
            99.449514,
            34.726662
          ],
          [
            99.449247,
            34.726992
          ],
          [
            99.448609,
            34.728073
          ],
          [
            99.448541,
            34.728338
          ],
          [
            99.448455,
            34.728353
          ],
          [
            99.448134,
            34.729214
          ],
          [
            99.447385,
            34.729947
          ],
          [
            99.446888,
            34.730624
          ],
          [
            99.446627,
            34.730817
          ],
          [
            99.446171,
            34.730972
          ],
          [
            99.445551,
            34.732128
          ],
          [
            99.445347,
            34.732232
          ],
          [
            99.444624,
            34.732306
          ],
          [
            99.442953,
            34.732911
          ],
          [
            99.442514,
            34.733378
          ],
          [
            99.441916,
            34.733741
          ],
          [
            99.441276,
            34.734634
          ],
          [
            99.440914,
            34.735397
          ],
          [
            99.440503,
            34.735897
          ],
          [
            99.438729,
            34.735859
          ],
          [
            99.438187,
            34.736145
          ],
          [
            99.437275,
            34.737546
          ],
          [
            99.437031,
            34.739034
          ],
          [
            99.436373,
            34.740438
          ],
          [
            99.436038,
            34.742041
          ],
          [
            99.435286,
            34.742738
          ],
          [
            99.435146,
            34.743851
          ],
          [
            99.435217,
            34.74409
          ],
          [
            99.435026,
            34.744538
          ],
          [
            99.434153,
            34.74563
          ],
          [
            99.43374,
            34.746578
          ],
          [
            99.432495,
            34.748161
          ],
          [
            99.432065,
            34.748507
          ],
          [
            99.429818,
            34.749789
          ],
          [
            99.429355,
            34.750164
          ],
          [
            99.429038,
            34.750668
          ],
          [
            99.428634,
            34.75105
          ],
          [
            99.427315,
            34.751882
          ],
          [
            99.426124,
            34.753139
          ],
          [
            99.425783,
            34.753836
          ],
          [
            99.42513,
            34.754627
          ],
          [
            99.424288,
            34.755178
          ],
          [
            99.423654,
            34.756082
          ],
          [
            99.421828,
            34.758053
          ],
          [
            99.420672,
            34.759053
          ],
          [
            99.419975,
            34.759178
          ],
          [
            99.419705,
            34.759329
          ],
          [
            99.419678,
            34.759729
          ],
          [
            99.420504,
            34.760851
          ],
          [
            99.422101,
            34.761571
          ],
          [
            99.422205,
            34.761778
          ],
          [
            99.422069,
            34.762064
          ],
          [
            99.421877,
            34.762212
          ],
          [
            99.42002,
            34.762497
          ],
          [
            99.421428,
            34.763925
          ],
          [
            99.42151,
            34.764209
          ],
          [
            99.420893,
            34.764576
          ],
          [
            99.42051,
            34.765032
          ],
          [
            99.419553,
            34.765639
          ],
          [
            99.418795,
            34.766777
          ],
          [
            99.418335,
            34.767795
          ],
          [
            99.417393,
            34.76812
          ],
          [
            99.417075,
            34.767815
          ],
          [
            99.416829,
            34.767803
          ],
          [
            99.415312,
            34.768363
          ],
          [
            99.414964,
            34.768621
          ],
          [
            99.413807,
            34.76853
          ],
          [
            99.409759,
            34.76866
          ],
          [
            99.409123,
            34.768755
          ],
          [
            99.408304,
            34.76918
          ],
          [
            99.406645,
            34.771115
          ],
          [
            99.405721,
            34.77243
          ],
          [
            99.405378,
            34.773291
          ],
          [
            99.404938,
            34.773918
          ],
          [
            99.404048,
            34.77567
          ],
          [
            99.403544,
            34.777024
          ],
          [
            99.402979,
            34.778057
          ],
          [
            99.402389,
            34.778906
          ],
          [
            99.402427,
            34.779178
          ],
          [
            99.402296,
            34.779462
          ],
          [
            99.401546,
            34.780197
          ],
          [
            99.401663,
            34.780519
          ],
          [
            99.401095,
            34.780699
          ],
          [
            99.401296,
            34.781574
          ],
          [
            99.401012,
            34.781887
          ],
          [
            99.400438,
            34.783525
          ],
          [
            99.399892,
            34.784603
          ],
          [
            99.398945,
            34.785731
          ],
          [
            99.398708,
            34.786204
          ],
          [
            99.39839,
            34.787864
          ],
          [
            99.3985,
            34.788441
          ],
          [
            99.399001,
            34.789123
          ],
          [
            99.399238,
            34.789696
          ],
          [
            99.399182,
            34.790286
          ],
          [
            99.399499,
            34.791269
          ],
          [
            99.399574,
            34.79235
          ],
          [
            99.39977,
            34.792702
          ],
          [
            99.400147,
            34.792987
          ],
          [
            99.400242,
            34.793722
          ],
          [
            99.40093,
            34.794233
          ],
          [
            99.400754,
            34.794823
          ],
          [
            99.401143,
            34.795577
          ],
          [
            99.40132,
            34.796238
          ],
          [
            99.401371,
            34.797104
          ],
          [
            99.401503,
            34.797497
          ],
          [
            99.401441,
            34.797702
          ],
          [
            99.400054,
            34.798442
          ],
          [
            99.399979,
            34.798621
          ],
          [
            99.400668,
            34.799671
          ],
          [
            99.400754,
            34.800227
          ],
          [
            99.400786,
            34.799947
          ],
          [
            99.401374,
            34.799615
          ],
          [
            99.401598,
            34.799376
          ],
          [
            99.401418,
            34.79962
          ],
          [
            99.40075,
            34.800037
          ],
          [
            99.400941,
            34.801391
          ],
          [
            99.400788,
            34.801563
          ],
          [
            99.400553,
            34.801654
          ],
          [
            99.400408,
            34.802065
          ],
          [
            99.400683,
            34.802407
          ],
          [
            99.400668,
            34.802502
          ],
          [
            99.400495,
            34.802638
          ],
          [
            99.400109,
            34.802653
          ],
          [
            99.399716,
            34.802861
          ],
          [
            99.399021,
            34.803052
          ],
          [
            99.398699,
            34.803236
          ],
          [
            99.398617,
            34.80337
          ],
          [
            99.398629,
            34.804356
          ],
          [
            99.398758,
            34.804857
          ],
          [
            99.399031,
            34.805381
          ],
          [
            99.398802,
            34.806174
          ],
          [
            99.398823,
            34.806968
          ],
          [
            99.399143,
            34.807266
          ],
          [
            99.399163,
            34.807442
          ],
          [
            99.399558,
            34.80731
          ],
          [
            99.399996,
            34.807458
          ],
          [
            99.400873,
            34.80759
          ],
          [
            99.401094,
            34.807673
          ],
          [
            99.401204,
            34.807832
          ],
          [
            99.401075,
            34.808125
          ],
          [
            99.400115,
            34.808673
          ],
          [
            99.399582,
            34.809218
          ],
          [
            99.399263,
            34.809872
          ],
          [
            99.398574,
            34.810546
          ],
          [
            99.398359,
            34.811014
          ],
          [
            99.398342,
            34.811609
          ],
          [
            99.398761,
            34.812474
          ],
          [
            99.398799,
            34.813669
          ],
          [
            99.399271,
            34.813982
          ],
          [
            99.399442,
            34.814447
          ],
          [
            99.399324,
            34.814674
          ],
          [
            99.398768,
            34.81518
          ],
          [
            99.398608,
            34.816629
          ],
          [
            99.398243,
            34.817103
          ],
          [
            99.398008,
            34.818725
          ],
          [
            99.397529,
            34.819799
          ],
          [
            99.396211,
            34.821365
          ],
          [
            99.395808,
            34.822115
          ],
          [
            99.395735,
            34.822426
          ],
          [
            99.394903,
            34.823177
          ],
          [
            99.394787,
            34.823458
          ],
          [
            99.394451,
            34.823849
          ],
          [
            99.393936,
            34.824268
          ],
          [
            99.393055,
            34.825789
          ],
          [
            99.392943,
            34.825807
          ],
          [
            99.392479,
            34.827298
          ],
          [
            99.392078,
            34.829703
          ],
          [
            99.391968,
            34.829958
          ],
          [
            99.391685,
            34.830252
          ],
          [
            99.391101,
            34.831434
          ],
          [
            99.391058,
            34.831706
          ],
          [
            99.390782,
            34.831724
          ],
          [
            99.390584,
            34.83218
          ],
          [
            99.38985,
            34.832801
          ],
          [
            99.389773,
            34.833098
          ],
          [
            99.389531,
            34.833426
          ],
          [
            99.389416,
            34.833896
          ],
          [
            99.389111,
            34.834339
          ],
          [
            99.389013,
            34.834967
          ],
          [
            99.388517,
            34.836433
          ],
          [
            99.387688,
            34.837628
          ],
          [
            99.387097,
            34.838005
          ],
          [
            99.386507,
            34.838674
          ],
          [
            99.385747,
            34.839145
          ],
          [
            99.385507,
            34.839382
          ],
          [
            99.385162,
            34.839991
          ],
          [
            99.384736,
            34.841182
          ],
          [
            99.384489,
            34.841521
          ],
          [
            99.38417,
            34.842373
          ],
          [
            99.38393,
            34.842583
          ],
          [
            99.383409,
            34.843697
          ],
          [
            99.383086,
            34.844009
          ],
          [
            99.382749,
            34.844073
          ],
          [
            99.38252,
            34.843998
          ],
          [
            99.382179,
            34.844086
          ],
          [
            99.381866,
            34.844865
          ],
          [
            99.381808,
            34.845529
          ],
          [
            99.381489,
            34.845928
          ],
          [
            99.381484,
            34.846111
          ],
          [
            99.380963,
            34.846609
          ],
          [
            99.380617,
            34.847155
          ],
          [
            99.380042,
            34.849259
          ],
          [
            99.378837,
            34.850557
          ],
          [
            99.378435,
            34.850732
          ],
          [
            99.378366,
            34.850584
          ],
          [
            99.37828,
            34.850728
          ],
          [
            99.377883,
            34.850974
          ],
          [
            99.377764,
            34.851439
          ],
          [
            99.375843,
            34.85205
          ],
          [
            99.375168,
            34.852183
          ],
          [
            99.373709,
            34.852699
          ],
          [
            99.372312,
            34.853591
          ],
          [
            99.370679,
            34.854162
          ],
          [
            99.37006,
            34.854579
          ],
          [
            99.36888,
            34.854968
          ],
          [
            99.368377,
            34.85554
          ],
          [
            99.367759,
            34.855836
          ],
          [
            99.366949,
            34.856044
          ],
          [
            99.365039,
            34.856318
          ],
          [
            99.363815,
            34.856783
          ],
          [
            99.363186,
            34.857227
          ],
          [
            99.361895,
            34.857695
          ],
          [
            99.361022,
            34.85896
          ],
          [
            99.357482,
            34.862217
          ],
          [
            99.356924,
            34.862714
          ],
          [
            99.356612,
            34.862841
          ],
          [
            99.35619,
            34.863317
          ],
          [
            99.354823,
            34.864524
          ],
          [
            99.354329,
            34.865074
          ],
          [
            99.354208,
            34.865378
          ],
          [
            99.353365,
            34.865906
          ],
          [
            99.352154,
            34.867293
          ],
          [
            99.349287,
            34.870248
          ],
          [
            99.348704,
            34.870087
          ],
          [
            99.346573,
            34.868362
          ],
          [
            99.346351,
            34.868279
          ],
          [
            99.344649,
            34.869066
          ],
          [
            99.342823,
            34.870158
          ],
          [
            99.342045,
            34.870414
          ],
          [
            99.341122,
            34.870583
          ],
          [
            99.33923,
            34.87125
          ],
          [
            99.338581,
            34.87159
          ],
          [
            99.337878,
            34.871786
          ],
          [
            99.337485,
            34.872011
          ],
          [
            99.333905,
            34.873068
          ],
          [
            99.329336,
            34.874639
          ],
          [
            99.324943,
            34.876466
          ],
          [
            99.319837,
            34.878821
          ],
          [
            99.318515,
            34.879181
          ],
          [
            99.315076,
            34.880336
          ],
          [
            99.313746,
            34.880902
          ],
          [
            99.313542,
            34.881024
          ],
          [
            99.312935,
            34.88188
          ],
          [
            99.312102,
            34.882565
          ],
          [
            99.311498,
            34.883241
          ],
          [
            99.309015,
            34.885133
          ],
          [
            99.306445,
            34.886688
          ],
          [
            99.303944,
            34.888014
          ],
          [
            99.303154,
            34.8883
          ],
          [
            99.30229,
            34.889008
          ],
          [
            99.300977,
            34.889888
          ],
          [
            99.299709,
            34.890159
          ],
          [
            99.298615,
            34.890604
          ],
          [
            99.297352,
            34.89171
          ],
          [
            99.29669,
            34.891936
          ],
          [
            99.294851,
            34.893362
          ],
          [
            99.294053,
            34.893629
          ],
          [
            99.292658,
            34.893911
          ],
          [
            99.290293,
            34.894749
          ],
          [
            99.289888,
            34.894957
          ],
          [
            99.287867,
            34.895574
          ],
          [
            99.286336,
            34.89644
          ],
          [
            99.285192,
            34.896971
          ],
          [
            99.283496,
            34.898126
          ],
          [
            99.282511,
            34.898642
          ],
          [
            99.282063,
            34.89901
          ],
          [
            99.280305,
            34.900013
          ],
          [
            99.279903,
            34.900149
          ],
          [
            99.279455,
            34.900731
          ],
          [
            99.278927,
            34.900949
          ],
          [
            99.278081,
            34.901624
          ],
          [
            99.277109,
            34.902181
          ],
          [
            99.27642,
            34.902391
          ],
          [
            99.276055,
            34.902409
          ],
          [
            99.27475,
            34.902816
          ],
          [
            99.273815,
            34.903366
          ],
          [
            99.272649,
            34.903785
          ],
          [
            99.27219,
            34.904127
          ],
          [
            99.271728,
            34.90412
          ],
          [
            99.270779,
            34.905283
          ],
          [
            99.269091,
            34.906974
          ],
          [
            99.268778,
            34.907409
          ],
          [
            99.268275,
            34.907613
          ],
          [
            99.268148,
            34.907778
          ],
          [
            99.267984,
            34.909024
          ],
          [
            99.267721,
            34.909442
          ],
          [
            99.267754,
            34.910131
          ],
          [
            99.267576,
            34.910366
          ],
          [
            99.267696,
            34.910942
          ],
          [
            99.267299,
            34.912395
          ],
          [
            99.267972,
            34.914963
          ],
          [
            99.267716,
            34.915292
          ],
          [
            99.267729,
            34.915463
          ],
          [
            99.268085,
            34.916115
          ],
          [
            99.268325,
            34.91689
          ],
          [
            99.268563,
            34.917232
          ],
          [
            99.268942,
            34.918399
          ],
          [
            99.269958,
            34.919399
          ],
          [
            99.270073,
            34.920601
          ],
          [
            99.270306,
            34.921549
          ],
          [
            99.270872,
            34.92218
          ],
          [
            99.27076,
            34.922328
          ],
          [
            99.270388,
            34.92243
          ],
          [
            99.270297,
            34.922618
          ],
          [
            99.270253,
            34.922918
          ],
          [
            99.270414,
            34.923809
          ],
          [
            99.270414,
            34.924593
          ],
          [
            99.270951,
            34.925981
          ],
          [
            99.271541,
            34.926847
          ],
          [
            99.271798,
            34.927544
          ],
          [
            99.273217,
            34.929688
          ],
          [
            99.273932,
            34.931182
          ],
          [
            99.274247,
            34.931564
          ],
          [
            99.274099,
            34.931749
          ],
          [
            99.274248,
            34.9319
          ],
          [
            99.274567,
            34.931965
          ],
          [
            99.275964,
            34.933248
          ],
          [
            99.276836,
            34.933586
          ],
          [
            99.277108,
            34.933787
          ],
          [
            99.278147,
            34.93564
          ],
          [
            99.278808,
            34.936287
          ],
          [
            99.279443,
            34.93669
          ],
          [
            99.279842,
            34.936838
          ],
          [
            99.280494,
            34.93732
          ],
          [
            99.28162,
            34.937726
          ],
          [
            99.282355,
            34.938203
          ],
          [
            99.282942,
            34.938971
          ],
          [
            99.283836,
            34.939779
          ],
          [
            99.284792,
            34.941099
          ],
          [
            99.285132,
            34.94133
          ],
          [
            99.285396,
            34.94166
          ],
          [
            99.286226,
            34.94207
          ],
          [
            99.286616,
            34.942425
          ],
          [
            99.28778,
            34.944386
          ],
          [
            99.289021,
            34.945535
          ],
          [
            99.28898,
            34.945612
          ],
          [
            99.289216,
            34.946083
          ],
          [
            99.289951,
            34.946898
          ],
          [
            99.290472,
            34.947314
          ],
          [
            99.291977,
            34.948182
          ],
          [
            99.292301,
            34.948603
          ],
          [
            99.292477,
            34.949275
          ],
          [
            99.29307,
            34.949625
          ],
          [
            99.293574,
            34.950199
          ],
          [
            99.293802,
            34.950288
          ],
          [
            99.294299,
            34.95216
          ],
          [
            99.294802,
            34.953236
          ],
          [
            99.294837,
            34.95365
          ],
          [
            99.295454,
            34.954859
          ],
          [
            99.29553,
            34.956366
          ],
          [
            99.296207,
            34.95763
          ],
          [
            99.296684,
            34.95938
          ],
          [
            99.297227,
            34.960712
          ],
          [
            99.296978,
            34.961417
          ],
          [
            99.296964,
            34.962579
          ],
          [
            99.297276,
            34.964308
          ],
          [
            99.297225,
            34.964703
          ],
          [
            99.296714,
            34.96625
          ],
          [
            99.297243,
            34.966852
          ],
          [
            99.299025,
            34.969877
          ],
          [
            99.299379,
            34.970398
          ],
          [
            99.299787,
            34.970795
          ],
          [
            99.300012,
            34.971259
          ],
          [
            99.300107,
            34.972649
          ],
          [
            99.300058,
            34.973161
          ],
          [
            99.299818,
            34.974237
          ],
          [
            99.299622,
            34.974598
          ],
          [
            99.29907,
            34.977039
          ],
          [
            99.299109,
            34.977854
          ],
          [
            99.298639,
            34.979023
          ],
          [
            99.303675,
            34.981776
          ],
          [
            99.304248,
            34.980878
          ],
          [
            99.304727,
            34.98061
          ],
          [
            99.30491,
            34.980296
          ],
          [
            99.30547,
            34.980059
          ],
          [
            99.305703,
            34.980375
          ],
          [
            99.305979,
            34.980573
          ],
          [
            99.305669,
            34.980508
          ],
          [
            99.305852,
            34.980589
          ],
          [
            99.305697,
            34.980741
          ],
          [
            99.305882,
            34.980587
          ],
          [
            99.305802,
            34.980497
          ],
          [
            99.30566,
            34.980513
          ],
          [
            99.30503,
            34.980905
          ],
          [
            99.305088,
            34.980978
          ],
          [
            99.30582,
            34.981038
          ],
          [
            99.306022,
            34.981229
          ],
          [
            99.305943,
            34.981278
          ],
          [
            99.305573,
            34.980935
          ],
          [
            99.305097,
            34.980917
          ],
          [
            99.305052,
            34.980848
          ],
          [
            99.305134,
            34.980771
          ],
          [
            99.305673,
            34.980486
          ],
          [
            99.306015,
            34.980537
          ],
          [
            99.306263,
            34.980477
          ],
          [
            99.307184,
            34.979977
          ],
          [
            99.308156,
            34.979068
          ],
          [
            99.308616,
            34.978279
          ],
          [
            99.310542,
            34.976933
          ],
          [
            99.311322,
            34.976289
          ],
          [
            99.312817,
            34.975285
          ],
          [
            99.313613,
            34.975082
          ],
          [
            99.313903,
            34.974905
          ],
          [
            99.314259,
            34.975125
          ],
          [
            99.31484,
            34.975141
          ],
          [
            99.314886,
            34.974745
          ],
          [
            99.315685,
            34.973882
          ],
          [
            99.317243,
            34.971725
          ],
          [
            99.318246,
            34.970782
          ],
          [
            99.320001,
            34.968898
          ],
          [
            99.321207,
            34.96795
          ],
          [
            99.321657,
            34.967156
          ],
          [
            99.322179,
            34.966763
          ],
          [
            99.322094,
            34.966471
          ],
          [
            99.322172,
            34.966293
          ],
          [
            99.325486,
            34.963549
          ],
          [
            99.327522,
            34.961502
          ],
          [
            99.330066,
            34.960612
          ],
          [
            99.331155,
            34.959888
          ],
          [
            99.332825,
            34.959022
          ],
          [
            99.335072,
            34.957321
          ],
          [
            99.335547,
            34.957155
          ],
          [
            99.336231,
            34.956435
          ],
          [
            99.337893,
            34.955582
          ],
          [
            99.339083,
            34.954767
          ],
          [
            99.339924,
            34.954359
          ],
          [
            99.341308,
            34.953912
          ],
          [
            99.343064,
            34.952975
          ],
          [
            99.343738,
            34.952562
          ],
          [
            99.344178,
            34.952072
          ],
          [
            99.344566,
            34.951791
          ],
          [
            99.346636,
            34.950656
          ],
          [
            99.348988,
            34.949751
          ],
          [
            99.351739,
            34.948494
          ],
          [
            99.354266,
            34.946649
          ],
          [
            99.356577,
            34.945307
          ],
          [
            99.357622,
            34.944808
          ],
          [
            99.358287,
            34.944232
          ],
          [
            99.358864,
            34.943864
          ],
          [
            99.359988,
            34.943532
          ],
          [
            99.360306,
            34.943362
          ],
          [
            99.360423,
            34.943203
          ],
          [
            99.362405,
            34.942706
          ],
          [
            99.364705,
            34.941479
          ],
          [
            99.365256,
            34.941279
          ],
          [
            99.367008,
            34.940945
          ],
          [
            99.368647,
            34.94016
          ],
          [
            99.371885,
            34.938158
          ],
          [
            99.375076,
            34.935833
          ],
          [
            99.375568,
            34.935618
          ],
          [
            99.376216,
            34.934773
          ],
          [
            99.37694,
            34.934234
          ],
          [
            99.378549,
            34.933498
          ],
          [
            99.37957,
            34.93293
          ],
          [
            99.381646,
            34.931567
          ],
          [
            99.382455,
            34.930867
          ],
          [
            99.383445,
            34.930181
          ],
          [
            99.385712,
            34.928913
          ],
          [
            99.386529,
            34.928611
          ],
          [
            99.388006,
            34.92831
          ],
          [
            99.389413,
            34.928139
          ],
          [
            99.389912,
            34.927935
          ],
          [
            99.393065,
            34.927644
          ],
          [
            99.394319,
            34.927075
          ],
          [
            99.397558,
            34.925987
          ],
          [
            99.39896,
            34.925307
          ],
          [
            99.399997,
            34.925061
          ],
          [
            99.400915,
            34.924545
          ],
          [
            99.401913,
            34.924141
          ],
          [
            99.404216,
            34.923634
          ],
          [
            99.405029,
            34.923669
          ],
          [
            99.405876,
            34.923538
          ],
          [
            99.407,
            34.92299
          ],
          [
            99.408372,
            34.922077
          ],
          [
            99.409656,
            34.921056
          ],
          [
            99.410078,
            34.920553
          ],
          [
            99.410622,
            34.920096
          ],
          [
            99.411376,
            34.920131
          ],
          [
            99.411816,
            34.919649
          ],
          [
            99.412284,
            34.919298
          ],
          [
            99.412855,
            34.919252
          ],
          [
            99.413813,
            34.918861
          ],
          [
            99.414502,
            34.918117
          ],
          [
            99.415923,
            34.917851
          ],
          [
            99.417941,
            34.917191
          ],
          [
            99.418279,
            34.916919
          ],
          [
            99.418883,
            34.916929
          ],
          [
            99.419313,
            34.916758
          ],
          [
            99.419556,
            34.916266
          ],
          [
            99.421077,
            34.914905
          ],
          [
            99.423349,
            34.913243
          ],
          [
            99.424836,
            34.912577
          ],
          [
            99.428162,
            34.909519
          ],
          [
            99.42879,
            34.90916
          ],
          [
            99.429059,
            34.908824
          ],
          [
            99.429447,
            34.908541
          ],
          [
            99.429674,
            34.908215
          ],
          [
            99.430006,
            34.90797
          ],
          [
            99.430326,
            34.907857
          ],
          [
            99.431261,
            34.907034
          ],
          [
            99.431491,
            34.906492
          ],
          [
            99.431845,
            34.905992
          ],
          [
            99.432255,
            34.906126
          ],
          [
            99.432893,
            34.905682
          ],
          [
            99.434903,
            34.903494
          ],
          [
            99.435672,
            34.90291
          ],
          [
            99.436119,
            34.902448
          ],
          [
            99.436526,
            34.901578
          ],
          [
            99.436866,
            34.901156
          ],
          [
            99.43723,
            34.900893
          ],
          [
            99.437979,
            34.900628
          ],
          [
            99.438705,
            34.899967
          ],
          [
            99.439845,
            34.89854
          ],
          [
            99.442617,
            34.895469
          ],
          [
            99.443696,
            34.89467
          ],
          [
            99.445172,
            34.893235
          ],
          [
            99.445967,
            34.892676
          ],
          [
            99.446562,
            34.892385
          ],
          [
            99.447035,
            34.892479
          ],
          [
            99.447237,
            34.89241
          ],
          [
            99.447279,
            34.891831
          ],
          [
            99.449208,
            34.888597
          ],
          [
            99.451335,
            34.886325
          ],
          [
            99.451637,
            34.886136
          ],
          [
            99.452358,
            34.885967
          ],
          [
            99.452751,
            34.885352
          ],
          [
            99.453558,
            34.884909
          ],
          [
            99.454811,
            34.882942
          ],
          [
            99.455532,
            34.882154
          ],
          [
            99.456146,
            34.881205
          ],
          [
            99.458142,
            34.879433
          ],
          [
            99.458736,
            34.8786
          ],
          [
            99.45981,
            34.877489
          ],
          [
            99.460395,
            34.877165
          ],
          [
            99.461221,
            34.876436
          ],
          [
            99.464459,
            34.873084
          ],
          [
            99.4647,
            34.873093
          ],
          [
            99.464879,
            34.873232
          ],
          [
            99.464903,
            34.873422
          ],
          [
            99.464813,
            34.873475
          ],
          [
            99.46499,
            34.873377
          ],
          [
            99.464699,
            34.87305
          ],
          [
            99.464872,
            34.873269
          ],
          [
            99.464865,
            34.873424
          ],
          [
            99.465331,
            34.873479
          ],
          [
            99.466894,
            34.874268
          ],
          [
            99.467456,
            34.874397
          ],
          [
            99.467579,
            34.874407
          ],
          [
            99.467746,
            34.874291
          ],
          [
            99.468195,
            34.874296
          ],
          [
            99.468889,
            34.874431
          ],
          [
            99.469143,
            34.874612
          ],
          [
            99.469443,
            34.875019
          ],
          [
            99.470901,
            34.875266
          ],
          [
            99.474038,
            34.874998
          ],
          [
            99.474712,
            34.874861
          ],
          [
            99.474935,
            34.87466
          ],
          [
            99.475428,
            34.874605
          ],
          [
            99.475984,
            34.874748
          ],
          [
            99.47636,
            34.874749
          ],
          [
            99.477473,
            34.874355
          ],
          [
            99.478172,
            34.874462
          ],
          [
            99.478837,
            34.874039
          ],
          [
            99.48068,
            34.873909
          ],
          [
            99.481557,
            34.87357
          ],
          [
            99.482986,
            34.873349
          ],
          [
            99.483332,
            34.873217
          ],
          [
            99.484819,
            34.87323
          ],
          [
            99.485527,
            34.873117
          ],
          [
            99.485856,
            34.873234
          ],
          [
            99.488921,
            34.872036
          ],
          [
            99.49021,
            34.871905
          ],
          [
            99.491172,
            34.871361
          ],
          [
            99.491557,
            34.871345
          ],
          [
            99.492048,
            34.87144
          ],
          [
            99.492521,
            34.87139
          ],
          [
            99.493573,
            34.871157
          ],
          [
            99.494433,
            34.870763
          ],
          [
            99.496575,
            34.870746
          ],
          [
            99.497694,
            34.870385
          ],
          [
            99.49805,
            34.870387
          ],
          [
            99.498613,
            34.870562
          ],
          [
            99.499221,
            34.870455
          ],
          [
            99.501127,
            34.869898
          ],
          [
            99.501651,
            34.869547
          ],
          [
            99.502445,
            34.86928
          ],
          [
            99.503044,
            34.869181
          ],
          [
            99.504019,
            34.869236
          ],
          [
            99.504728,
            34.869056
          ],
          [
            99.5056,
            34.868517
          ],
          [
            99.505997,
            34.868101
          ],
          [
            99.506812,
            34.867887
          ],
          [
            99.507614,
            34.867441
          ],
          [
            99.507855,
            34.867099
          ],
          [
            99.507853,
            34.8669
          ],
          [
            99.508282,
            34.866541
          ],
          [
            99.509369,
            34.86591
          ],
          [
            99.510285,
            34.865608
          ],
          [
            99.51091,
            34.865537
          ],
          [
            99.511339,
            34.865345
          ],
          [
            99.51227,
            34.8645
          ],
          [
            99.512766,
            34.864191
          ],
          [
            99.515003,
            34.863335
          ],
          [
            99.515964,
            34.863109
          ],
          [
            99.517617,
            34.862572
          ],
          [
            99.51853,
            34.862478
          ],
          [
            99.51897,
            34.862345
          ],
          [
            99.519937,
            34.862282
          ],
          [
            99.520501,
            34.862057
          ],
          [
            99.521118,
            34.862028
          ],
          [
            99.521472,
            34.861931
          ],
          [
            99.521963,
            34.861968
          ],
          [
            99.522683,
            34.861852
          ],
          [
            99.523983,
            34.86183
          ],
          [
            99.526032,
            34.861647
          ],
          [
            99.528724,
            34.861598
          ],
          [
            99.530798,
            34.861784
          ],
          [
            99.531491,
            34.861752
          ],
          [
            99.532327,
            34.861575
          ],
          [
            99.533503,
            34.861762
          ],
          [
            99.534296,
            34.861501
          ],
          [
            99.535102,
            34.861484
          ],
          [
            99.535412,
            34.861317
          ],
          [
            99.535872,
            34.86122
          ],
          [
            99.536372,
            34.861324
          ],
          [
            99.537005,
            34.861638
          ],
          [
            99.538168,
            34.861476
          ],
          [
            99.540773,
            34.861355
          ],
          [
            99.541426,
            34.861098
          ],
          [
            99.541801,
            34.861126
          ],
          [
            99.542891,
            34.860942
          ],
          [
            99.543987,
            34.860144
          ],
          [
            99.544918,
            34.859268
          ],
          [
            99.54572,
            34.859049
          ],
          [
            99.546803,
            34.859022
          ],
          [
            99.548294,
            34.859102
          ],
          [
            99.548318,
            34.85917
          ],
          [
            99.548365,
            34.859093
          ],
          [
            99.548964,
            34.858896
          ],
          [
            99.549888,
            34.858706
          ],
          [
            99.550543,
            34.858655
          ],
          [
            99.551517,
            34.858743
          ],
          [
            99.553341,
            34.858574
          ],
          [
            99.554086,
            34.858401
          ],
          [
            99.55605,
            34.858322
          ],
          [
            99.558214,
            34.857912
          ],
          [
            99.558606,
            34.857579
          ],
          [
            99.558821,
            34.857516
          ],
          [
            99.559384,
            34.857713
          ],
          [
            99.559976,
            34.857783
          ],
          [
            99.561105,
            34.857575
          ],
          [
            99.562479,
            34.857449
          ],
          [
            99.564446,
            34.857086
          ],
          [
            99.565648,
            34.856593
          ],
          [
            99.567785,
            34.856503
          ],
          [
            99.571441,
            34.855765
          ],
          [
            99.573806,
            34.855011
          ],
          [
            99.574971,
            34.854924
          ],
          [
            99.575072,
            34.854878
          ],
          [
            99.575118,
            34.854446
          ],
          [
            99.575298,
            34.854183
          ],
          [
            99.576891,
            34.85367
          ],
          [
            99.578309,
            34.852793
          ],
          [
            99.579387,
            34.852454
          ],
          [
            99.580226,
            34.852344
          ],
          [
            99.580863,
            34.851719
          ],
          [
            99.581611,
            34.851209
          ],
          [
            99.583519,
            34.850189
          ],
          [
            99.58555,
            34.848833
          ],
          [
            99.585783,
            34.84861
          ],
          [
            99.586034,
            34.848148
          ],
          [
            99.586829,
            34.847965
          ],
          [
            99.587131,
            34.847819
          ],
          [
            99.590311,
            34.84593
          ],
          [
            99.590405,
            34.84577
          ],
          [
            99.590198,
            34.84571
          ],
          [
            99.591302,
            34.845461
          ],
          [
            99.591874,
            34.844949
          ],
          [
            99.592078,
            34.844591
          ],
          [
            99.592354,
            34.84441
          ],
          [
            99.593686,
            34.843792
          ],
          [
            99.594583,
            34.843533
          ],
          [
            99.595537,
            34.84298
          ],
          [
            99.596238,
            34.842798
          ],
          [
            99.596735,
            34.84252
          ],
          [
            99.597466,
            34.842403
          ],
          [
            99.599477,
            34.841517
          ],
          [
            99.600087,
            34.840918
          ],
          [
            99.600557,
            34.840635
          ],
          [
            99.600859,
            34.840342
          ],
          [
            99.60223,
            34.83951
          ],
          [
            99.603698,
            34.838272
          ],
          [
            99.604221,
            34.837761
          ],
          [
            99.604259,
            34.837671
          ],
          [
            99.604123,
            34.83767
          ],
          [
            99.60416,
            34.837775
          ],
          [
            99.604268,
            34.837717
          ],
          [
            99.604954,
            34.837134
          ],
          [
            99.60608,
            34.836945
          ],
          [
            99.60619,
            34.836956
          ],
          [
            99.60624,
            34.837256
          ],
          [
            99.606473,
            34.83734
          ],
          [
            99.60661,
            34.837341
          ],
          [
            99.606918,
            34.837148
          ],
          [
            99.607456,
            34.837183
          ],
          [
            99.607665,
            34.836973
          ],
          [
            99.608702,
            34.83643
          ],
          [
            99.608988,
            34.83614
          ],
          [
            99.609202,
            34.836046
          ],
          [
            99.609481,
            34.835715
          ],
          [
            99.609491,
            34.835533
          ],
          [
            99.609903,
            34.835299
          ],
          [
            99.610784,
            34.834358
          ],
          [
            99.611441,
            34.833809
          ],
          [
            99.613462,
            34.831351
          ],
          [
            99.613854,
            34.830532
          ],
          [
            99.614753,
            34.829709
          ],
          [
            99.616111,
            34.829445
          ],
          [
            99.617918,
            34.82824
          ],
          [
            99.618261,
            34.828104
          ],
          [
            99.618521,
            34.82812
          ],
          [
            99.618817,
            34.828267
          ],
          [
            99.619467,
            34.828036
          ],
          [
            99.620448,
            34.828394
          ],
          [
            99.620794,
            34.828299
          ],
          [
            99.62096,
            34.828056
          ],
          [
            99.621312,
            34.827947
          ],
          [
            99.622111,
            34.827434
          ],
          [
            99.623581,
            34.826198
          ],
          [
            99.624409,
            34.825774
          ],
          [
            99.624674,
            34.825446
          ],
          [
            99.627509,
            34.823556
          ],
          [
            99.629681,
            34.822683
          ],
          [
            99.63093,
            34.822401
          ],
          [
            99.634017,
            34.821472
          ],
          [
            99.634946,
            34.821394
          ],
          [
            99.636571,
            34.821087
          ],
          [
            99.638063,
            34.820997
          ],
          [
            99.640162,
            34.82067
          ],
          [
            99.640516,
            34.820692
          ],
          [
            99.640787,
            34.820553
          ],
          [
            99.6422,
            34.820318
          ],
          [
            99.645441,
            34.820019
          ],
          [
            99.646739,
            34.819732
          ],
          [
            99.647963,
            34.819584
          ],
          [
            99.649308,
            34.819528
          ],
          [
            99.650454,
            34.819168
          ],
          [
            99.650999,
            34.818714
          ],
          [
            99.651836,
            34.818486
          ],
          [
            99.653124,
            34.818458
          ],
          [
            99.654099,
            34.81855
          ],
          [
            99.654344,
            34.818793
          ],
          [
            99.65503,
            34.819203
          ],
          [
            99.654915,
            34.820193
          ],
          [
            99.655081,
            34.820272
          ],
          [
            99.658491,
            34.818057
          ],
          [
            99.658594,
            34.817864
          ],
          [
            99.658521,
            34.817784
          ],
          [
            99.657965,
            34.817751
          ],
          [
            99.658119,
            34.81735
          ],
          [
            99.659943,
            34.816598
          ],
          [
            99.662503,
            34.816407
          ],
          [
            99.66421,
            34.816048
          ],
          [
            99.665768,
            34.815561
          ],
          [
            99.668909,
            34.813921
          ],
          [
            99.669602,
            34.813483
          ],
          [
            99.67036,
            34.813204
          ],
          [
            99.671132,
            34.81243
          ],
          [
            99.672661,
            34.81156
          ],
          [
            99.674691,
            34.810609
          ],
          [
            99.676124,
            34.810227
          ],
          [
            99.67665,
            34.809994
          ],
          [
            99.677275,
            34.809343
          ],
          [
            99.678592,
            34.80847
          ],
          [
            99.679436,
            34.807777
          ],
          [
            99.679889,
            34.807266
          ],
          [
            99.681071,
            34.806548
          ],
          [
            99.683016,
            34.804835
          ],
          [
            99.683677,
            34.804535
          ],
          [
            99.684497,
            34.804314
          ],
          [
            99.68509,
            34.803586
          ],
          [
            99.685908,
            34.802939
          ],
          [
            99.687599,
            34.802087
          ],
          [
            99.688421,
            34.801906
          ],
          [
            99.68915,
            34.801127
          ],
          [
            99.691454,
            34.79958
          ],
          [
            99.693121,
            34.797921
          ],
          [
            99.69421,
            34.797126
          ],
          [
            99.694739,
            34.796365
          ],
          [
            99.695257,
            34.794213
          ],
          [
            99.695493,
            34.793738
          ],
          [
            99.695824,
            34.793412
          ],
          [
            99.697286,
            34.792415
          ],
          [
            99.697994,
            34.791829
          ],
          [
            99.700221,
            34.788892
          ],
          [
            99.701299,
            34.787798
          ],
          [
            99.701341,
            34.78763
          ],
          [
            99.701137,
            34.78748
          ],
          [
            99.701214,
            34.787281
          ],
          [
            99.701997,
            34.786558
          ],
          [
            99.702313,
            34.78606
          ],
          [
            99.701296,
            34.785635
          ],
          [
            99.701406,
            34.785125
          ],
          [
            99.701281,
            34.784966
          ],
          [
            99.700974,
            34.784826
          ],
          [
            99.700363,
            34.784666
          ],
          [
            99.699295,
            34.784713
          ],
          [
            99.698641,
            34.784415
          ],
          [
            99.69854,
            34.783958
          ],
          [
            99.698243,
            34.783637
          ],
          [
            99.698028,
            34.782825
          ],
          [
            99.697822,
            34.782461
          ],
          [
            99.697249,
            34.782094
          ],
          [
            99.696505,
            34.781968
          ],
          [
            99.695989,
            34.781611
          ],
          [
            99.695688,
            34.781089
          ],
          [
            99.69557,
            34.780607
          ],
          [
            99.695023,
            34.779939
          ],
          [
            99.694184,
            34.779055
          ],
          [
            99.692694,
            34.777873
          ],
          [
            99.692354,
            34.777355
          ],
          [
            99.69202,
            34.777058
          ],
          [
            99.691898,
            34.77648
          ],
          [
            99.691357,
            34.776198
          ],
          [
            99.691201,
            34.774727
          ],
          [
            99.690855,
            34.774231
          ],
          [
            99.690612,
            34.774011
          ],
          [
            99.689845,
            34.773668
          ],
          [
            99.689745,
            34.773503
          ],
          [
            99.689816,
            34.773201
          ],
          [
            99.690047,
            34.772947
          ],
          [
            99.690252,
            34.772881
          ],
          [
            99.690979,
            34.7729
          ],
          [
            99.69125,
            34.7727
          ],
          [
            99.691293,
            34.771604
          ],
          [
            99.691431,
            34.770829
          ],
          [
            99.691236,
            34.77037
          ],
          [
            99.691133,
            34.769329
          ],
          [
            99.691254,
            34.768718
          ],
          [
            99.691454,
            34.768318
          ],
          [
            99.691278,
            34.767321
          ],
          [
            99.69152,
            34.766633
          ],
          [
            99.69152,
            34.76624
          ],
          [
            99.691245,
            34.765238
          ],
          [
            99.690986,
            34.764795
          ],
          [
            99.692255,
            34.762263
          ],
          [
            99.692531,
            34.761205
          ],
          [
            99.692442,
            34.760511
          ],
          [
            99.692907,
            34.760152
          ],
          [
            99.692982,
            34.759853
          ],
          [
            99.693385,
            34.759495
          ],
          [
            99.693494,
            34.759123
          ],
          [
            99.693285,
            34.758263
          ],
          [
            99.692987,
            34.757715
          ],
          [
            99.693022,
            34.756979
          ],
          [
            99.692261,
            34.756174
          ],
          [
            99.692274,
            34.75579
          ],
          [
            99.692602,
            34.755247
          ],
          [
            99.692272,
            34.754703
          ],
          [
            99.691399,
            34.753762
          ],
          [
            99.69135,
            34.753566
          ],
          [
            99.691447,
            34.753375
          ],
          [
            99.692202,
            34.753039
          ],
          [
            99.692566,
            34.752648
          ],
          [
            99.693021,
            34.752362
          ],
          [
            99.6932,
            34.75121
          ],
          [
            99.693171,
            34.749698
          ],
          [
            99.693691,
            34.748663
          ],
          [
            99.694043,
            34.748254
          ],
          [
            99.694393,
            34.747645
          ],
          [
            99.694547,
            34.746978
          ],
          [
            99.694506,
            34.746788
          ],
          [
            99.693268,
            34.745959
          ],
          [
            99.693058,
            34.74572
          ],
          [
            99.693091,
            34.745431
          ],
          [
            99.69363,
            34.74451
          ],
          [
            99.693659,
            34.744204
          ],
          [
            99.693556,
            34.743837
          ],
          [
            99.69318,
            34.743547
          ],
          [
            99.693056,
            34.743272
          ],
          [
            99.693662,
            34.74129
          ],
          [
            99.694214,
            34.740196
          ],
          [
            99.694389,
            34.737775
          ],
          [
            99.694143,
            34.737213
          ],
          [
            99.695007,
            34.735874
          ],
          [
            99.695144,
            34.735375
          ],
          [
            99.695074,
            34.735095
          ],
          [
            99.694896,
            34.734829
          ],
          [
            99.694361,
            34.73444
          ],
          [
            99.69345,
            34.734173
          ],
          [
            99.692728,
            34.734079
          ],
          [
            99.69219,
            34.733772
          ],
          [
            99.691602,
            34.733201
          ],
          [
            99.691387,
            34.732868
          ],
          [
            99.69113,
            34.731786
          ],
          [
            99.690819,
            34.731255
          ],
          [
            99.689479,
            34.730419
          ],
          [
            99.688749,
            34.730274
          ],
          [
            99.688463,
            34.730081
          ],
          [
            99.687086,
            34.726652
          ],
          [
            99.686839,
            34.726409
          ],
          [
            99.686358,
            34.726204
          ],
          [
            99.686231,
            34.726056
          ],
          [
            99.686581,
            34.725386
          ],
          [
            99.686538,
            34.724988
          ],
          [
            99.686352,
            34.724732
          ],
          [
            99.685788,
            34.724353
          ],
          [
            99.685674,
            34.723646
          ],
          [
            99.685469,
            34.723272
          ],
          [
            99.685119,
            34.723108
          ],
          [
            99.684501,
            34.723133
          ],
          [
            99.684308,
            34.723052
          ],
          [
            99.684291,
            34.722334
          ],
          [
            99.683928,
            34.721179
          ],
          [
            99.683891,
            34.720232
          ],
          [
            99.683667,
            34.71958
          ],
          [
            99.682847,
            34.718856
          ],
          [
            99.68111,
            34.718408
          ],
          [
            99.680503,
            34.717305
          ],
          [
            99.680098,
            34.716922
          ],
          [
            99.679738,
            34.716878
          ],
          [
            99.67895,
            34.717171
          ],
          [
            99.678511,
            34.717105
          ],
          [
            99.67811,
            34.71671
          ],
          [
            99.677997,
            34.715898
          ],
          [
            99.677761,
            34.715567
          ],
          [
            99.677442,
            34.715435
          ],
          [
            99.676684,
            34.715505
          ],
          [
            99.676343,
            34.71542
          ],
          [
            99.6762,
            34.715271
          ],
          [
            99.676234,
            34.714779
          ],
          [
            99.675844,
            34.714279
          ],
          [
            99.674439,
            34.713971
          ],
          [
            99.673523,
            34.713355
          ],
          [
            99.673403,
            34.712997
          ],
          [
            99.673736,
            34.712449
          ],
          [
            99.673764,
            34.712168
          ],
          [
            99.673133,
            34.71128
          ],
          [
            99.672535,
            34.711099
          ],
          [
            99.67191,
            34.710777
          ],
          [
            99.670376,
            34.709359
          ],
          [
            99.669502,
            34.708849
          ],
          [
            99.669199,
            34.708524
          ],
          [
            99.668685,
            34.708273
          ],
          [
            99.668439,
            34.708012
          ],
          [
            99.667693,
            34.706346
          ],
          [
            99.667285,
            34.705995
          ],
          [
            99.666651,
            34.70481
          ],
          [
            99.666374,
            34.704509
          ],
          [
            99.66578,
            34.702545
          ],
          [
            99.66584,
            34.702113
          ],
          [
            99.66612,
            34.701353
          ],
          [
            99.665993,
            34.699628
          ],
          [
            99.666377,
            34.6987
          ],
          [
            99.666204,
            34.698016
          ],
          [
            99.66646,
            34.697147
          ],
          [
            99.666384,
            34.696747
          ],
          [
            99.665994,
            34.696385
          ],
          [
            99.665679,
            34.695848
          ],
          [
            99.665952,
            34.694778
          ],
          [
            99.665739,
            34.693519
          ],
          [
            99.666604,
            34.691741
          ],
          [
            99.666622,
            34.690759
          ],
          [
            99.667839,
            34.689471
          ],
          [
            99.667513,
            34.688295
          ],
          [
            99.667504,
            34.687907
          ],
          [
            99.668168,
            34.686532
          ],
          [
            99.668531,
            34.683844
          ],
          [
            99.669861,
            34.680623
          ],
          [
            99.670073,
            34.679535
          ],
          [
            99.670022,
            34.67938
          ],
          [
            99.6701,
            34.67933
          ],
          [
            99.66983,
            34.678266
          ],
          [
            99.671104,
            34.677067
          ],
          [
            99.671967,
            34.676541
          ],
          [
            99.672513,
            34.675726
          ],
          [
            99.672976,
            34.675278
          ],
          [
            99.675177,
            34.673571
          ],
          [
            99.675741,
            34.672747
          ],
          [
            99.675988,
            34.672044
          ],
          [
            99.676239,
            34.671693
          ],
          [
            99.678028,
            34.670481
          ],
          [
            99.678023,
            34.670059
          ],
          [
            99.678369,
            34.669311
          ],
          [
            99.678572,
            34.669253
          ],
          [
            99.678958,
            34.669382
          ],
          [
            99.679212,
            34.669373
          ],
          [
            99.679462,
            34.668705
          ],
          [
            99.679654,
            34.668456
          ],
          [
            99.681567,
            34.667655
          ],
          [
            99.682963,
            34.666614
          ],
          [
            99.68355,
            34.666018
          ],
          [
            99.685228,
            34.663628
          ],
          [
            99.685778,
            34.662574
          ],
          [
            99.686156,
            34.66132
          ],
          [
            99.686195,
            34.660497
          ],
          [
            99.686629,
            34.659221
          ],
          [
            99.686959,
            34.658965
          ],
          [
            99.687071,
            34.658708
          ],
          [
            99.687643,
            34.658405
          ],
          [
            99.687468,
            34.65838
          ],
          [
            99.687034,
            34.658617
          ],
          [
            99.686935,
            34.6586
          ]
        ]
      }
    }
  ]
}
