{
  "type": "FeatureCollection",
  "features": [
    {
      "type": "Feature",
      "properties": {
        "name": "博格达大环线参考轨迹",
        "type": "hiking",
        "source": "两步路用户轨迹",
        "segments": 1
      },
      "geometry": {
        "type": "LineString",
        "coordinates": [
          [
            88.509324,
            43.681061
          ],
          [
            88.509222,
            43.681331
          ],
          [
            88.509363,
            43.681794
          ],
          [
            88.508986,
            43.68226
          ],
          [
            88.509001,
            43.682999
          ],
          [
            88.509683,
            43.684714
          ],
          [
            88.510258,
            43.685182
          ],
          [
            88.510269,
            43.686115
          ],
          [
            88.510701,
            43.687386
          ],
          [
            88.510884,
            43.687508
          ],
          [
            88.511136,
            43.687542
          ],
          [
            88.512643,
            43.68872
          ],
          [
            88.513692,
            43.689679
          ],
          [
            88.514136,
            43.690559
          ],
          [
            88.514516,
            43.690797
          ],
          [
            88.515075,
            43.692415
          ],
          [
            88.51566,
            43.694768
          ],
          [
            88.515,
            43.69588
          ],
          [
            88.514758,
            43.69699
          ],
          [
            88.514597,
            43.697236
          ],
          [
            88.514477,
            43.698169
          ],
          [
            88.514349,
            43.698167
          ],
          [
            88.513977,
            43.697909
          ],
          [
            88.513777,
            43.697676
          ],
          [
            88.513406,
            43.69699
          ],
          [
            88.513348,
            43.696528
          ],
          [
            88.513164,
            43.696439
          ],
          [
            88.510843,
            43.699025
          ],
          [
            88.509397,
            43.699646
          ],
          [
            88.508992,
            43.700429
          ],
          [
            88.50905,
            43.700981
          ],
          [
            88.508559,
            43.701415
          ],
          [
            88.507651,
            43.703103
          ],
          [
            88.507667,
            43.703391
          ],
          [
            88.507405,
            43.704027
          ],
          [
            88.50739,
            43.704852
          ],
          [
            88.507202,
            43.705689
          ],
          [
            88.507247,
            43.706273
          ],
          [
            88.507155,
            43.706555
          ],
          [
            88.506806,
            43.706822
          ],
          [
            88.506532,
            43.70726
          ],
          [
            88.50595,
            43.708695
          ],
          [
            88.505842,
            43.709456
          ],
          [
            88.505359,
            43.710441
          ],
          [
            88.505403,
            43.711187
          ],
          [
            88.50522,
            43.711435
          ],
          [
            88.504873,
            43.712448
          ],
          [
            88.504597,
            43.712769
          ],
          [
            88.504336,
            43.713864
          ],
          [
            88.503884,
            43.714735
          ],
          [
            88.503917,
            43.714918
          ],
          [
            88.504689,
            43.715556
          ],
          [
            88.50478,
            43.715725
          ],
          [
            88.504323,
            43.715878
          ],
          [
            88.503813,
            43.715922
          ],
          [
            88.503727,
            43.716196
          ],
          [
            88.503507,
            43.716436
          ],
          [
            88.503457,
            43.717196
          ],
          [
            88.502906,
            43.718163
          ],
          [
            88.502306,
            43.718783
          ],
          [
            88.501885,
            43.719476
          ],
          [
            88.501927,
            43.719754
          ],
          [
            88.502142,
            43.720088
          ],
          [
            88.502145,
            43.72056
          ],
          [
            88.501926,
            43.72118
          ],
          [
            88.502111,
            43.721812
          ],
          [
            88.50177,
            43.72233
          ],
          [
            88.501284,
            43.723579
          ],
          [
            88.501259,
            43.724047
          ],
          [
            88.501114,
            43.724204
          ],
          [
            88.501181,
            43.72532
          ],
          [
            88.501449,
            43.725959
          ],
          [
            88.501053,
            43.726956
          ],
          [
            88.501019,
            43.728599
          ],
          [
            88.500612,
            43.729066
          ],
          [
            88.500329,
            43.730061
          ],
          [
            88.500497,
            43.731331
          ],
          [
            88.500787,
            43.731744
          ],
          [
            88.500942,
            43.732578
          ],
          [
            88.500796,
            43.73387
          ],
          [
            88.50043,
            43.734124
          ],
          [
            88.500509,
            43.734502
          ],
          [
            88.500065,
            43.734831
          ],
          [
            88.500038,
            43.735015
          ],
          [
            88.500123,
            43.735844
          ],
          [
            88.500498,
            43.736084
          ],
          [
            88.499909,
            43.736671
          ],
          [
            88.499411,
            43.736674
          ],
          [
            88.499061,
            43.736579
          ],
          [
            88.498924,
            43.736722
          ],
          [
            88.498793,
            43.737382
          ],
          [
            88.498787,
            43.738608
          ],
          [
            88.498154,
            43.739689
          ],
          [
            88.497889,
            43.740886
          ],
          [
            88.497887,
            43.741081
          ],
          [
            88.49838,
            43.741935
          ],
          [
            88.497951,
            43.742108
          ],
          [
            88.497904,
            43.742199
          ],
          [
            88.497731,
            43.743185
          ],
          [
            88.497617,
            43.74335
          ],
          [
            88.49766,
            43.743736
          ],
          [
            88.497519,
            43.743892
          ],
          [
            88.497354,
            43.744527
          ],
          [
            88.497401,
            43.744707
          ],
          [
            88.49662,
            43.746082
          ],
          [
            88.496602,
            43.74674
          ],
          [
            88.496452,
            43.746985
          ],
          [
            88.496472,
            43.746889
          ],
          [
            88.496376,
            43.746947
          ],
          [
            88.496272,
            43.747211
          ],
          [
            88.496311,
            43.7475
          ],
          [
            88.496488,
            43.747743
          ],
          [
            88.496514,
            43.748117
          ],
          [
            88.496651,
            43.74828
          ],
          [
            88.496686,
            43.748829
          ],
          [
            88.497042,
            43.749312
          ],
          [
            88.496804,
            43.749829
          ],
          [
            88.496755,
            43.750376
          ],
          [
            88.495762,
            43.751928
          ],
          [
            88.495969,
            43.753025
          ],
          [
            88.495687,
            43.75461
          ],
          [
            88.495512,
            43.754753
          ],
          [
            88.494986,
            43.755772
          ],
          [
            88.493957,
            43.756585
          ],
          [
            88.493832,
            43.757033
          ],
          [
            88.493521,
            43.757327
          ],
          [
            88.493404,
            43.757866
          ],
          [
            88.49352,
            43.758887
          ],
          [
            88.494029,
            43.759811
          ],
          [
            88.494461,
            43.76027
          ],
          [
            88.495273,
            43.760852
          ],
          [
            88.495732,
            43.761514
          ],
          [
            88.496246,
            43.76193
          ],
          [
            88.496517,
            43.762648
          ],
          [
            88.496861,
            43.763141
          ],
          [
            88.497277,
            43.763343
          ],
          [
            88.497243,
            43.763432
          ],
          [
            88.497362,
            43.763399
          ],
          [
            88.49725,
            43.763444
          ],
          [
            88.497416,
            43.763584
          ],
          [
            88.497259,
            43.763918
          ],
          [
            88.498285,
            43.764836
          ],
          [
            88.498359,
            43.765764
          ],
          [
            88.498684,
            43.766363
          ],
          [
            88.499863,
            43.767799
          ],
          [
            88.500132,
            43.767999
          ],
          [
            88.500414,
            43.76852
          ],
          [
            88.501929,
            43.770005
          ],
          [
            88.502592,
            43.771231
          ],
          [
            88.502814,
            43.771449
          ],
          [
            88.502877,
            43.77182
          ],
          [
            88.503203,
            43.772438
          ],
          [
            88.503138,
            43.772613
          ],
          [
            88.50342,
            43.773213
          ],
          [
            88.505098,
            43.775567
          ],
          [
            88.50516,
            43.776024
          ],
          [
            88.505652,
            43.776979
          ],
          [
            88.505983,
            43.777968
          ],
          [
            88.506693,
            43.778622
          ],
          [
            88.506826,
            43.778972
          ],
          [
            88.507352,
            43.779706
          ],
          [
            88.507822,
            43.780135
          ],
          [
            88.508136,
            43.780286
          ],
          [
            88.508476,
            43.780676
          ],
          [
            88.508494,
            43.780944
          ],
          [
            88.509215,
            43.781837
          ],
          [
            88.510291,
            43.782645
          ],
          [
            88.511145,
            43.783965
          ],
          [
            88.511325,
            43.784092
          ],
          [
            88.511425,
            43.784364
          ],
          [
            88.511702,
            43.784673
          ],
          [
            88.51183,
            43.784642
          ],
          [
            88.512012,
            43.785464
          ],
          [
            88.51171,
            43.786044
          ],
          [
            88.511789,
            43.786313
          ],
          [
            88.511616,
            43.786445
          ],
          [
            88.511168,
            43.78721
          ],
          [
            88.511004,
            43.787664
          ],
          [
            88.511129,
            43.787691
          ],
          [
            88.511046,
            43.787621
          ],
          [
            88.511114,
            43.787828
          ],
          [
            88.511415,
            43.788247
          ],
          [
            88.511774,
            43.789718
          ],
          [
            88.512131,
            43.790318
          ],
          [
            88.512159,
            43.790861
          ],
          [
            88.511154,
            43.79174
          ],
          [
            88.510915,
            43.792266
          ],
          [
            88.510739,
            43.792381
          ],
          [
            88.510453,
            43.792895
          ],
          [
            88.50949,
            43.79367
          ],
          [
            88.509175,
            43.794072
          ],
          [
            88.507901,
            43.794864
          ],
          [
            88.505709,
            43.79538
          ],
          [
            88.504669,
            43.796035
          ],
          [
            88.504299,
            43.796045
          ],
          [
            88.504024,
            43.796232
          ],
          [
            88.5035,
            43.796267
          ],
          [
            88.502779,
            43.796457
          ],
          [
            88.50085,
            43.79661
          ],
          [
            88.500015,
            43.797033
          ],
          [
            88.499659,
            43.797758
          ],
          [
            88.499313,
            43.797897
          ],
          [
            88.498314,
            43.797747
          ],
          [
            88.497824,
            43.797851
          ],
          [
            88.497322,
            43.797808
          ],
          [
            88.49685,
            43.797886
          ],
          [
            88.496488,
            43.797693
          ],
          [
            88.496621,
            43.797425
          ],
          [
            88.496847,
            43.797345
          ],
          [
            88.496931,
            43.797415
          ],
          [
            88.496486,
            43.797748
          ],
          [
            88.49631,
            43.797645
          ],
          [
            88.495817,
            43.797584
          ],
          [
            88.494968,
            43.797725
          ],
          [
            88.494671,
            43.797557
          ],
          [
            88.4941,
            43.797769
          ],
          [
            88.493711,
            43.79802
          ],
          [
            88.493445,
            43.798015
          ],
          [
            88.493237,
            43.798119
          ],
          [
            88.492728,
            43.798053
          ],
          [
            88.492361,
            43.798131
          ],
          [
            88.492171,
            43.798356
          ],
          [
            88.491535,
            43.798372
          ],
          [
            88.490057,
            43.798767
          ],
          [
            88.488938,
            43.798825
          ],
          [
            88.488393,
            43.799069
          ],
          [
            88.487851,
            43.799669
          ],
          [
            88.486236,
            43.799734
          ],
          [
            88.485481,
            43.80006
          ],
          [
            88.485237,
            43.799999
          ],
          [
            88.484876,
            43.80007
          ],
          [
            88.484672,
            43.79974
          ],
          [
            88.484436,
            43.799675
          ],
          [
            88.483937,
            43.799655
          ],
          [
            88.483594,
            43.799777
          ],
          [
            88.483357,
            43.799717
          ],
          [
            88.482593,
            43.799811
          ],
          [
            88.482219,
            43.799771
          ],
          [
            88.481396,
            43.799989
          ],
          [
            88.480646,
            43.800034
          ],
          [
            88.47767,
            43.800555
          ],
          [
            88.477417,
            43.800521
          ],
          [
            88.476174,
            43.800684
          ],
          [
            88.475421,
            43.80067
          ],
          [
            88.474936,
            43.800911
          ],
          [
            88.47354,
            43.800885
          ],
          [
            88.472673,
            43.80106
          ],
          [
            88.472307,
            43.80098
          ],
          [
            88.471989,
            43.801124
          ],
          [
            88.471482,
            43.801196
          ],
          [
            88.469181,
            43.801228
          ],
          [
            88.468171,
            43.801195
          ],
          [
            88.467678,
            43.801093
          ],
          [
            88.462693,
            43.801022
          ],
          [
            88.46117,
            43.800869
          ],
          [
            88.4594,
            43.800955
          ],
          [
            88.458318,
            43.801249
          ],
          [
            88.457079,
            43.801036
          ],
          [
            88.456627,
            43.801156
          ],
          [
            88.456124,
            43.802206
          ],
          [
            88.455614,
            43.802177
          ],
          [
            88.455254,
            43.802433
          ],
          [
            88.45449,
            43.802434
          ],
          [
            88.454125,
            43.802339
          ],
          [
            88.453058,
            43.802569
          ],
          [
            88.452742,
            43.802939
          ],
          [
            88.452796,
            43.803224
          ],
          [
            88.452903,
            43.80328
          ],
          [
            88.452632,
            43.803484
          ],
          [
            88.452535,
            43.803656
          ],
          [
            88.452599,
            43.803733
          ],
          [
            88.452637,
            43.803646
          ],
          [
            88.452586,
            43.803788
          ],
          [
            88.452682,
            43.803699
          ],
          [
            88.452612,
            43.80362
          ],
          [
            88.452668,
            43.803712
          ],
          [
            88.452471,
            43.803807
          ],
          [
            88.452292,
            43.804237
          ],
          [
            88.452491,
            43.804269
          ],
          [
            88.452542,
            43.804777
          ],
          [
            88.452571,
            43.80469
          ],
          [
            88.452441,
            43.804638
          ],
          [
            88.452711,
            43.804766
          ],
          [
            88.452533,
            43.804895
          ],
          [
            88.452404,
            43.804879
          ],
          [
            88.452497,
            43.80499
          ],
          [
            88.452361,
            43.805225
          ],
          [
            88.452117,
            43.805235
          ],
          [
            88.452002,
            43.805316
          ],
          [
            88.452145,
            43.805329
          ],
          [
            88.452234,
            43.805266
          ],
          [
            88.451999,
            43.805214
          ],
          [
            88.452107,
            43.804954
          ],
          [
            88.452151,
            43.805351
          ],
          [
            88.452007,
            43.805515
          ],
          [
            88.452136,
            43.80596
          ],
          [
            88.452076,
            43.806131
          ],
          [
            88.452207,
            43.806156
          ],
          [
            88.452083,
            43.806169
          ],
          [
            88.452074,
            43.806861
          ],
          [
            88.452197,
            43.807017
          ],
          [
            88.452023,
            43.80742
          ],
          [
            88.452516,
            43.80782
          ],
          [
            88.455401,
            43.809141
          ],
          [
            88.456457,
            43.809957
          ],
          [
            88.456894,
            43.810941
          ],
          [
            88.456906,
            43.811223
          ],
          [
            88.457154,
            43.811425
          ],
          [
            88.457124,
            43.811879
          ],
          [
            88.457599,
            43.81293
          ],
          [
            88.457633,
            43.813211
          ],
          [
            88.457513,
            43.813369
          ],
          [
            88.457577,
            43.813551
          ],
          [
            88.457314,
            43.814076
          ],
          [
            88.457365,
            43.814264
          ],
          [
            88.457596,
            43.814484
          ],
          [
            88.457986,
            43.815166
          ],
          [
            88.458138,
            43.815703
          ],
          [
            88.458688,
            43.816225
          ],
          [
            88.458886,
            43.816565
          ],
          [
            88.459002,
            43.816832
          ],
          [
            88.458906,
            43.817451
          ],
          [
            88.459187,
            43.817866
          ],
          [
            88.459302,
            43.817901
          ],
          [
            88.459425,
            43.818253
          ],
          [
            88.460213,
            43.818958
          ],
          [
            88.460697,
            43.819006
          ],
          [
            88.461414,
            43.819473
          ],
          [
            88.461961,
            43.820612
          ],
          [
            88.462799,
            43.82143
          ],
          [
            88.463032,
            43.821503
          ],
          [
            88.463382,
            43.821778
          ],
          [
            88.463501,
            43.822053
          ],
          [
            88.463847,
            43.822329
          ],
          [
            88.46393,
            43.822979
          ],
          [
            88.464287,
            43.823776
          ],
          [
            88.46424,
            43.824038
          ],
          [
            88.464078,
            43.82418
          ],
          [
            88.463839,
            43.824213
          ],
          [
            88.463085,
            43.824955
          ],
          [
            88.461974,
            43.825719
          ],
          [
            88.461806,
            43.826067
          ],
          [
            88.461129,
            43.826304
          ],
          [
            88.460906,
            43.826305
          ],
          [
            88.45993,
            43.82703
          ],
          [
            88.459579,
            43.827173
          ],
          [
            88.458738,
            43.827743
          ],
          [
            88.458266,
            43.827805
          ],
          [
            88.458082,
            43.828078
          ],
          [
            88.457764,
            43.827787
          ],
          [
            88.455767,
            43.827255
          ],
          [
            88.455631,
            43.827102
          ],
          [
            88.455147,
            43.827165
          ],
          [
            88.454524,
            43.827128
          ],
          [
            88.454456,
            43.827302
          ],
          [
            88.454006,
            43.827465
          ],
          [
            88.452667,
            43.827769
          ],
          [
            88.450925,
            43.828412
          ],
          [
            88.45031,
            43.828352
          ],
          [
            88.449941,
            43.828406
          ],
          [
            88.449719,
            43.828317
          ],
          [
            88.448821,
            43.828556
          ],
          [
            88.448339,
            43.828449
          ],
          [
            88.448145,
            43.828678
          ],
          [
            88.447557,
            43.829007
          ],
          [
            88.44674,
            43.829246
          ],
          [
            88.445837,
            43.829264
          ],
          [
            88.444636,
            43.829021
          ],
          [
            88.443923,
            43.829089
          ],
          [
            88.442781,
            43.829489
          ],
          [
            88.44164,
            43.829485
          ],
          [
            88.440534,
            43.829265
          ],
          [
            88.439126,
            43.828794
          ],
          [
            88.436613,
            43.828167
          ],
          [
            88.434972,
            43.827879
          ],
          [
            88.434398,
            43.827697
          ],
          [
            88.434474,
            43.827768
          ],
          [
            88.434432,
            43.827682
          ],
          [
            88.432653,
            43.827167
          ],
          [
            88.432372,
            43.82697
          ],
          [
            88.430763,
            43.826811
          ],
          [
            88.428767,
            43.826291
          ],
          [
            88.427208,
            43.825641
          ],
          [
            88.426959,
            43.825229
          ],
          [
            88.426845,
            43.825378
          ],
          [
            88.426344,
            43.825407
          ],
          [
            88.425883,
            43.825248
          ],
          [
            88.425642,
            43.825299
          ],
          [
            88.425429,
            43.825207
          ],
          [
            88.425111,
            43.825353
          ],
          [
            88.424733,
            43.82537
          ],
          [
            88.422733,
            43.824863
          ],
          [
            88.422129,
            43.824811
          ],
          [
            88.421707,
            43.824606
          ],
          [
            88.420811,
            43.824624
          ],
          [
            88.420458,
            43.824524
          ],
          [
            88.419842,
            43.824518
          ],
          [
            88.419381,
            43.824398
          ],
          [
            88.419011,
            43.824161
          ],
          [
            88.418258,
            43.824136
          ],
          [
            88.417779,
            43.824004
          ],
          [
            88.417029,
            43.824092
          ],
          [
            88.416686,
            43.823961
          ],
          [
            88.416175,
            43.823934
          ],
          [
            88.415584,
            43.824111
          ],
          [
            88.415342,
            43.824051
          ],
          [
            88.414477,
            43.824147
          ],
          [
            88.414255,
            43.82424
          ],
          [
            88.413894,
            43.824132
          ],
          [
            88.413532,
            43.82422
          ],
          [
            88.413286,
            43.824191
          ],
          [
            88.413006,
            43.824363
          ],
          [
            88.412861,
            43.824604
          ],
          [
            88.412303,
            43.824968
          ],
          [
            88.412287,
            43.824877
          ],
          [
            88.412062,
            43.824789
          ],
          [
            88.410987,
            43.824909
          ],
          [
            88.410803,
            43.824742
          ],
          [
            88.410699,
            43.824793
          ],
          [
            88.410712,
            43.824976
          ],
          [
            88.410442,
            43.824803
          ],
          [
            88.410081,
            43.824147
          ],
          [
            88.410117,
            43.82358
          ],
          [
            88.409971,
            43.823141
          ],
          [
            88.410131,
            43.822701
          ],
          [
            88.409755,
            43.822713
          ],
          [
            88.40981,
            43.822361
          ],
          [
            88.409505,
            43.822181
          ],
          [
            88.409425,
            43.821824
          ],
          [
            88.409323,
            43.821885
          ],
          [
            88.409393,
            43.821259
          ],
          [
            88.409144,
            43.821235
          ],
          [
            88.409026,
            43.820974
          ],
          [
            88.407906,
            43.820559
          ],
          [
            88.407149,
            43.820879
          ],
          [
            88.406642,
            43.820927
          ],
          [
            88.406313,
            43.821205
          ],
          [
            88.406235,
            43.821132
          ],
          [
            88.405936,
            43.82129
          ],
          [
            88.405898,
            43.821201
          ],
          [
            88.405148,
            43.821359
          ],
          [
            88.405044,
            43.821527
          ],
          [
            88.404024,
            43.822214
          ],
          [
            88.403296,
            43.823085
          ],
          [
            88.40273,
            43.82348
          ],
          [
            88.400849,
            43.82365
          ],
          [
            88.400455,
            43.823885
          ],
          [
            88.399485,
            43.823802
          ],
          [
            88.399101,
            43.82356
          ],
          [
            88.398993,
            43.82339
          ],
          [
            88.397704,
            43.822744
          ],
          [
            88.397468,
            43.822803
          ],
          [
            88.395943,
            43.822767
          ],
          [
            88.395122,
            43.822984
          ],
          [
            88.394783,
            43.82291
          ],
          [
            88.394408,
            43.822654
          ],
          [
            88.393943,
            43.822548
          ],
          [
            88.393237,
            43.822721
          ],
          [
            88.392639,
            43.822557
          ],
          [
            88.391417,
            43.8228
          ],
          [
            88.390223,
            43.822545
          ],
          [
            88.390036,
            43.822667
          ],
          [
            88.389529,
            43.822605
          ],
          [
            88.388499,
            43.823439
          ],
          [
            88.388068,
            43.82362
          ],
          [
            88.387218,
            43.823438
          ],
          [
            88.386321,
            43.823478
          ],
          [
            88.385858,
            43.82333
          ],
          [
            88.38535,
            43.823307
          ],
          [
            88.385002,
            43.823395
          ],
          [
            88.384887,
            43.823436
          ],
          [
            88.384943,
            43.823615
          ],
          [
            88.38528,
            43.823882
          ],
          [
            88.386341,
            43.824235
          ],
          [
            88.387225,
            43.824927
          ],
          [
            88.387367,
            43.826362
          ],
          [
            88.387479,
            43.826406
          ],
          [
            88.387489,
            43.82669
          ],
          [
            88.387794,
            43.826984
          ],
          [
            88.388261,
            43.827121
          ],
          [
            88.387699,
            43.827288
          ],
          [
            88.387457,
            43.827502
          ],
          [
            88.386849,
            43.827394
          ],
          [
            88.386789,
            43.827213
          ],
          [
            88.386912,
            43.827056
          ],
          [
            88.386858,
            43.826875
          ],
          [
            88.386953,
            43.826699
          ],
          [
            88.385334,
            43.82666
          ],
          [
            88.384801,
            43.827045
          ],
          [
            88.384435,
            43.827109
          ],
          [
            88.384261,
            43.827239
          ],
          [
            88.383181,
            43.827459
          ],
          [
            88.382763,
            43.827655
          ],
          [
            88.382532,
            43.827884
          ],
          [
            88.38217,
            43.827969
          ],
          [
            88.380601,
            43.828937
          ],
          [
            88.378015,
            43.830261
          ],
          [
            88.375467,
            43.831138
          ],
          [
            88.37269,
            43.831328
          ],
          [
            88.370735,
            43.831052
          ],
          [
            88.369471,
            43.830982
          ],
          [
            88.368577,
            43.83103
          ],
          [
            88.367857,
            43.830849
          ],
          [
            88.367478,
            43.830871
          ],
          [
            88.366331,
            43.830704
          ],
          [
            88.365409,
            43.830378
          ],
          [
            88.364792,
            43.83032
          ],
          [
            88.363192,
            43.829559
          ],
          [
            88.362624,
            43.829713
          ],
          [
            88.361752,
            43.830333
          ],
          [
            88.361523,
            43.830669
          ],
          [
            88.36116,
            43.830641
          ],
          [
            88.360683,
            43.830775
          ],
          [
            88.36031,
            43.830737
          ],
          [
            88.357594,
            43.829247
          ],
          [
            88.356874,
            43.829138
          ],
          [
            88.356307,
            43.828942
          ],
          [
            88.355813,
            43.828658
          ],
          [
            88.355573,
            43.828597
          ],
          [
            88.355373,
            43.828696
          ],
          [
            88.35487,
            43.828654
          ],
          [
            88.352412,
            43.828292
          ],
          [
            88.349225,
            43.828002
          ],
          [
            88.349098,
            43.827845
          ],
          [
            88.348686,
            43.827635
          ],
          [
            88.346925,
            43.826868
          ],
          [
            88.345569,
            43.826051
          ],
          [
            88.345194,
            43.82558
          ],
          [
            88.344692,
            43.825296
          ],
          [
            88.34444,
            43.82449
          ],
          [
            88.344216,
            43.824157
          ],
          [
            88.343931,
            43.823976
          ],
          [
            88.34373,
            43.82345
          ],
          [
            88.343056,
            43.822673
          ],
          [
            88.342633,
            43.822334
          ],
          [
            88.34186,
            43.821869
          ],
          [
            88.341623,
            43.821808
          ],
          [
            88.341327,
            43.821523
          ],
          [
            88.341296,
            43.821248
          ],
          [
            88.340952,
            43.821188
          ],
          [
            88.340548,
            43.820857
          ],
          [
            88.340312,
            43.820795
          ],
          [
            88.340163,
            43.820544
          ],
          [
            88.339173,
            43.820481
          ],
          [
            88.338191,
            43.820282
          ],
          [
            88.337882,
            43.820133
          ],
          [
            88.337625,
            43.820134
          ],
          [
            88.337592,
            43.820221
          ],
          [
            88.337478,
            43.820166
          ],
          [
            88.337592,
            43.820128
          ],
          [
            88.337103,
            43.820026
          ],
          [
            88.336217,
            43.819662
          ],
          [
            88.335496,
            43.81919
          ],
          [
            88.335427,
            43.818558
          ],
          [
            88.335286,
            43.818402
          ],
          [
            88.335183,
            43.817956
          ],
          [
            88.334892,
            43.817655
          ],
          [
            88.334921,
            43.817567
          ],
          [
            88.334304,
            43.817544
          ],
          [
            88.33386,
            43.817344
          ],
          [
            88.333741,
            43.817484
          ],
          [
            88.333617,
            43.817494
          ],
          [
            88.333417,
            43.817376
          ],
          [
            88.333459,
            43.817645
          ],
          [
            88.333339,
            43.817795
          ],
          [
            88.333215,
            43.817765
          ],
          [
            88.332462,
            43.818071
          ],
          [
            88.332106,
            43.818121
          ],
          [
            88.331805,
            43.818288
          ],
          [
            88.331565,
            43.818229
          ],
          [
            88.330389,
            43.818537
          ],
          [
            88.329634,
            43.818468
          ],
          [
            88.329417,
            43.818372
          ],
          [
            88.329043,
            43.818419
          ],
          [
            88.32843,
            43.818244
          ],
          [
            88.32757,
            43.818421
          ],
          [
            88.326817,
            43.818378
          ],
          [
            88.325757,
            43.818061
          ],
          [
            88.324659,
            43.81755
          ],
          [
            88.324594,
            43.817635
          ],
          [
            88.32464,
            43.817523
          ],
          [
            88.323955,
            43.817462
          ],
          [
            88.323648,
            43.817299
          ],
          [
            88.323388,
            43.817341
          ],
          [
            88.322911,
            43.81727
          ],
          [
            88.322513,
            43.817095
          ],
          [
            88.321283,
            43.817
          ],
          [
            88.321115,
            43.81675
          ],
          [
            88.319494,
            43.816477
          ],
          [
            88.31912,
            43.816528
          ],
          [
            88.317703,
            43.816386
          ],
          [
            88.317175,
            43.81641
          ],
          [
            88.317004,
            43.816275
          ],
          [
            88.316635,
            43.816176
          ],
          [
            88.315615,
            43.816107
          ],
          [
            88.315315,
            43.815986
          ],
          [
            88.314516,
            43.816434
          ],
          [
            88.313746,
            43.816605
          ],
          [
            88.3135,
            43.816831
          ],
          [
            88.313164,
            43.81694
          ],
          [
            88.313046,
            43.817103
          ],
          [
            88.31254,
            43.817156
          ],
          [
            88.312045,
            43.817314
          ],
          [
            88.311656,
            43.817299
          ],
          [
            88.311511,
            43.817024
          ],
          [
            88.311495,
            43.816568
          ],
          [
            88.310986,
            43.816508
          ],
          [
            88.308966,
            43.816486
          ],
          [
            88.308549,
            43.816679
          ],
          [
            88.307162,
            43.816886
          ],
          [
            88.304786,
            43.816536
          ],
          [
            88.304518,
            43.816721
          ],
          [
            88.303828,
            43.816931
          ],
          [
            88.303446,
            43.81683
          ],
          [
            88.30339,
            43.816738
          ],
          [
            88.30205,
            43.816403
          ],
          [
            88.301798,
            43.81618
          ],
          [
            88.301341,
            43.816029
          ],
          [
            88.300715,
            43.815942
          ],
          [
            88.299156,
            43.815997
          ],
          [
            88.298821,
            43.816142
          ],
          [
            88.298452,
            43.816195
          ],
          [
            88.298205,
            43.816144
          ],
          [
            88.29772,
            43.81626
          ],
          [
            88.29748,
            43.81617
          ],
          [
            88.296318,
            43.816285
          ],
          [
            88.295758,
            43.815905
          ],
          [
            88.296043,
            43.815742
          ],
          [
            88.295158,
            43.814716
          ],
          [
            88.295079,
            43.814162
          ],
          [
            88.29471,
            43.814078
          ],
          [
            88.295227,
            43.814063
          ],
          [
            88.295419,
            43.813944
          ],
          [
            88.294637,
            43.813636
          ],
          [
            88.294246,
            43.813602
          ],
          [
            88.291169,
            43.813883
          ],
          [
            88.287918,
            43.814018
          ],
          [
            88.286578,
            43.814757
          ],
          [
            88.285556,
            43.814816
          ],
          [
            88.284235,
            43.814415
          ],
          [
            88.283756,
            43.814517
          ],
          [
            88.283615,
            43.81437
          ],
          [
            88.28323,
            43.814364
          ],
          [
            88.282677,
            43.814142
          ],
          [
            88.281156,
            43.814067
          ],
          [
            88.279824,
            43.813837
          ],
          [
            88.279512,
            43.813681
          ],
          [
            88.278012,
            43.813613
          ],
          [
            88.276922,
            43.813355
          ],
          [
            88.276453,
            43.813196
          ],
          [
            88.276024,
            43.812621
          ],
          [
            88.275532,
            43.812316
          ],
          [
            88.27486,
            43.812021
          ],
          [
            88.274096,
            43.81186
          ],
          [
            88.273119,
            43.811013
          ],
          [
            88.27305,
            43.81084
          ],
          [
            88.272825,
            43.810738
          ],
          [
            88.271933,
            43.810649
          ],
          [
            88.271582,
            43.810533
          ],
          [
            88.271485,
            43.810183
          ],
          [
            88.271045,
            43.809731
          ],
          [
            88.270778,
            43.809222
          ],
          [
            88.270194,
            43.808738
          ],
          [
            88.270253,
            43.808579
          ],
          [
            88.269867,
            43.808432
          ],
          [
            88.269672,
            43.808092
          ],
          [
            88.269177,
            43.807776
          ],
          [
            88.268909,
            43.807159
          ],
          [
            88.268992,
            43.806596
          ],
          [
            88.268566,
            43.806262
          ],
          [
            88.267822,
            43.80537
          ],
          [
            88.267684,
            43.804923
          ],
          [
            88.267327,
            43.804539
          ],
          [
            88.266784,
            43.803004
          ],
          [
            88.266057,
            43.802135
          ],
          [
            88.266049,
            43.801686
          ],
          [
            88.265878,
            43.80153
          ],
          [
            88.266046,
            43.801286
          ],
          [
            88.266101,
            43.801006
          ],
          [
            88.266005,
            43.800556
          ],
          [
            88.266131,
            43.800399
          ],
          [
            88.265929,
            43.800158
          ],
          [
            88.265918,
            43.799977
          ],
          [
            88.26617,
            43.799655
          ],
          [
            88.266245,
            43.799113
          ],
          [
            88.266786,
            43.798695
          ],
          [
            88.267186,
            43.798102
          ],
          [
            88.268268,
            43.797603
          ],
          [
            88.269264,
            43.797391
          ],
          [
            88.26945,
            43.797041
          ],
          [
            88.269974,
            43.796624
          ],
          [
            88.270675,
            43.796485
          ],
          [
            88.270873,
            43.796372
          ],
          [
            88.270936,
            43.796196
          ],
          [
            88.271467,
            43.795672
          ],
          [
            88.272098,
            43.795642
          ],
          [
            88.272676,
            43.795433
          ],
          [
            88.273028,
            43.795698
          ],
          [
            88.27351,
            43.795712
          ],
          [
            88.273829,
            43.795561
          ],
          [
            88.274021,
            43.795687
          ],
          [
            88.274134,
            43.795649
          ],
          [
            88.274414,
            43.795253
          ],
          [
            88.274398,
            43.795076
          ],
          [
            88.274526,
            43.795071
          ],
          [
            88.274426,
            43.794817
          ],
          [
            88.274619,
            43.794929
          ],
          [
            88.274999,
            43.794979
          ],
          [
            88.27568,
            43.794746
          ],
          [
            88.276517,
            43.794052
          ],
          [
            88.277361,
            43.793862
          ],
          [
            88.277669,
            43.793366
          ],
          [
            88.278043,
            43.793333
          ],
          [
            88.278372,
            43.793196
          ],
          [
            88.278504,
            43.793228
          ],
          [
            88.279063,
            43.792726
          ],
          [
            88.278995,
            43.792011
          ],
          [
            88.278849,
            43.791852
          ],
          [
            88.278255,
            43.790344
          ],
          [
            88.278432,
            43.78979
          ],
          [
            88.278804,
            43.789427
          ],
          [
            88.278696,
            43.78907
          ],
          [
            88.278793,
            43.788798
          ],
          [
            88.278671,
            43.788768
          ],
          [
            88.278872,
            43.78865
          ],
          [
            88.27893,
            43.788466
          ],
          [
            88.278762,
            43.788336
          ],
          [
            88.278866,
            43.78807
          ],
          [
            88.278686,
            43.787726
          ],
          [
            88.278189,
            43.787731
          ],
          [
            88.278337,
            43.787282
          ],
          [
            88.278464,
            43.787275
          ],
          [
            88.278691,
            43.786745
          ],
          [
            88.278478,
            43.786209
          ],
          [
            88.278675,
            43.785668
          ],
          [
            88.278585,
            43.784826
          ],
          [
            88.27867,
            43.784438
          ],
          [
            88.278572,
            43.78427
          ],
          [
            88.278654,
            43.783816
          ],
          [
            88.278577,
            43.78374
          ],
          [
            88.27871,
            43.783413
          ],
          [
            88.27859,
            43.783375
          ],
          [
            88.278701,
            43.783012
          ],
          [
            88.27865,
            43.782569
          ],
          [
            88.278506,
            43.782311
          ],
          [
            88.278526,
            43.781844
          ],
          [
            88.278754,
            43.781506
          ],
          [
            88.279505,
            43.78141
          ],
          [
            88.280183,
            43.780829
          ],
          [
            88.280153,
            43.78055
          ],
          [
            88.28055,
            43.780292
          ],
          [
            88.281259,
            43.779492
          ],
          [
            88.281743,
            43.778475
          ],
          [
            88.282675,
            43.777434
          ],
          [
            88.282878,
            43.777066
          ],
          [
            88.283,
            43.775927
          ],
          [
            88.28317,
            43.775382
          ],
          [
            88.283398,
            43.775046
          ],
          [
            88.283455,
            43.77455
          ],
          [
            88.28366,
            43.7742
          ],
          [
            88.283995,
            43.773914
          ],
          [
            88.284257,
            43.773906
          ],
          [
            88.284526,
            43.773703
          ],
          [
            88.284499,
            43.773411
          ],
          [
            88.284729,
            43.772648
          ],
          [
            88.285363,
            43.77183
          ],
          [
            88.285376,
            43.771465
          ],
          [
            88.285538,
            43.771329
          ],
          [
            88.285838,
            43.770106
          ],
          [
            88.286671,
            43.769249
          ],
          [
            88.286903,
            43.768811
          ],
          [
            88.287863,
            43.768545
          ],
          [
            88.288391,
            43.768524
          ],
          [
            88.288756,
            43.768413
          ],
          [
            88.290098,
            43.766799
          ],
          [
            88.290471,
            43.766533
          ],
          [
            88.290926,
            43.766389
          ],
          [
            88.291181,
            43.766175
          ],
          [
            88.291531,
            43.766088
          ],
          [
            88.292015,
            43.765657
          ],
          [
            88.292246,
            43.765305
          ],
          [
            88.292401,
            43.76474
          ],
          [
            88.292804,
            43.764501
          ],
          [
            88.293177,
            43.763878
          ],
          [
            88.294231,
            43.762736
          ],
          [
            88.295655,
            43.76216
          ],
          [
            88.295769,
            43.761621
          ],
          [
            88.296001,
            43.761537
          ],
          [
            88.296246,
            43.76122
          ],
          [
            88.296844,
            43.761178
          ],
          [
            88.297074,
            43.760869
          ],
          [
            88.298929,
            43.760511
          ],
          [
            88.30021,
            43.760126
          ],
          [
            88.300597,
            43.760102
          ],
          [
            88.301479,
            43.760262
          ],
          [
            88.302094,
            43.760126
          ],
          [
            88.303251,
            43.760178
          ],
          [
            88.303811,
            43.759943
          ],
          [
            88.304316,
            43.759949
          ],
          [
            88.304804,
            43.760055
          ],
          [
            88.305569,
            43.760086
          ],
          [
            88.305853,
            43.760391
          ],
          [
            88.306573,
            43.760751
          ],
          [
            88.307558,
            43.76071
          ],
          [
            88.308482,
            43.761024
          ],
          [
            88.310372,
            43.761152
          ],
          [
            88.310974,
            43.761471
          ],
          [
            88.31114,
            43.761615
          ],
          [
            88.311176,
            43.761876
          ],
          [
            88.311532,
            43.762126
          ],
          [
            88.3125,
            43.762523
          ],
          [
            88.312127,
            43.762504
          ],
          [
            88.312757,
            43.761515
          ],
          [
            88.313027,
            43.76132
          ],
          [
            88.312974,
            43.761058
          ],
          [
            88.313349,
            43.760822
          ],
          [
            88.314459,
            43.760828
          ],
          [
            88.315356,
            43.760482
          ],
          [
            88.31636,
            43.760496
          ],
          [
            88.31683,
            43.760351
          ],
          [
            88.316917,
            43.760416
          ],
          [
            88.317309,
            43.760412
          ],
          [
            88.318095,
            43.760115
          ],
          [
            88.318721,
            43.76011
          ],
          [
            88.319607,
            43.759784
          ],
          [
            88.319974,
            43.759813
          ],
          [
            88.320121,
            43.759671
          ],
          [
            88.320334,
            43.759767
          ],
          [
            88.321022,
            43.759608
          ],
          [
            88.321785,
            43.759619
          ],
          [
            88.322575,
            43.759376
          ],
          [
            88.322658,
            43.759721
          ],
          [
            88.323129,
            43.759861
          ],
          [
            88.324631,
            43.759859
          ],
          [
            88.325098,
            43.760005
          ],
          [
            88.327119,
            43.76021
          ],
          [
            88.327336,
            43.760291
          ],
          [
            88.32797,
            43.760261
          ],
          [
            88.328263,
            43.760099
          ],
          [
            88.328581,
            43.760211
          ],
          [
            88.328821,
            43.760645
          ],
          [
            88.328501,
            43.761339
          ],
          [
            88.327884,
            43.761904
          ],
          [
            88.327807,
            43.762537
          ],
          [
            88.328274,
            43.763178
          ],
          [
            88.328645,
            43.763444
          ],
          [
            88.328759,
            43.763699
          ],
          [
            88.328964,
            43.763787
          ],
          [
            88.329075,
            43.763958
          ],
          [
            88.329902,
            43.76412
          ],
          [
            88.329996,
            43.764286
          ],
          [
            88.330209,
            43.764266
          ],
          [
            88.330526,
            43.764419
          ],
          [
            88.330759,
            43.764388
          ],
          [
            88.331418,
            43.764621
          ],
          [
            88.331493,
            43.764878
          ],
          [
            88.33205,
            43.765035
          ],
          [
            88.332136,
            43.765206
          ],
          [
            88.332391,
            43.765192
          ],
          [
            88.332635,
            43.76541
          ],
          [
            88.332597,
            43.765497
          ],
          [
            88.333082,
            43.765573
          ],
          [
            88.333109,
            43.765663
          ],
          [
            88.333638,
            43.765906
          ],
          [
            88.33378,
            43.766058
          ],
          [
            88.334036,
            43.766066
          ],
          [
            88.334342,
            43.766351
          ],
          [
            88.335083,
            43.766282
          ],
          [
            88.336006,
            43.765805
          ],
          [
            88.33645,
            43.765969
          ],
          [
            88.336434,
            43.766342
          ],
          [
            88.336551,
            43.76638
          ],
          [
            88.336795,
            43.766333
          ],
          [
            88.336968,
            43.766196
          ],
          [
            88.337162,
            43.7663
          ],
          [
            88.337485,
            43.766171
          ],
          [
            88.337845,
            43.766274
          ],
          [
            88.339075,
            43.766082
          ],
          [
            88.339306,
            43.766168
          ],
          [
            88.339559,
            43.766148
          ],
          [
            88.340368,
            43.765902
          ],
          [
            88.341267,
            43.765905
          ],
          [
            88.342074,
            43.765665
          ],
          [
            88.342715,
            43.76536
          ],
          [
            88.343557,
            43.765152
          ],
          [
            88.343816,
            43.765145
          ],
          [
            88.344008,
            43.765252
          ],
          [
            88.344105,
            43.765185
          ],
          [
            88.345505,
            43.765107
          ],
          [
            88.346863,
            43.764887
          ],
          [
            88.348218,
            43.764976
          ],
          [
            88.348926,
            43.765116
          ],
          [
            88.34909,
            43.764976
          ],
          [
            88.349851,
            43.765018
          ],
          [
            88.350343,
            43.764921
          ],
          [
            88.350441,
            43.765071
          ],
          [
            88.35066,
            43.764982
          ],
          [
            88.351028,
            43.765058
          ],
          [
            88.351173,
            43.765311
          ],
          [
            88.351497,
            43.765457
          ],
          [
            88.351622,
            43.765438
          ],
          [
            88.351704,
            43.765615
          ],
          [
            88.351955,
            43.765624
          ],
          [
            88.352146,
            43.765508
          ],
          [
            88.352352,
            43.765614
          ],
          [
            88.352485,
            43.765457
          ],
          [
            88.353022,
            43.765178
          ],
          [
            88.353381,
            43.765086
          ],
          [
            88.353866,
            43.764656
          ],
          [
            88.354,
            43.764643
          ],
          [
            88.354128,
            43.764292
          ],
          [
            88.354873,
            43.763957
          ],
          [
            88.355224,
            43.763678
          ],
          [
            88.355743,
            43.763648
          ],
          [
            88.356785,
            43.763008
          ],
          [
            88.356911,
            43.763025
          ],
          [
            88.35692,
            43.763208
          ],
          [
            88.357179,
            43.76316
          ],
          [
            88.357659,
            43.762738
          ],
          [
            88.357906,
            43.762667
          ],
          [
            88.358158,
            43.762461
          ],
          [
            88.358614,
            43.762543
          ],
          [
            88.358756,
            43.762395
          ],
          [
            88.35915,
            43.76239
          ],
          [
            88.359839,
            43.762648
          ],
          [
            88.35991,
            43.762184
          ],
          [
            88.360208,
            43.761785
          ],
          [
            88.360306,
            43.761425
          ],
          [
            88.360433,
            43.761434
          ],
          [
            88.360572,
            43.761588
          ],
          [
            88.36101,
            43.761406
          ],
          [
            88.361064,
            43.761491
          ],
          [
            88.361233,
            43.76135
          ],
          [
            88.361375,
            43.761001
          ],
          [
            88.361858,
            43.760824
          ],
          [
            88.362375,
            43.760454
          ],
          [
            88.3625,
            43.760456
          ],
          [
            88.362625,
            43.7601
          ],
          [
            88.36412,
            43.759738
          ],
          [
            88.36457,
            43.759424
          ],
          [
            88.364665,
            43.759144
          ],
          [
            88.365187,
            43.758615
          ],
          [
            88.365412,
            43.758175
          ],
          [
            88.36534,
            43.757709
          ],
          [
            88.364999,
            43.757428
          ],
          [
            88.364644,
            43.756851
          ],
          [
            88.364309,
            43.756749
          ],
          [
            88.364091,
            43.756838
          ],
          [
            88.363632,
            43.756689
          ],
          [
            88.363604,
            43.756513
          ],
          [
            88.363854,
            43.755838
          ],
          [
            88.363639,
            43.755754
          ],
          [
            88.363724,
            43.755483
          ],
          [
            88.363601,
            43.755508
          ],
          [
            88.363568,
            43.755267
          ],
          [
            88.363191,
            43.754898
          ],
          [
            88.362573,
            43.753801
          ],
          [
            88.362734,
            43.753345
          ],
          [
            88.362948,
            43.753276
          ],
          [
            88.362747,
            43.752649
          ],
          [
            88.36252,
            43.752327
          ],
          [
            88.362607,
            43.751686
          ],
          [
            88.362881,
            43.751053
          ],
          [
            88.363151,
            43.750869
          ],
          [
            88.363192,
            43.750688
          ],
          [
            88.362982,
            43.750558
          ],
          [
            88.363027,
            43.750364
          ],
          [
            88.363162,
            43.750097
          ],
          [
            88.363495,
            43.749832
          ],
          [
            88.363526,
            43.749264
          ],
          [
            88.363452,
            43.748315
          ],
          [
            88.362811,
            43.74741
          ],
          [
            88.362535,
            43.745827
          ],
          [
            88.362408,
            43.745659
          ],
          [
            88.36229,
            43.745705
          ],
          [
            88.362174,
            43.745528
          ],
          [
            88.362346,
            43.744254
          ],
          [
            88.362687,
            43.743444
          ],
          [
            88.362168,
            43.74247
          ],
          [
            88.36239,
            43.74203
          ],
          [
            88.362446,
            43.741345
          ],
          [
            88.362653,
            43.741386
          ],
          [
            88.362328,
            43.741424
          ],
          [
            88.362249,
            43.740747
          ],
          [
            88.362328,
            43.740391
          ],
          [
            88.362224,
            43.740214
          ],
          [
            88.362876,
            43.739036
          ],
          [
            88.362896,
            43.738644
          ],
          [
            88.362863,
            43.738246
          ],
          [
            88.362716,
            43.738095
          ],
          [
            88.362662,
            43.73735
          ],
          [
            88.362382,
            43.736788
          ],
          [
            88.362327,
            43.736423
          ],
          [
            88.362501,
            43.736052
          ],
          [
            88.362442,
            43.735587
          ],
          [
            88.362542,
            43.735402
          ],
          [
            88.362577,
            43.734463
          ],
          [
            88.362748,
            43.733996
          ],
          [
            88.362553,
            43.733237
          ],
          [
            88.362657,
            43.732477
          ],
          [
            88.362081,
            43.730757
          ],
          [
            88.36201,
            43.729133
          ],
          [
            88.361823,
            43.728882
          ],
          [
            88.36176,
            43.728504
          ],
          [
            88.360992,
            43.727526
          ],
          [
            88.36084,
            43.727366
          ],
          [
            88.360696,
            43.727347
          ],
          [
            88.360601,
            43.727077
          ],
          [
            88.360139,
            43.7265
          ],
          [
            88.359878,
            43.725866
          ],
          [
            88.359938,
            43.724783
          ],
          [
            88.360194,
            43.724051
          ],
          [
            88.359803,
            43.723021
          ],
          [
            88.359739,
            43.722556
          ],
          [
            88.359961,
            43.721883
          ],
          [
            88.359961,
            43.721699
          ],
          [
            88.359853,
            43.72164
          ],
          [
            88.359986,
            43.721618
          ],
          [
            88.360587,
            43.721077
          ],
          [
            88.361639,
            43.720543
          ],
          [
            88.361644,
            43.719871
          ],
          [
            88.361078,
            43.719214
          ],
          [
            88.361195,
            43.718536
          ],
          [
            88.361326,
            43.71837
          ],
          [
            88.361679,
            43.718251
          ],
          [
            88.362047,
            43.717999
          ],
          [
            88.362483,
            43.717408
          ],
          [
            88.362785,
            43.716681
          ],
          [
            88.362637,
            43.716114
          ],
          [
            88.36328,
            43.715567
          ],
          [
            88.363376,
            43.715119
          ],
          [
            88.363265,
            43.714558
          ],
          [
            88.3631,
            43.714395
          ],
          [
            88.36356,
            43.713439
          ],
          [
            88.363404,
            43.713083
          ],
          [
            88.363466,
            43.712526
          ],
          [
            88.363299,
            43.712291
          ],
          [
            88.363521,
            43.711759
          ],
          [
            88.36321,
            43.710289
          ],
          [
            88.363194,
            43.709514
          ],
          [
            88.362996,
            43.709278
          ],
          [
            88.362961,
            43.708458
          ],
          [
            88.362711,
            43.707699
          ],
          [
            88.362829,
            43.707594
          ],
          [
            88.362956,
            43.70762
          ],
          [
            88.362825,
            43.707624
          ],
          [
            88.362726,
            43.707344
          ],
          [
            88.363105,
            43.706978
          ],
          [
            88.363138,
            43.706794
          ],
          [
            88.362934,
            43.706094
          ],
          [
            88.363041,
            43.705821
          ],
          [
            88.362871,
            43.70547
          ],
          [
            88.363124,
            43.704899
          ],
          [
            88.363081,
            43.704621
          ],
          [
            88.363384,
            43.703914
          ],
          [
            88.363727,
            43.703822
          ],
          [
            88.363871,
            43.703669
          ],
          [
            88.364061,
            43.703094
          ],
          [
            88.364001,
            43.702902
          ],
          [
            88.364335,
            43.702267
          ],
          [
            88.363898,
            43.700394
          ],
          [
            88.364292,
            43.699685
          ],
          [
            88.364336,
            43.698084
          ],
          [
            88.364422,
            43.697291
          ],
          [
            88.364584,
            43.696829
          ],
          [
            88.364365,
            43.696051
          ],
          [
            88.364104,
            43.695606
          ],
          [
            88.363869,
            43.694259
          ],
          [
            88.363834,
            43.694168
          ],
          [
            88.363596,
            43.694088
          ],
          [
            88.363498,
            43.693911
          ],
          [
            88.363631,
            43.693066
          ],
          [
            88.363497,
            43.69184
          ],
          [
            88.363311,
            43.691607
          ],
          [
            88.363167,
            43.691049
          ],
          [
            88.363106,
            43.690281
          ],
          [
            88.36441,
            43.688731
          ],
          [
            88.365359,
            43.687767
          ],
          [
            88.365485,
            43.687747
          ],
          [
            88.366561,
            43.688162
          ],
          [
            88.367208,
            43.688228
          ],
          [
            88.368533,
            43.688158
          ],
          [
            88.370092,
            43.688398
          ],
          [
            88.37045,
            43.688533
          ],
          [
            88.369592,
            43.688305
          ],
          [
            88.369698,
            43.688234
          ],
          [
            88.371138,
            43.688153
          ],
          [
            88.37167,
            43.687868
          ],
          [
            88.372742,
            43.687518
          ],
          [
            88.373638,
            43.687121
          ],
          [
            88.375135,
            43.686736
          ],
          [
            88.375387,
            43.686754
          ],
          [
            88.376563,
            43.68637
          ],
          [
            88.378377,
            43.685621
          ],
          [
            88.378763,
            43.685541
          ],
          [
            88.379473,
            43.685156
          ],
          [
            88.379763,
            43.684839
          ],
          [
            88.380125,
            43.684746
          ],
          [
            88.380393,
            43.684536
          ],
          [
            88.38095,
            43.684333
          ],
          [
            88.381497,
            43.68392
          ],
          [
            88.381842,
            43.683526
          ],
          [
            88.382283,
            43.683736
          ],
          [
            88.38268,
            43.683789
          ],
          [
            88.382913,
            43.684122
          ],
          [
            88.383933,
            43.684942
          ],
          [
            88.384335,
            43.684985
          ],
          [
            88.384683,
            43.684863
          ],
          [
            88.38474,
            43.684682
          ],
          [
            88.385104,
            43.684627
          ],
          [
            88.384219,
            43.684247
          ],
          [
            88.383969,
            43.684216
          ],
          [
            88.38406,
            43.684277
          ],
          [
            88.383824,
            43.684306
          ],
          [
            88.383756,
            43.684118
          ],
          [
            88.383832,
            43.68404
          ],
          [
            88.383634,
            43.683815
          ],
          [
            88.383677,
            43.683729
          ],
          [
            88.383612,
            43.683645
          ],
          [
            88.383578,
            43.683845
          ],
          [
            88.383828,
            43.684109
          ],
          [
            88.384084,
            43.684101
          ],
          [
            88.384015,
            43.684016
          ],
          [
            88.38437,
            43.684094
          ],
          [
            88.384558,
            43.68386
          ],
          [
            88.384288,
            43.683936
          ],
          [
            88.384311,
            43.684036
          ],
          [
            88.383938,
            43.684274
          ],
          [
            88.383819,
            43.684309
          ],
          [
            88.383729,
            43.684241
          ],
          [
            88.383747,
            43.684338
          ],
          [
            88.383618,
            43.684345
          ],
          [
            88.383355,
            43.684131
          ],
          [
            88.383282,
            43.683826
          ],
          [
            88.382932,
            43.68332
          ],
          [
            88.382722,
            43.683193
          ],
          [
            88.382475,
            43.68321
          ],
          [
            88.382023,
            43.683051
          ],
          [
            88.381771,
            43.682734
          ],
          [
            88.381415,
            43.68246
          ],
          [
            88.381172,
            43.682384
          ],
          [
            88.380533,
            43.681785
          ],
          [
            88.380419,
            43.681825
          ],
          [
            88.380221,
            43.681674
          ],
          [
            88.380232,
            43.681479
          ],
          [
            88.380319,
            43.681558
          ],
          [
            88.38025,
            43.681479
          ],
          [
            88.380464,
            43.681546
          ],
          [
            88.380779,
            43.681375
          ],
          [
            88.380455,
            43.680969
          ],
          [
            88.380322,
            43.680946
          ],
          [
            88.380236,
            43.680231
          ],
          [
            88.380409,
            43.680362
          ],
          [
            88.381126,
            43.680222
          ],
          [
            88.381767,
            43.680308
          ],
          [
            88.382061,
            43.680201
          ],
          [
            88.382522,
            43.680371
          ],
          [
            88.383467,
            43.680376
          ],
          [
            88.383805,
            43.680536
          ],
          [
            88.384429,
            43.681159
          ],
          [
            88.384748,
            43.681335
          ],
          [
            88.384844,
            43.681515
          ],
          [
            88.385206,
            43.681662
          ],
          [
            88.385839,
            43.681755
          ],
          [
            88.386241,
            43.682002
          ],
          [
            88.387083,
            43.682244
          ],
          [
            88.38728,
            43.682378
          ],
          [
            88.387652,
            43.682435
          ],
          [
            88.388706,
            43.683044
          ],
          [
            88.389427,
            43.683303
          ],
          [
            88.389956,
            43.683379
          ],
          [
            88.391156,
            43.683762
          ],
          [
            88.392222,
            43.683801
          ],
          [
            88.393424,
            43.684153
          ],
          [
            88.39518,
            43.684395
          ],
          [
            88.397119,
            43.684909
          ],
          [
            88.398633,
            43.685182
          ],
          [
            88.398995,
            43.68529
          ],
          [
            88.399279,
            43.685481
          ],
          [
            88.400181,
            43.685601
          ],
          [
            88.401513,
            43.685933
          ],
          [
            88.403426,
            43.685721
          ],
          [
            88.403801,
            43.685766
          ],
          [
            88.40482,
            43.68564
          ],
          [
            88.405217,
            43.68569
          ],
          [
            88.40716,
            43.685172
          ],
          [
            88.407344,
            43.685043
          ],
          [
            88.407984,
            43.684977
          ],
          [
            88.408789,
            43.68527
          ],
          [
            88.409027,
            43.685184
          ],
          [
            88.409739,
            43.685413
          ],
          [
            88.409995,
            43.685372
          ],
          [
            88.410105,
            43.685211
          ],
          [
            88.410872,
            43.684879
          ],
          [
            88.411759,
            43.684741
          ],
          [
            88.411893,
            43.68476
          ],
          [
            88.411948,
            43.68503
          ],
          [
            88.412351,
            43.685378
          ],
          [
            88.414024,
            43.685223
          ],
          [
            88.4147,
            43.684945
          ],
          [
            88.416754,
            43.685027
          ],
          [
            88.418499,
            43.684602
          ],
          [
            88.418758,
            43.684593
          ],
          [
            88.419452,
            43.684848
          ],
          [
            88.419926,
            43.68471
          ],
          [
            88.420904,
            43.68492
          ],
          [
            88.42191,
            43.684893
          ],
          [
            88.424453,
            43.684489
          ],
          [
            88.42628,
            43.684543
          ],
          [
            88.428305,
            43.68485
          ],
          [
            88.430504,
            43.684876
          ],
          [
            88.431655,
            43.685025
          ],
          [
            88.433491,
            43.68499
          ],
          [
            88.434409,
            43.685067
          ],
          [
            88.435326,
            43.684425
          ],
          [
            88.435652,
            43.684026
          ],
          [
            88.437054,
            43.683254
          ],
          [
            88.437435,
            43.683193
          ],
          [
            88.437948,
            43.682933
          ],
          [
            88.439058,
            43.682682
          ],
          [
            88.44106,
            43.682351
          ],
          [
            88.441655,
            43.682181
          ],
          [
            88.442408,
            43.682113
          ],
          [
            88.4426,
            43.68199
          ],
          [
            88.442978,
            43.681934
          ],
          [
            88.443639,
            43.68149
          ],
          [
            88.443531,
            43.681445
          ],
          [
            88.444341,
            43.681139
          ],
          [
            88.444899,
            43.680614
          ],
          [
            88.44555,
            43.680335
          ],
          [
            88.445869,
            43.680621
          ],
          [
            88.44749,
            43.681108
          ],
          [
            88.447713,
            43.681315
          ],
          [
            88.448591,
            43.681385
          ],
          [
            88.448787,
            43.6815
          ],
          [
            88.44953,
            43.681663
          ],
          [
            88.450424,
            43.681753
          ],
          [
            88.450544,
            43.681894
          ],
          [
            88.450549,
            43.681803
          ],
          [
            88.451148,
            43.681987
          ],
          [
            88.451207,
            43.682068
          ],
          [
            88.451465,
            43.682086
          ],
          [
            88.451984,
            43.682373
          ],
          [
            88.452248,
            43.682905
          ],
          [
            88.452943,
            43.683498
          ],
          [
            88.453577,
            43.68364
          ],
          [
            88.45396,
            43.683587
          ],
          [
            88.454466,
            43.683638
          ],
          [
            88.456319,
            43.68405
          ],
          [
            88.457412,
            43.684156
          ],
          [
            88.458285,
            43.684128
          ],
          [
            88.458877,
            43.684328
          ],
          [
            88.459998,
            43.684375
          ],
          [
            88.460606,
            43.68424
          ],
          [
            88.461052,
            43.684313
          ],
          [
            88.461291,
            43.684522
          ],
          [
            88.461281,
            43.684426
          ],
          [
            88.461146,
            43.684427
          ],
          [
            88.461146,
            43.684313
          ]
        ]
      }
    }
  ]
}
