<?xml version="1.0" encoding="UTF-8"?>
<gpx version="1.1" creator="霞客示例路书" xmlns="http://www.topografix.com/GPX/1/1">
  <metadata><name>四姑娘山长坪沟穿越参考轨迹</name></metadata>
  <trk><name>四姑娘山长坪沟穿越</name><trkseg>
      <trkpt lat="31.12" lon="102.89"><ele>3200</ele></trkpt>
      <trkpt lat="31.11875" lon="102.889375"><ele>3213</ele></trkpt>
      <trkpt lat="31.1175" lon="102.88875"><ele>3225</ele></trkpt>
      <trkpt lat="31.11625" lon="102.888125"><ele>3238</ele></trkpt>
      <trkpt lat="31.115" lon="102.8875"><ele>3250</ele></trkpt>
      <trkpt lat="31.11375" lon="102.886875"><ele>3263</ele></trkpt>
      <trkpt lat="31.1125" lon="102.88625"><ele>3275</ele></trkpt>
      <trkpt lat="31.11125" lon="102.885625"><ele>3288</ele></trkpt>
      <trkpt lat="31.11" lon="102.885"><ele>3300</ele></trkpt>
      <trkpt lat="31.10875" lon="102.884375"><ele>3313</ele></trkpt>
      <trkpt lat="31.1075" lon="102.88375"><ele>3325</ele></trkpt>
      <trkpt lat="31.10625" lon="102.883125"><ele>3338</ele></trkpt>
      <trkpt lat="31.105" lon="102.8825"><ele>3350</ele></trkpt>
      <trkpt lat="31.10375" lon="102.881875"><ele>3363</ele></trkpt>
      <trkpt lat="31.1025" lon="102.88125"><ele>3375</ele></trkpt>
      <trkpt lat="31.10125" lon="102.880625"><ele>3388</ele></trkpt>
      <trkpt lat="31.1" lon="102.88"><ele>3400</ele></trkpt>
      <trkpt lat="31.099167" lon="102.878333"><ele>3408</ele></trkpt>
      <trkpt lat="31.098333" lon="102.876667"><ele>3417</ele></trkpt>
      <trkpt lat="31.0975" lon="102.875"><ele>3425</ele></trkpt>
      <trkpt lat="31.096667" lon="102.873333"><ele>3433</ele></trkpt>
      <trkpt lat="31.095833" lon="102.871667"><ele>3442</ele></trkpt>
      <trkpt lat="31.095" lon="102.87"><ele>3450</ele></trkpt>
      <trkpt lat="31.094167" lon="102.868333"><ele>3458</ele></trkpt>
      <trkpt lat="31.093333" lon="102.866667"><ele>3467</ele></trkpt>
      <trkpt lat="31.0925" lon="102.865"><ele>3475</ele></trkpt>
      <trkpt lat="31.091667" lon="102.863333"><ele>3483</ele></trkpt>
      <trkpt lat="31.090833" lon="102.861667"><ele>3492</ele></trkpt>
      <trkpt lat="31.09" lon="102.86"><ele>3500</ele></trkpt>
      <trkpt lat="31.088929" lon="102.858571"><ele>3509</ele></trkpt>
      <trkpt lat="31.087857" lon="102.857143"><ele>3519</ele></trkpt>
      <trkpt lat="31.086786" lon="102.855714"><ele>3528</ele></trkpt>
      <trkpt lat="31.085714" lon="102.854286"><ele>3537</ele></trkpt>
      <trkpt lat="31.084643" lon="102.852857"><ele>3546</ele></trkpt>
      <trkpt lat="31.083571" lon="102.851429"><ele>3556</ele></trkpt>
      <trkpt lat="31.0825" lon="102.85"><ele>3565</ele></trkpt>
      <trkpt lat="31.081429" lon="102.848571"><ele>3574</ele></trkpt>
      <trkpt lat="31.080357" lon="102.847143"><ele>3584</ele></trkpt>
      <trkpt lat="31.079286" lon="102.845714"><ele>3593</ele></trkpt>
      <trkpt lat="31.078214" lon="102.844286"><ele>3602</ele></trkpt>
      <trkpt lat="31.077143" lon="102.842857"><ele>3611</ele></trkpt>
      <trkpt lat="31.076071" lon="102.841429"><ele>3621</ele></trkpt>
      <trkpt lat="31.075" lon="102.84"><ele>3630</ele></trkpt>
      <trkpt lat="31.073929" lon="102.838571"><ele>3639</ele></trkpt>
      <trkpt lat="31.072857" lon="102.837143"><ele>3649</ele></trkpt>
      <trkpt lat="31.071786" lon="102.835714"><ele>3658</ele></trkpt>
      <trkpt lat="31.070714" lon="102.834286"><ele>3667</ele></trkpt>
      <trkpt lat="31.069643" lon="102.832857"><ele>3676</ele></trkpt>
      <trkpt lat="31.068571" lon="102.831429"><ele>3686</ele></trkpt>
      <trkpt lat="31.0675" lon="102.83"><ele>3695</ele></trkpt>
      <trkpt lat="31.066429" lon="102.828571"><ele>3704</ele></trkpt>
      <trkpt lat="31.065357" lon="102.827143"><ele>3714</ele></trkpt>
      <trkpt lat="31.064286" lon="102.825714"><ele>3723</ele></trkpt>
      <trkpt lat="31.063214" lon="102.824286"><ele>3732</ele></trkpt>
      <trkpt lat="31.062143" lon="102.822857"><ele>3741</ele></trkpt>
      <trkpt lat="31.061071" lon="102.821429"><ele>3751</ele></trkpt>
      <trkpt lat="31.06" lon="102.82"><ele>3760</ele></trkpt>
      <trkpt lat="31.05925" lon="102.819"><ele>3764</ele></trkpt>
      <trkpt lat="31.0585" lon="102.818"><ele>3767</ele></trkpt>
      <trkpt lat="31.05775" lon="102.817"><ele>3771</ele></trkpt>
      <trkpt lat="31.057" lon="102.816"><ele>3774</ele></trkpt>
      <trkpt lat="31.05625" lon="102.815"><ele>3778</ele></trkpt>
      <trkpt lat="31.0555" lon="102.814"><ele>3781</ele></trkpt>
      <trkpt lat="31.05475" lon="102.813"><ele>3785</ele></trkpt>
      <trkpt lat="31.054" lon="102.812"><ele>3788</ele></trkpt>
      <trkpt lat="31.05325" lon="102.811"><ele>3792</ele></trkpt>
      <trkpt lat="31.0525" lon="102.81"><ele>3795</ele></trkpt>
      <trkpt lat="31.05175" lon="102.809"><ele>3799</ele></trkpt>
      <trkpt lat="31.051" lon="102.808"><ele>3802</ele></trkpt>
      <trkpt lat="31.05025" lon="102.807"><ele>3806</ele></trkpt>
      <trkpt lat="31.0495" lon="102.806"><ele>3809</ele></trkpt>
      <trkpt lat="31.04875" lon="102.805"><ele>3813</ele></trkpt>
      <trkpt lat="31.048" lon="102.804"><ele>3816</ele></trkpt>
      <trkpt lat="31.04725" lon="102.803"><ele>3820</ele></trkpt>
      <trkpt lat="31.0465" lon="102.802"><ele>3823</ele></trkpt>
      <trkpt lat="31.04575" lon="102.801"><ele>3827</ele></trkpt>
      <trkpt lat="31.045" lon="102.8"><ele>3830</ele></trkpt>
      <trkpt lat="31.04425" lon="102.799"><ele>3834</ele></trkpt>
      <trkpt lat="31.0435" lon="102.798"><ele>3837</ele></trkpt>
      <trkpt lat="31.04275" lon="102.797"><ele>3841</ele></trkpt>
      <trkpt lat="31.042" lon="102.796"><ele>3844</ele></trkpt>
      <trkpt lat="31.04125" lon="102.795"><ele>3848</ele></trkpt>
      <trkpt lat="31.0405" lon="102.794"><ele>3851</ele></trkpt>
      <trkpt lat="31.03975" lon="102.793"><ele>3855</ele></trkpt>
      <trkpt lat="31.039" lon="102.792"><ele>3858</ele></trkpt>
      <trkpt lat="31.03825" lon="102.791"><ele>3862</ele></trkpt>
      <trkpt lat="31.0375" lon="102.79"><ele>3865</ele></trkpt>
      <trkpt lat="31.03675" lon="102.789"><ele>3869</ele></trkpt>
      <trkpt lat="31.036" lon="102.788"><ele>3872</ele></trkpt>
      <trkpt lat="31.03525" lon="102.787"><ele>3876</ele></trkpt>
      <trkpt lat="31.0345" lon="102.786"><ele>3879</ele></trkpt>
      <trkpt lat="31.03375" lon="102.785"><ele>3883</ele></trkpt>
      <trkpt lat="31.033" lon="102.784"><ele>3886</ele></trkpt>
      <trkpt lat="31.03225" lon="102.783"><ele>3890</ele></trkpt>
      <trkpt lat="31.0315" lon="102.782"><ele>3893</ele></trkpt>
      <trkpt lat="31.03075" lon="102.781"><ele>3897</ele></trkpt>
      <trkpt lat="31.03" lon="102.78"><ele>3900</ele></trkpt>
      <trkpt lat="31.02875" lon="102.778333"><ele>3932</ele></trkpt>
      <trkpt lat="31.0275" lon="102.776667"><ele>3964</ele></trkpt>
      <trkpt lat="31.02625" lon="102.775"><ele>3996</ele></trkpt>
      <trkpt lat="31.025" lon="102.773333"><ele>4028</ele></trkpt>
      <trkpt lat="31.02375" lon="102.771667"><ele>4060</ele></trkpt>
      <trkpt lat="31.0225" lon="102.77"><ele>4092</ele></trkpt>
      <trkpt lat="31.02125" lon="102.768333"><ele>4124</ele></trkpt>
      <trkpt lat="31.02" lon="102.766667"><ele>4156</ele></trkpt>
      <trkpt lat="31.01875" lon="102.765"><ele>4188</ele></trkpt>
      <trkpt lat="31.0175" lon="102.763333"><ele>4220</ele></trkpt>
      <trkpt lat="31.01625" lon="102.761667"><ele>4252</ele></trkpt>
      <trkpt lat="31.015" lon="102.76"><ele>4284</ele></trkpt>
      <trkpt lat="31.01375" lon="102.758333"><ele>4316</ele></trkpt>
      <trkpt lat="31.0125" lon="102.756667"><ele>4348</ele></trkpt>
      <trkpt lat="31.01125" lon="102.755"><ele>4380</ele></trkpt>
      <trkpt lat="31.01" lon="102.753333"><ele>4412</ele></trkpt>
      <trkpt lat="31.00875" lon="102.751667"><ele>4444</ele></trkpt>
      <trkpt lat="31.0075" lon="102.75"><ele>4476</ele></trkpt>
      <trkpt lat="31.00625" lon="102.748333"><ele>4508</ele></trkpt>
      <trkpt lat="31.005" lon="102.746667"><ele>4540</ele></trkpt>
      <trkpt lat="31.00375" lon="102.745"><ele>4572</ele></trkpt>
      <trkpt lat="31.0025" lon="102.743333"><ele>4604</ele></trkpt>
      <trkpt lat="31.00125" lon="102.741667"><ele>4636</ele></trkpt>
      <trkpt lat="31" lon="102.74"><ele>4668</ele></trkpt>
      <trkpt lat="30.999167" lon="102.738333"><ele>4624</ele></trkpt>
      <trkpt lat="30.998333" lon="102.736667"><ele>4579</ele></trkpt>
      <trkpt lat="30.9975" lon="102.735"><ele>4535</ele></trkpt>
      <trkpt lat="30.996667" lon="102.733333"><ele>4490</ele></trkpt>
      <trkpt lat="30.995833" lon="102.731667"><ele>4446</ele></trkpt>
      <trkpt lat="30.995" lon="102.73"><ele>4401</ele></trkpt>
      <trkpt lat="30.994167" lon="102.728333"><ele>4357</ele></trkpt>
      <trkpt lat="30.993333" lon="102.726667"><ele>4312</ele></trkpt>
      <trkpt lat="30.9925" lon="102.725"><ele>4268</ele></trkpt>
      <trkpt lat="30.991667" lon="102.723333"><ele>4223</ele></trkpt>
      <trkpt lat="30.990833" lon="102.721667"><ele>4179</ele></trkpt>
      <trkpt lat="30.99" lon="102.72"><ele>4134</ele></trkpt>
      <trkpt lat="30.989167" lon="102.718333"><ele>4090</ele></trkpt>
      <trkpt lat="30.988333" lon="102.716667"><ele>4045</ele></trkpt>
      <trkpt lat="30.9875" lon="102.715"><ele>4001</ele></trkpt>
      <trkpt lat="30.986667" lon="102.713333"><ele>3956</ele></trkpt>
      <trkpt lat="30.985833" lon="102.711667"><ele>3912</ele></trkpt>
      <trkpt lat="30.985" lon="102.71"><ele>3867</ele></trkpt>
      <trkpt lat="30.984167" lon="102.708333"><ele>3823</ele></trkpt>
      <trkpt lat="30.983333" lon="102.706667"><ele>3778</ele></trkpt>
      <trkpt lat="30.9825" lon="102.705"><ele>3734</ele></trkpt>
      <trkpt lat="30.981667" lon="102.703333"><ele>3689</ele></trkpt>
      <trkpt lat="30.980833" lon="102.701667"><ele>3645</ele></trkpt>
      <trkpt lat="30.98" lon="102.7"><ele>3600</ele></trkpt>
    </trkseg></trk>
</gpx>
