{
  "type": "FeatureCollection",
  "features": [
    {
      "type": "Feature",
      "properties": {
        "name": "长白山天池西坡参考轨迹",
        "type": "hiking",
        "source": "两步路用户轨迹",
        "segments": 1
      },
      "geometry": {
        "type": "LineString",
        "coordinates": [
          [
            127.94447,
            41.944209
          ],
          [
            127.944535,
            41.944198
          ],
          [
            127.944515,
            41.944216
          ],
          [
            127.944421,
            41.944212
          ],
          [
            127.944248,
            41.944169
          ],
          [
            127.944113,
            41.944075
          ],
          [
            127.943915,
            41.943896
          ],
          [
            127.943592,
            41.943489
          ],
          [
            127.943601,
            41.943422
          ],
          [
            127.94363,
            41.943392
          ],
          [
            127.943729,
            41.94335
          ],
          [
            127.943869,
            41.943334
          ],
          [
            127.944364,
            41.943336
          ],
          [
            127.945014,
            41.943378
          ],
          [
            127.945276,
            41.94336
          ],
          [
            127.945486,
            41.943305
          ],
          [
            127.945618,
            41.943244
          ],
          [
            127.946062,
            41.942949
          ],
          [
            127.94622,
            41.942899
          ],
          [
            127.946397,
            41.942884
          ],
          [
            127.946672,
            41.942912
          ],
          [
            127.947041,
            41.94299
          ],
          [
            127.948365,
            41.943379
          ],
          [
            127.948912,
            41.943511
          ],
          [
            127.94921,
            41.943556
          ],
          [
            127.94952,
            41.943571
          ],
          [
            127.949982,
            41.943554
          ],
          [
            127.951591,
            41.943399
          ],
          [
            127.951902,
            41.943344
          ],
          [
            127.952045,
            41.9433
          ],
          [
            127.952175,
            41.943242
          ],
          [
            127.952289,
            41.943166
          ],
          [
            127.952464,
            41.942978
          ],
          [
            127.952715,
            41.942578
          ],
          [
            127.952879,
            41.942429
          ],
          [
            127.952979,
            41.942371
          ],
          [
            127.95321,
            41.942273
          ],
          [
            127.953464,
            41.942203
          ],
          [
            127.953596,
            41.942186
          ],
          [
            127.953867,
            41.942196
          ],
          [
            127.954909,
            41.942413
          ],
          [
            127.955391,
            41.942498
          ],
          [
            127.955864,
            41.942552
          ],
          [
            127.956686,
            41.942593
          ],
          [
            127.957027,
            41.942628
          ],
          [
            127.957371,
            41.942689
          ],
          [
            127.957712,
            41.942776
          ],
          [
            127.958039,
            41.942895
          ],
          [
            127.958653,
            41.943195
          ],
          [
            127.958968,
            41.943329
          ],
          [
            127.959808,
            41.943586
          ],
          [
            127.960123,
            41.943713
          ],
          [
            127.960392,
            41.943882
          ],
          [
            127.96084,
            41.944272
          ],
          [
            127.960969,
            41.944357
          ],
          [
            127.961269,
            41.944499
          ],
          [
            127.961612,
            41.944606
          ],
          [
            127.961982,
            41.944674
          ],
          [
            127.963174,
            41.944719
          ],
          [
            127.963768,
            41.944811
          ],
          [
            127.964323,
            41.944979
          ],
          [
            127.965163,
            41.945345
          ],
          [
            127.965607,
            41.945602
          ],
          [
            127.965971,
            41.94587
          ],
          [
            127.966484,
            41.946284
          ],
          [
            127.966639,
            41.946482
          ],
          [
            127.966663,
            41.946629
          ],
          [
            127.966587,
            41.946784
          ],
          [
            127.966146,
            41.947258
          ],
          [
            127.965988,
            41.947517
          ],
          [
            127.965963,
            41.947714
          ],
          [
            127.966036,
            41.94792
          ],
          [
            127.966289,
            41.948221
          ],
          [
            127.966594,
            41.948526
          ],
          [
            127.966811,
            41.948712
          ],
          [
            127.966928,
            41.948794
          ],
          [
            127.967189,
            41.948928
          ],
          [
            127.967493,
            41.94901
          ],
          [
            127.967829,
            41.949031
          ],
          [
            127.968186,
            41.948998
          ],
          [
            127.969639,
            41.948715
          ],
          [
            127.969982,
            41.948608
          ],
          [
            127.970146,
            41.948538
          ],
          [
            127.970617,
            41.948294
          ],
          [
            127.970944,
            41.948152
          ],
          [
            127.971287,
            41.94807
          ],
          [
            127.971457,
            41.948059
          ],
          [
            127.971621,
            41.948068
          ],
          [
            127.971937,
            41.948135
          ],
          [
            127.97288,
            41.948464
          ],
          [
            127.973389,
            41.948617
          ],
          [
            127.973745,
            41.948676
          ],
          [
            127.974114,
            41.94867
          ],
          [
            127.974303,
            41.948642
          ],
          [
            127.97468,
            41.948554
          ],
          [
            127.976683,
            41.948021
          ],
          [
            127.977751,
            41.947755
          ],
          [
            127.978601,
            41.94758
          ],
          [
            127.979962,
            41.947343
          ],
          [
            127.980169,
            41.947349
          ],
          [
            127.980376,
            41.947406
          ],
          [
            127.981397,
            41.947939
          ],
          [
            127.981823,
            41.948245
          ],
          [
            127.984505,
            41.950406
          ],
          [
            127.987817,
            41.953283
          ],
          [
            127.988089,
            41.953508
          ],
          [
            127.988379,
            41.953714
          ],
          [
            127.988852,
            41.953989
          ],
          [
            127.994553,
            41.957043
          ],
          [
            127.999809,
            41.959908
          ],
          [
            128.000115,
            41.960118
          ],
          [
            128.000255,
            41.960295
          ],
          [
            128.000392,
            41.960611
          ],
          [
            128.000821,
            41.961877
          ],
          [
            128.001399,
            41.963485
          ],
          [
            128.001874,
            41.964922
          ],
          [
            128.00238,
            41.966301
          ],
          [
            128.002448,
            41.966565
          ],
          [
            128.002458,
            41.966698
          ],
          [
            128.002445,
            41.966829
          ],
          [
            128.00236,
            41.967085
          ],
          [
            128.001834,
            41.968062
          ],
          [
            128.001335,
            41.969045
          ],
          [
            128.001181,
            41.969422
          ],
          [
            128.001122,
            41.96968
          ],
          [
            128.001043,
            41.970487
          ],
          [
            128.00106,
            41.970778
          ],
          [
            128.00109,
            41.97087
          ],
          [
            128.001204,
            41.971042
          ],
          [
            128.001551,
            41.971347
          ],
          [
            128.001698,
            41.971509
          ],
          [
            128.001775,
            41.971677
          ],
          [
            128.001775,
            41.971762
          ],
          [
            128.001702,
            41.971933
          ],
          [
            128.001361,
            41.972413
          ],
          [
            128.001101,
            41.972897
          ],
          [
            128.001002,
            41.973044
          ],
          [
            128.000867,
            41.973155
          ],
          [
            128.000621,
            41.973276
          ],
          [
            128.000506,
            41.973354
          ],
          [
            128.000483,
            41.973454
          ],
          [
            128.000588,
            41.9737
          ],
          [
            128.000598,
            41.973826
          ],
          [
            128.000541,
            41.973945
          ],
          [
            128.000386,
            41.974112
          ],
          [
            128.000314,
            41.974239
          ],
          [
            128.000306,
            41.974308
          ],
          [
            128.00035,
            41.974446
          ],
          [
            128.00066,
            41.974832
          ],
          [
            128.000729,
            41.974971
          ],
          [
            128.000742,
            41.975041
          ],
          [
            128.000718,
            41.975182
          ],
          [
            128.000632,
            41.975393
          ],
          [
            128.00061,
            41.975551
          ],
          [
            128.000655,
            41.97608
          ],
          [
            128.000605,
            41.977117
          ],
          [
            128.000665,
            41.978006
          ],
          [
            128.000625,
            41.978603
          ],
          [
            128.000584,
            41.978731
          ],
          [
            128.000484,
            41.978828
          ],
          [
            128.000409,
            41.978849
          ],
          [
            128.000235,
            41.978829
          ],
          [
            128.000056,
            41.978729
          ],
          [
            127.999535,
            41.978326
          ],
          [
            127.999326,
            41.978197
          ],
          [
            127.999092,
            41.978082
          ],
          [
            127.998832,
            41.978008
          ],
          [
            127.998693,
            41.977994
          ],
          [
            127.998413,
            41.978014
          ],
          [
            127.99814,
            41.978092
          ],
          [
            127.997886,
            41.978206
          ],
          [
            127.997533,
            41.978424
          ],
          [
            127.997318,
            41.978586
          ],
          [
            127.99676,
            41.979103
          ],
          [
            127.996632,
            41.979282
          ],
          [
            127.99659,
            41.979475
          ],
          [
            127.996642,
            41.97967
          ],
          [
            127.996901,
            41.980115
          ],
          [
            127.997012,
            41.980377
          ],
          [
            127.997033,
            41.980553
          ],
          [
            127.99697,
            41.980905
          ],
          [
            127.996969,
            41.981082
          ],
          [
            127.997038,
            41.981258
          ],
          [
            127.99717,
            41.981421
          ],
          [
            127.997344,
            41.981551
          ],
          [
            127.997442,
            41.98159
          ],
          [
            127.997547,
            41.981609
          ],
          [
            127.997762,
            41.981598
          ],
          [
            127.998142,
            41.981522
          ],
          [
            127.998382,
            41.981494
          ],
          [
            127.998529,
            41.9815
          ],
          [
            127.998627,
            41.981536
          ],
          [
            127.998633,
            41.981614
          ],
          [
            127.99837,
            41.981921
          ],
          [
            127.998311,
            41.982019
          ],
          [
            127.998282,
            41.982116
          ],
          [
            127.99829,
            41.982313
          ],
          [
            127.99835,
            41.982502
          ],
          [
            127.998475,
            41.982764
          ],
          [
            127.998849,
            41.983415
          ],
          [
            127.999136,
            41.983869
          ],
          [
            127.999314,
            41.984025
          ],
          [
            127.999386,
            41.984047
          ],
          [
            127.999536,
            41.984054
          ],
          [
            127.99989,
            41.983748
          ],
          [
            127.999937,
            41.98374
          ],
          [
            128.000039,
            41.983682
          ],
          [
            128.000113,
            41.983663
          ],
          [
            128.000243,
            41.983668
          ],
          [
            128.000333,
            41.983735
          ],
          [
            128.000384,
            41.983859
          ],
          [
            128.000462,
            41.98451
          ],
          [
            128.000528,
            41.984706
          ],
          [
            128.000623,
            41.984893
          ],
          [
            128.000827,
            41.985125
          ],
          [
            128.001362,
            41.985475
          ],
          [
            128.001481,
            41.98562
          ],
          [
            128.001518,
            41.985699
          ],
          [
            128.001547,
            41.985962
          ],
          [
            128.001442,
            41.986519
          ],
          [
            128.001469,
            41.986649
          ],
          [
            128.001509,
            41.986694
          ],
          [
            128.001566,
            41.986727
          ],
          [
            128.001717,
            41.986769
          ],
          [
            128.002403,
            41.986871
          ],
          [
            128.002725,
            41.986946
          ],
          [
            128.004433,
            41.987497
          ],
          [
            128.004755,
            41.987559
          ],
          [
            128.005321,
            41.987582
          ],
          [
            128.005464,
            41.987623
          ],
          [
            128.005556,
            41.987707
          ],
          [
            128.005561,
            41.987824
          ],
          [
            128.005524,
            41.987883
          ],
          [
            128.005358,
            41.987983
          ],
          [
            128.005239,
            41.988019
          ],
          [
            128.004964,
            41.988065
          ],
          [
            128.003548,
            41.988213
          ],
          [
            128.00327,
            41.98827
          ],
          [
            128.003126,
            41.988341
          ],
          [
            128.003085,
            41.988393
          ],
          [
            128.003074,
            41.988452
          ],
          [
            128.003097,
            41.988514
          ],
          [
            128.00315,
            41.988573
          ],
          [
            128.003226,
            41.98862
          ],
          [
            128.003424,
            41.988667
          ],
          [
            128.003738,
            41.988673
          ],
          [
            128.003937,
            41.988695
          ],
          [
            128.004098,
            41.988758
          ],
          [
            128.004146,
            41.988808
          ],
          [
            128.004168,
            41.988867
          ],
          [
            128.004163,
            41.988932
          ],
          [
            128.004128,
            41.989003
          ],
          [
            128.003869,
            41.989276
          ],
          [
            128.003791,
            41.989405
          ],
          [
            128.003785,
            41.989467
          ],
          [
            128.003851,
            41.989577
          ],
          [
            128.00392,
            41.989611
          ],
          [
            128.004005,
            41.989623
          ],
          [
            128.004102,
            41.989611
          ],
          [
            128.004296,
            41.989521
          ],
          [
            128.004625,
            41.98929
          ],
          [
            128.004777,
            41.989204
          ],
          [
            128.004931,
            41.989171
          ],
          [
            128.005,
            41.989185
          ],
          [
            128.005052,
            41.989222
          ],
          [
            128.00509,
            41.989354
          ],
          [
            128.005003,
            41.989904
          ],
          [
            128.005035,
            41.990068
          ],
          [
            128.005075,
            41.990146
          ],
          [
            128.005139,
            41.990218
          ],
          [
            128.005225,
            41.990278
          ],
          [
            128.005335,
            41.990322
          ],
          [
            128.005461,
            41.990343
          ],
          [
            128.0056,
            41.990335
          ],
          [
            128.005737,
            41.990299
          ],
          [
            128.005989,
            41.990164
          ],
          [
            128.006508,
            41.989743
          ],
          [
            128.006733,
            41.989596
          ],
          [
            128.006979,
            41.989484
          ],
          [
            128.007245,
            41.989413
          ],
          [
            128.007386,
            41.989394
          ],
          [
            128.007676,
            41.989387
          ],
          [
            128.007974,
            41.989418
          ],
          [
            128.009938,
            41.989772
          ],
          [
            128.010563,
            41.989867
          ],
          [
            128.010876,
            41.989899
          ],
          [
            128.011491,
            41.989906
          ],
          [
            128.012256,
            41.989867
          ],
          [
            128.012449,
            41.98984
          ],
          [
            128.012594,
            41.989775
          ],
          [
            128.012638,
            41.989721
          ],
          [
            128.012665,
            41.989578
          ],
          [
            128.012622,
            41.989401
          ],
          [
            128.012544,
            41.989216
          ],
          [
            128.012142,
            41.988457
          ],
          [
            128.012143,
            41.988326
          ],
          [
            128.012179,
            41.988279
          ],
          [
            128.012237,
            41.988249
          ],
          [
            128.012316,
            41.988247
          ],
          [
            128.012485,
            41.988316
          ],
          [
            128.012827,
            41.988652
          ],
          [
            128.013071,
            41.988813
          ],
          [
            128.013343,
            41.988943
          ],
          [
            128.013633,
            41.98903
          ],
          [
            128.013839,
            41.989041
          ],
          [
            128.014048,
            41.989014
          ],
          [
            128.014876,
            41.988808
          ],
          [
            128.015188,
            41.988751
          ],
          [
            128.015393,
            41.988748
          ],
          [
            128.015485,
            41.988772
          ],
          [
            128.015564,
            41.988815
          ],
          [
            128.015622,
            41.988876
          ],
          [
            128.015659,
            41.988952
          ],
          [
            128.015674,
            41.989126
          ],
          [
            128.015657,
            41.989372
          ],
          [
            128.015683,
            41.989497
          ],
          [
            128.015738,
            41.989579
          ],
          [
            128.015823,
            41.989612
          ],
          [
            128.015929,
            41.989602
          ],
          [
            128.016105,
            41.989527
          ],
          [
            128.016435,
            41.989317
          ],
          [
            128.016549,
            41.989263
          ],
          [
            128.016674,
            41.989242
          ],
          [
            128.016796,
            41.989267
          ],
          [
            128.016946,
            41.989369
          ],
          [
            128.017921,
            41.990309
          ],
          [
            128.018186,
            41.990613
          ],
          [
            128.018766,
            41.991402
          ],
          [
            128.018943,
            41.991719
          ],
          [
            128.019023,
            41.991961
          ],
          [
            128.019128,
            41.992179
          ],
          [
            128.0191,
            41.992252
          ],
          [
            128.019068,
            41.992273
          ],
          [
            128.019024,
            41.992283
          ],
          [
            128.018923,
            41.992257
          ],
          [
            128.018782,
            41.992168
          ],
          [
            128.018647,
            41.992043
          ],
          [
            128.018669,
            41.992065
          ],
          [
            128.018541,
            41.992002
          ],
          [
            128.018519,
            41.991935
          ],
          [
            128.01848,
            41.991907
          ],
          [
            128.018489,
            41.991873
          ],
          [
            128.018207,
            41.991792
          ],
          [
            128.018349,
            41.991715
          ],
          [
            128.018336,
            41.991709
          ],
          [
            128.018388,
            41.991775
          ],
          [
            128.018345,
            41.991799
          ],
          [
            128.018465,
            41.991777
          ],
          [
            128.018411,
            41.991767
          ],
          [
            128.018411,
            41.99178
          ],
          [
            128.018436,
            41.991782
          ],
          [
            128.018401,
            41.991796
          ],
          [
            128.018427,
            41.991768
          ],
          [
            128.018444,
            41.991773
          ],
          [
            128.018427,
            41.99176
          ],
          [
            128.018443,
            41.991768
          ],
          [
            128.018414,
            41.991815
          ],
          [
            128.018476,
            41.991799
          ],
          [
            128.018437,
            41.991758
          ],
          [
            128.018513,
            41.991772
          ],
          [
            128.018663,
            41.991716
          ],
          [
            128.018615,
            41.991756
          ],
          [
            128.018572,
            41.991837
          ],
          [
            128.018542,
            41.99195
          ],
          [
            128.018553,
            41.992018
          ],
          [
            128.018622,
            41.992034
          ],
          [
            128.018734,
            41.992156
          ],
          [
            128.018988,
            41.992335
          ],
          [
            128.019112,
            41.992388
          ],
          [
            128.019325,
            41.992442
          ],
          [
            128.019519,
            41.992324
          ],
          [
            128.019451,
            41.992178
          ],
          [
            128.019585,
            41.992172
          ],
          [
            128.019773,
            41.992197
          ],
          [
            128.019835,
            41.992238
          ],
          [
            128.019897,
            41.992242
          ],
          [
            128.019928,
            41.99226
          ],
          [
            128.02001,
            41.992258
          ],
          [
            128.020032,
            41.992295
          ],
          [
            128.020086,
            41.992294
          ],
          [
            128.020366,
            41.992435
          ],
          [
            128.020549,
            41.992497
          ],
          [
            128.020692,
            41.992593
          ],
          [
            128.021002,
            41.992695
          ],
          [
            128.021164,
            41.992792
          ],
          [
            128.021301,
            41.992915
          ],
          [
            128.021371,
            41.992955
          ],
          [
            128.021846,
            41.99341
          ],
          [
            128.022134,
            41.993569
          ],
          [
            128.022161,
            41.993544
          ],
          [
            128.022277,
            41.993505
          ],
          [
            128.022322,
            41.99351
          ],
          [
            128.022525,
            41.99369
          ],
          [
            128.022636,
            41.993744
          ],
          [
            128.022866,
            41.993934
          ],
          [
            128.023043,
            41.994045
          ],
          [
            128.02313,
            41.994077
          ],
          [
            128.02334,
            41.994114
          ],
          [
            128.023767,
            41.994363
          ],
          [
            128.023811,
            41.994375
          ],
          [
            128.023876,
            41.994366
          ],
          [
            128.024095,
            41.994454
          ],
          [
            128.024281,
            41.99447
          ],
          [
            128.0246,
            41.994588
          ],
          [
            128.024797,
            41.994726
          ],
          [
            128.024803,
            41.994798
          ],
          [
            128.024916,
            41.994904
          ],
          [
            128.025361,
            41.995118
          ],
          [
            128.025783,
            41.995266
          ],
          [
            128.025878,
            41.995328
          ],
          [
            128.025989,
            41.995357
          ],
          [
            128.026129,
            41.995426
          ],
          [
            128.026177,
            41.995424
          ],
          [
            128.026335,
            41.99551
          ],
          [
            128.026608,
            41.995626
          ],
          [
            128.026661,
            41.995633
          ],
          [
            128.027004,
            41.995796
          ],
          [
            128.027074,
            41.995805
          ],
          [
            128.027216,
            41.995882
          ],
          [
            128.027352,
            41.995932
          ],
          [
            128.027375,
            41.995915
          ],
          [
            128.027475,
            41.995972
          ],
          [
            128.027577,
            41.995992
          ],
          [
            128.027703,
            41.996069
          ],
          [
            128.028,
            41.996164
          ],
          [
            128.028144,
            41.996259
          ],
          [
            128.028188,
            41.996253
          ],
          [
            128.02828,
            41.996328
          ],
          [
            128.028531,
            41.996468
          ],
          [
            128.028548,
            41.996473
          ],
          [
            128.02855,
            41.996456
          ],
          [
            128.028811,
            41.996648
          ],
          [
            128.028838,
            41.996648
          ],
          [
            128.028846,
            41.996628
          ],
          [
            128.028956,
            41.996718
          ],
          [
            128.029041,
            41.996722
          ],
          [
            128.029011,
            41.996789
          ],
          [
            128.029018,
            41.996817
          ],
          [
            128.029036,
            41.996817
          ],
          [
            128.029042,
            41.996802
          ],
          [
            128.02901,
            41.996829
          ],
          [
            128.029,
            41.996809
          ],
          [
            128.028987,
            41.996818
          ],
          [
            128.02904,
            41.996801
          ],
          [
            128.02899,
            41.9968
          ],
          [
            128.029137,
            41.99681
          ],
          [
            128.02907,
            41.996764
          ],
          [
            128.029025,
            41.99681
          ],
          [
            128.029006,
            41.996805
          ],
          [
            128.02902,
            41.996772
          ],
          [
            128.028946,
            41.996775
          ],
          [
            128.028794,
            41.996844
          ],
          [
            128.028739,
            41.996893
          ],
          [
            128.028664,
            41.996916
          ],
          [
            128.028597,
            41.996997
          ],
          [
            128.028539,
            41.996993
          ],
          [
            128.028499,
            41.996971
          ],
          [
            128.028444,
            41.997066
          ],
          [
            128.028353,
            41.997103
          ],
          [
            128.028429,
            41.997127
          ],
          [
            128.028464,
            41.997122
          ],
          [
            128.028469,
            41.997137
          ],
          [
            128.02844,
            41.997092
          ],
          [
            128.028443,
            41.997041
          ],
          [
            128.028469,
            41.99702
          ],
          [
            128.028441,
            41.997023
          ],
          [
            128.028427,
            41.997008
          ],
          [
            128.028457,
            41.997017
          ],
          [
            128.028446,
            41.997034
          ],
          [
            128.028499,
            41.997023
          ],
          [
            128.02859,
            41.996938
          ],
          [
            128.028673,
            41.996895
          ],
          [
            128.028725,
            41.996828
          ],
          [
            128.028824,
            41.99675
          ],
          [
            128.028836,
            41.996701
          ],
          [
            128.028773,
            41.996684
          ],
          [
            128.02874,
            41.996695
          ],
          [
            128.028784,
            41.996707
          ],
          [
            128.028817,
            41.996744
          ],
          [
            128.02879,
            41.996825
          ],
          [
            128.02882,
            41.996881
          ],
          [
            128.028849,
            41.996865
          ],
          [
            128.028809,
            41.996829
          ],
          [
            128.028836,
            41.996753
          ],
          [
            128.028756,
            41.996697
          ],
          [
            128.028748,
            41.996627
          ],
          [
            128.028177,
            41.996288
          ],
          [
            128.028112,
            41.996284
          ],
          [
            128.027775,
            41.996136
          ],
          [
            128.027639,
            41.996096
          ],
          [
            128.02708,
            41.995827
          ],
          [
            128.026106,
            41.995413
          ],
          [
            128.026006,
            41.995364
          ],
          [
            128.025935,
            41.995306
          ],
          [
            128.025428,
            41.995123
          ],
          [
            128.025423,
            41.995107
          ],
          [
            128.02515,
            41.994994
          ],
          [
            128.024953,
            41.994896
          ],
          [
            128.024945,
            41.994866
          ],
          [
            128.024926,
            41.994872
          ],
          [
            128.024807,
            41.994802
          ],
          [
            128.024782,
            41.994761
          ],
          [
            128.024787,
            41.994721
          ],
          [
            128.024677,
            41.994632
          ],
          [
            128.024452,
            41.994525
          ],
          [
            128.024069,
            41.994433
          ],
          [
            128.023687,
            41.994312
          ],
          [
            128.023383,
            41.994155
          ],
          [
            128.023003,
            41.994059
          ],
          [
            128.022849,
            41.993989
          ],
          [
            128.022501,
            41.993737
          ],
          [
            128.022452,
            41.993683
          ],
          [
            128.02187,
            41.993411
          ],
          [
            128.021577,
            41.993129
          ],
          [
            128.021443,
            41.993031
          ],
          [
            128.021367,
            41.992927
          ],
          [
            128.021105,
            41.992722
          ],
          [
            128.020767,
            41.992593
          ],
          [
            128.02063,
            41.992515
          ],
          [
            128.019965,
            41.992219
          ],
          [
            128.019764,
            41.992188
          ],
          [
            128.019449,
            41.992172
          ],
          [
            128.019426,
            41.992191
          ],
          [
            128.019501,
            41.992345
          ],
          [
            128.019412,
            41.992404
          ],
          [
            128.019328,
            41.992435
          ],
          [
            128.019276,
            41.992437
          ],
          [
            128.019178,
            41.99242
          ],
          [
            128.019046,
            41.992364
          ],
          [
            128.018866,
            41.992218
          ],
          [
            128.018741,
            41.992142
          ],
          [
            128.018639,
            41.992008
          ],
          [
            128.018555,
            41.991976
          ],
          [
            128.018509,
            41.991893
          ],
          [
            128.018474,
            41.991867
          ],
          [
            128.018411,
            41.991733
          ],
          [
            128.018239,
            41.991637
          ],
          [
            128.018561,
            41.99156
          ],
          [
            128.018588,
            41.991672
          ],
          [
            128.018568,
            41.991711
          ],
          [
            128.018523,
            41.991744
          ],
          [
            128.018426,
            41.991757
          ],
          [
            128.018417,
            41.991747
          ],
          [
            128.018438,
            41.991737
          ],
          [
            128.018436,
            41.991756
          ],
          [
            128.018406,
            41.991762
          ],
          [
            128.018436,
            41.991764
          ],
          [
            128.018469,
            41.991874
          ],
          [
            128.018564,
            41.991937
          ],
          [
            128.018541,
            41.991833
          ],
          [
            128.018497,
            41.991766
          ],
          [
            128.01852,
            41.991731
          ],
          [
            128.018609,
            41.991694
          ],
          [
            128.018685,
            41.991746
          ],
          [
            128.018819,
            41.991737
          ],
          [
            128.018848,
            41.991756
          ],
          [
            128.018822,
            41.991769
          ],
          [
            128.018809,
            41.991815
          ],
          [
            128.018815,
            41.991763
          ],
          [
            128.01884,
            41.991764
          ],
          [
            128.01882,
            41.99181
          ],
          [
            128.018834,
            41.991771
          ],
          [
            128.018849,
            41.991774
          ],
          [
            128.018836,
            41.991764
          ],
          [
            128.018824,
            41.991776
          ],
          [
            128.018834,
            41.991795
          ],
          [
            128.018806,
            41.991769
          ],
          [
            128.018811,
            41.991736
          ],
          [
            128.018841,
            41.991768
          ],
          [
            128.018831,
            41.991786
          ],
          [
            128.018868,
            41.991774
          ],
          [
            128.018836,
            41.991721
          ],
          [
            128.018839,
            41.991744
          ],
          [
            128.018888,
            41.991711
          ],
          [
            128.018897,
            41.991638
          ],
          [
            128.01877,
            41.991358
          ],
          [
            128.018498,
            41.990932
          ],
          [
            128.01836,
            41.990764
          ],
          [
            128.017943,
            41.990339
          ],
          [
            128.017265,
            41.989727
          ],
          [
            128.016849,
            41.989316
          ],
          [
            128.016755,
            41.989257
          ],
          [
            128.016623,
            41.989235
          ],
          [
            128.016464,
            41.989264
          ],
          [
            128.016301,
            41.989337
          ],
          [
            128.015988,
            41.989517
          ],
          [
            128.015822,
            41.989574
          ],
          [
            128.01566,
            41.989588
          ],
          [
            128.015532,
            41.989545
          ],
          [
            128.015467,
            41.989446
          ],
          [
            128.015423,
            41.989052
          ],
          [
            128.015369,
            41.988891
          ],
          [
            128.015264,
            41.988765
          ],
          [
            128.015186,
            41.988728
          ],
          [
            128.015093,
            41.988712
          ],
          [
            128.014861,
            41.988733
          ],
          [
            128.013823,
            41.989005
          ],
          [
            128.013577,
            41.989023
          ],
          [
            128.013456,
            41.989011
          ],
          [
            128.013339,
            41.988986
          ],
          [
            128.013119,
            41.988904
          ],
          [
            128.012754,
            41.988711
          ],
          [
            128.012623,
            41.98861
          ],
          [
            128.012412,
            41.988385
          ],
          [
            128.012288,
            41.988299
          ],
          [
            128.012156,
            41.988267
          ],
          [
            128.012092,
            41.988278
          ],
          [
            128.011994,
            41.988349
          ],
          [
            128.01197,
            41.988406
          ],
          [
            128.011984,
            41.988559
          ],
          [
            128.01207,
            41.988747
          ],
          [
            128.012395,
            41.98932
          ],
          [
            128.012464,
            41.989497
          ],
          [
            128.012501,
            41.989662
          ],
          [
            128.012483,
            41.989804
          ],
          [
            128.012444,
            41.989862
          ],
          [
            128.012311,
            41.989945
          ],
          [
            128.012206,
            41.989961
          ],
          [
            128.01195,
            41.989957
          ],
          [
            128.010741,
            41.989856
          ],
          [
            128.007887,
            41.989432
          ],
          [
            128.007595,
            41.989402
          ],
          [
            128.007291,
            41.989402
          ],
          [
            128.006993,
            41.989446
          ],
          [
            128.006723,
            41.989532
          ],
          [
            128.006599,
            41.989591
          ],
          [
            128.006373,
            41.989734
          ],
          [
            128.005671,
            41.990262
          ],
          [
            128.005481,
            41.990356
          ],
          [
            128.005275,
            41.990379
          ],
          [
            128.005166,
            41.990355
          ],
          [
            128.00506,
            41.990305
          ],
          [
            128.004967,
            41.990235
          ],
          [
            128.00484,
            41.990052
          ],
          [
            128.004804,
            41.989858
          ],
          [
            128.004849,
            41.989329
          ],
          [
            128.004815,
            41.989236
          ],
          [
            128.004783,
            41.989208
          ],
          [
            128.00467,
            41.989211
          ],
          [
            128.004595,
            41.989241
          ],
          [
            128.004149,
            41.989511
          ],
          [
            128.003953,
            41.989587
          ],
          [
            128.003763,
            41.989602
          ],
          [
            128.003684,
            41.989583
          ],
          [
            128.003625,
            41.989547
          ],
          [
            128.003566,
            41.989448
          ],
          [
            128.003572,
            41.989389
          ],
          [
            128.00364,
            41.98925
          ],
          [
            128.003864,
            41.988906
          ],
          [
            128.003892,
            41.98877
          ],
          [
            128.003865,
            41.988719
          ],
          [
            128.003733,
            41.988648
          ],
          [
            128.003297,
            41.988572
          ],
          [
            128.003118,
            41.988504
          ],
          [
            128.00306,
            41.988453
          ],
          [
            128.00303,
            41.988395
          ],
          [
            128.003044,
            41.988332
          ],
          [
            128.00309,
            41.988272
          ],
          [
            128.003268,
            41.988173
          ],
          [
            128.00372,
            41.98805
          ],
          [
            128.004142,
            41.98797
          ],
          [
            128.004909,
            41.987886
          ],
          [
            128.005233,
            41.987831
          ],
          [
            128.00537,
            41.987777
          ],
          [
            128.005415,
            41.987739
          ],
          [
            128.005446,
            41.987648
          ],
          [
            128.005427,
            41.987601
          ],
          [
            128.005327,
            41.98753
          ],
          [
            128.005249,
            41.987508
          ],
          [
            128.004618,
            41.987417
          ],
          [
            128.002558,
            41.986901
          ],
          [
            128.001458,
            41.986717
          ],
          [
            128.001302,
            41.986644
          ],
          [
            128.001259,
            41.986585
          ],
          [
            128.001242,
            41.986508
          ],
          [
            128.001323,
            41.98586
          ],
          [
            128.001314,
            41.985757
          ],
          [
            128.001255,
            41.985567
          ],
          [
            128.001139,
            41.985395
          ],
          [
            128.001054,
            41.985323
          ],
          [
            128.000554,
            41.984996
          ],
          [
            128.000396,
            41.984822
          ],
          [
            128.000334,
            41.984725
          ],
          [
            128.000221,
            41.984418
          ],
          [
            128.000135,
            41.983789
          ],
          [
            128.000092,
            41.983679
          ],
          [
            128.000049,
            41.983644
          ],
          [
            127.999989,
            41.983625
          ],
          [
            127.999915,
            41.983628
          ],
          [
            127.999832,
            41.983658
          ],
          [
            127.999417,
            41.98396
          ],
          [
            127.999254,
            41.984016
          ],
          [
            127.99909,
            41.983991
          ],
          [
            127.999012,
            41.983948
          ],
          [
            127.998941,
            41.983884
          ],
          [
            127.998822,
            41.983707
          ],
          [
            127.99851,
            41.982976
          ],
          [
            127.998205,
            41.982419
          ],
          [
            127.998123,
            41.982135
          ],
          [
            127.998127,
            41.981959
          ],
          [
            127.998157,
            41.981878
          ],
          [
            127.998394,
            41.981571
          ],
          [
            127.998417,
            41.981481
          ],
          [
            127.998399,
            41.981446
          ],
          [
            127.998292,
            41.981409
          ],
          [
            127.998202,
            41.981411
          ],
          [
            127.997557,
            41.981528
          ],
          [
            127.997317,
            41.981529
          ],
          [
            127.997207,
            41.981503
          ],
          [
            127.997104,
            41.981455
          ],
          [
            127.996938,
            41.98131
          ],
          [
            127.996835,
            41.981131
          ],
          [
            127.996811,
            41.981039
          ],
          [
            127.996813,
            41.98085
          ],
          [
            127.996913,
            41.980432
          ],
          [
            127.996924,
            41.980217
          ],
          [
            127.99688,
            41.980011
          ],
          [
            127.996638,
            41.979418
          ],
          [
            127.996601,
            41.979237
          ],
          [
            127.996612,
            41.979157
          ],
          [
            127.996643,
            41.979082
          ],
          [
            127.996774,
            41.978935
          ],
          [
            127.997517,
            41.978354
          ],
          [
            127.997985,
            41.978061
          ],
          [
            127.998324,
            41.977892
          ],
          [
            127.998693,
            41.977791
          ],
          [
            127.999093,
            41.977768
          ],
          [
            127.99949,
            41.977832
          ],
          [
            127.999615,
            41.977869
          ],
          [
            127.999834,
            41.977979
          ],
          [
            128,
            41.978132
          ],
          [
            128.000235,
            41.978466
          ],
          [
            128.00041,
            41.978628
          ],
          [
            128.00047,
            41.978653
          ],
          [
            128.000576,
            41.978638
          ],
          [
            128.000618,
            41.978596
          ],
          [
            128.000662,
            41.978449
          ],
          [
            128.000653,
            41.977822
          ],
          [
            128.000576,
            41.97689
          ],
          [
            128.000609,
            41.975895
          ],
          [
            128.000557,
            41.975334
          ],
          [
            128.00058,
            41.9752
          ],
          [
            128.000652,
            41.97501
          ],
          [
            128.000669,
            41.974866
          ],
          [
            128.000655,
            41.97479
          ],
          [
            128.000572,
            41.974639
          ],
          [
            128.000318,
            41.974349
          ],
          [
            128.000222,
            41.974212
          ],
          [
            128.000204,
            41.974077
          ],
          [
            128.000277,
            41.973948
          ],
          [
            128.000459,
            41.973777
          ],
          [
            128.000545,
            41.97366
          ],
          [
            128.000572,
            41.97352
          ],
          [
            128.000512,
            41.973234
          ],
          [
            128.000536,
            41.973107
          ],
          [
            128.000652,
            41.972987
          ],
          [
            128.000921,
            41.972773
          ],
          [
            128.001081,
            41.972593
          ],
          [
            128.001603,
            41.971791
          ],
          [
            128.001701,
            41.971591
          ],
          [
            128.001727,
            41.971488
          ],
          [
            128.001726,
            41.971385
          ],
          [
            128.001697,
            41.971283
          ],
          [
            128.00164,
            41.971186
          ],
          [
            128.001126,
            41.970674
          ],
          [
            128.001034,
            41.970482
          ],
          [
            128.001013,
            41.970254
          ],
          [
            128.001079,
            41.969491
          ],
          [
            128.001126,
            41.96924
          ],
          [
            128.001263,
            41.968866
          ],
          [
            128.001583,
            41.968238
          ],
          [
            128.002295,
            41.966942
          ],
          [
            128.00239,
            41.966682
          ],
          [
            128.002414,
            41.966418
          ],
          [
            128.002317,
            41.966018
          ],
          [
            128.001663,
            41.964395
          ],
          [
            128.001208,
            41.96308
          ],
          [
            128.000843,
            41.961943
          ],
          [
            128.000093,
            41.960155
          ],
          [
            127.999938,
            41.959957
          ],
          [
            127.999711,
            41.959781
          ],
          [
            127.999573,
            41.9597
          ],
          [
            127.997261,
            41.95853
          ],
          [
            127.99357,
            41.956577
          ],
          [
            127.990921,
            41.955091
          ],
          [
            127.989735,
            41.954463
          ],
          [
            127.98795,
            41.953467
          ],
          [
            127.987662,
            41.95326
          ],
          [
            127.987395,
            41.953028
          ],
          [
            127.98544,
            41.951177
          ],
          [
            127.984487,
            41.950339
          ],
          [
            127.982438,
            41.9487
          ],
          [
            127.981482,
            41.947972
          ],
          [
            127.981086,
            41.947753
          ],
          [
            127.980315,
            41.947442
          ],
          [
            127.979967,
            41.947352
          ],
          [
            127.979719,
            41.947345
          ],
          [
            127.979454,
            41.947381
          ],
          [
            127.977703,
            41.947745
          ],
          [
            127.974315,
            41.94863
          ],
          [
            127.973955,
            41.948707
          ],
          [
            127.973775,
            41.94873
          ],
          [
            127.973409,
            41.948735
          ],
          [
            127.973037,
            41.948686
          ],
          [
            127.97249,
            41.94854
          ],
          [
            127.971445,
            41.948181
          ],
          [
            127.971112,
            41.948114
          ],
          [
            127.970942,
            41.948116
          ],
          [
            127.970599,
            41.948189
          ],
          [
            127.970433,
            41.948255
          ],
          [
            127.969624,
            41.948651
          ],
          [
            127.969451,
            41.948717
          ],
          [
            127.969084,
            41.948823
          ],
          [
            127.968502,
            41.948932
          ],
          [
            127.968101,
            41.948981
          ],
          [
            127.967497,
            41.949011
          ],
          [
            127.967098,
            41.948987
          ],
          [
            127.966906,
            41.948946
          ],
          [
            127.966722,
            41.948883
          ],
          [
            127.96655,
            41.948803
          ],
          [
            127.966395,
            41.948704
          ],
          [
            127.966138,
            41.948467
          ],
          [
            127.966031,
            41.948341
          ],
          [
            127.965792,
            41.947955
          ],
          [
            127.96567,
            41.947605
          ],
          [
            127.965656,
            41.947497
          ],
          [
            127.965682,
            41.947296
          ],
          [
            127.965721,
            41.947205
          ],
          [
            127.965847,
            41.947039
          ],
          [
            127.96628,
            41.946596
          ],
          [
            127.966341,
            41.946443
          ],
          [
            127.966326,
            41.946279
          ],
          [
            127.966221,
            41.94611
          ],
          [
            127.966033,
            41.94594
          ],
          [
            127.96512,
            41.945319
          ],
          [
            127.964648,
            41.945064
          ],
          [
            127.964308,
            41.944911
          ],
          [
            127.963768,
            41.944718
          ],
          [
            127.963395,
            41.94462
          ],
          [
            127.963004,
            41.944565
          ],
          [
            127.962799,
            41.944558
          ],
          [
            127.961983,
            41.944576
          ],
          [
            127.961596,
            41.944565
          ],
          [
            127.961222,
            41.94452
          ],
          [
            127.960877,
            41.944422
          ],
          [
            127.960576,
            41.94427
          ],
          [
            127.95982,
            41.943688
          ],
          [
            127.95952,
            41.943522
          ],
          [
            127.958612,
            41.943216
          ],
          [
            127.958261,
            41.943065
          ],
          [
            127.957602,
            41.942742
          ],
          [
            127.957083,
            41.942569
          ],
          [
            127.956901,
            41.94253
          ],
          [
            127.956517,
            41.942489
          ],
          [
            127.955521,
            41.942457
          ],
          [
            127.95369,
            41.94222
          ],
          [
            127.953346,
            41.942216
          ],
          [
            127.952989,
            41.942299
          ],
          [
            127.952761,
            41.942392
          ],
          [
            127.952553,
            41.942516
          ],
          [
            127.952392,
            41.942687
          ],
          [
            127.952214,
            41.942996
          ],
          [
            127.952073,
            41.943195
          ],
          [
            127.951883,
            41.94336
          ],
          [
            127.951765,
            41.943419
          ],
          [
            127.951628,
            41.94346
          ],
          [
            127.95131,
            41.943495
          ],
          [
            127.949467,
            41.943585
          ],
          [
            127.948968,
            41.943574
          ],
          [
            127.948479,
            41.943496
          ],
          [
            127.948,
            41.943374
          ],
          [
            127.947052,
            41.943084
          ],
          [
            127.946343,
            41.942905
          ],
          [
            127.946168,
            41.942899
          ],
          [
            127.945993,
            41.942938
          ],
          [
            127.945835,
            41.943019
          ],
          [
            127.945501,
            41.943299
          ],
          [
            127.945468,
            41.94342
          ],
          [
            127.945561,
            41.943765
          ],
          [
            127.945563,
            41.943827
          ],
          [
            127.945534,
            41.943883
          ],
          [
            127.945554,
            41.943896
          ],
          [
            127.945515,
            41.943944
          ],
          [
            127.94551,
            41.944051
          ],
          [
            127.945479,
            41.944039
          ],
          [
            127.945355,
            41.944284
          ],
          [
            127.945297,
            41.944198
          ],
          [
            127.94519,
            41.943936
          ],
          [
            127.945184,
            41.943916
          ],
          [
            127.945244,
            41.943937
          ],
          [
            127.945258,
            41.943927
          ],
          [
            127.945242,
            41.943873
          ],
          [
            127.945283,
            41.943913
          ],
          [
            127.945251,
            41.943899
          ],
          [
            127.945224,
            41.943852
          ],
          [
            127.945046,
            41.943818
          ],
          [
            127.944949,
            41.943818
          ],
          [
            127.944501,
            41.943927
          ],
          [
            127.94431,
            41.943931
          ],
          [
            127.944251,
            41.943914
          ],
          [
            127.944135,
            41.943844
          ],
          [
            127.943659,
            41.943466
          ],
          [
            127.94363,
            41.943419
          ],
          [
            127.943683,
            41.943371
          ],
          [
            127.943812,
            41.943335
          ],
          [
            127.943997,
            41.943311
          ],
          [
            127.94432,
            41.943296
          ],
          [
            127.945049,
            41.943337
          ],
          [
            127.945284,
            41.943327
          ],
          [
            127.945389,
            41.943306
          ],
          [
            127.945576,
            41.943238
          ],
          [
            127.945804,
            41.943087
          ],
          [
            127.945934,
            41.942978
          ],
          [
            127.946062,
            41.942803
          ],
          [
            127.946124,
            41.942657
          ],
          [
            127.946167,
            41.942282
          ],
          [
            127.946175,
            41.941465
          ],
          [
            127.946195,
            41.941249
          ],
          [
            127.946242,
            41.941041
          ],
          [
            127.946376,
            41.940732
          ],
          [
            127.946564,
            41.940443
          ],
          [
            127.94672,
            41.940259
          ],
          [
            127.94742,
            41.939593
          ],
          [
            127.947722,
            41.939248
          ],
          [
            127.948013,
            41.938861
          ],
          [
            127.948382,
            41.938292
          ],
          [
            127.948586,
            41.938038
          ],
          [
            127.948933,
            41.93772
          ],
          [
            127.949213,
            41.937545
          ],
          [
            127.949531,
            41.937398
          ],
          [
            127.95022,
            41.937135
          ],
          [
            127.950563,
            41.936987
          ],
          [
            127.951321,
            41.936588
          ],
          [
            127.952681,
            41.935703
          ],
          [
            127.952844,
            41.935544
          ],
          [
            127.952924,
            41.935371
          ],
          [
            127.952928,
            41.935083
          ],
          [
            127.952784,
            41.934398
          ],
          [
            127.952619,
            41.934038
          ],
          [
            127.95245,
            41.933807
          ],
          [
            127.952119,
            41.933466
          ],
          [
            127.950522,
            41.932105
          ],
          [
            127.950264,
            41.931928
          ],
          [
            127.950132,
            41.93186
          ],
          [
            127.949997,
            41.931809
          ],
          [
            127.949705,
            41.931754
          ],
          [
            127.949542,
            41.931751
          ],
          [
            127.949192,
            41.931783
          ],
          [
            127.947484,
            41.932102
          ],
          [
            127.945932,
            41.932358
          ],
          [
            127.945329,
            41.932519
          ],
          [
            127.944007,
            41.932941
          ],
          [
            127.94347,
            41.933056
          ],
          [
            127.942728,
            41.933093
          ],
          [
            127.941916,
            41.933096
          ],
          [
            127.941552,
            41.933036
          ],
          [
            127.941417,
            41.932983
          ],
          [
            127.941165,
            41.932829
          ],
          [
            127.940949,
            41.93263
          ],
          [
            127.940691,
            41.93229
          ],
          [
            127.940567,
            41.932054
          ],
          [
            127.94044,
            41.931674
          ],
          [
            127.940352,
            41.931255
          ],
          [
            127.940296,
            41.930803
          ],
          [
            127.940288,
            41.929521
          ],
          [
            127.940255,
            41.929089
          ],
          [
            127.940155,
            41.928705
          ],
          [
            127.940027,
            41.928468
          ],
          [
            127.939836,
            41.928252
          ],
          [
            127.939712,
            41.92815
          ],
          [
            127.938722,
            41.92749
          ],
          [
            127.938249,
            41.927279
          ],
          [
            127.93707,
            41.926878
          ],
          [
            127.936603,
            41.926697
          ],
          [
            127.936339,
            41.926551
          ],
          [
            127.936134,
            41.92636
          ],
          [
            127.935964,
            41.926126
          ],
          [
            127.935813,
            41.925869
          ],
          [
            127.935245,
            41.924797
          ],
          [
            127.934783,
            41.92403
          ],
          [
            127.934039,
            41.922884
          ],
          [
            127.933295,
            41.921855
          ],
          [
            127.93215,
            41.919905
          ],
          [
            127.931247,
            41.918504
          ],
          [
            127.930704,
            41.917707
          ],
          [
            127.9301,
            41.916638
          ],
          [
            127.929917,
            41.916389
          ],
          [
            127.92981,
            41.916274
          ],
          [
            127.929558,
            41.916066
          ],
          [
            127.92847,
            41.915249
          ],
          [
            127.928044,
            41.914954
          ],
          [
            127.927426,
            41.914576
          ],
          [
            127.925482,
            41.913492
          ],
          [
            127.924357,
            41.912834
          ],
          [
            127.922293,
            41.911692
          ],
          [
            127.921856,
            41.911402
          ],
          [
            127.921335,
            41.911015
          ],
          [
            127.921108,
            41.910835
          ],
          [
            127.920924,
            41.910642
          ],
          [
            127.920787,
            41.910426
          ],
          [
            127.920693,
            41.910191
          ],
          [
            127.920587,
            41.909807
          ],
          [
            127.920523,
            41.909414
          ],
          [
            127.920546,
            41.909157
          ],
          [
            127.92077,
            41.908458
          ],
          [
            127.920854,
            41.908029
          ],
          [
            127.920838,
            41.907754
          ],
          [
            127.920804,
            41.907622
          ],
          [
            127.920754,
            41.907495
          ],
          [
            127.92059,
            41.907272
          ],
          [
            127.920479,
            41.907175
          ],
          [
            127.920346,
            41.907095
          ],
          [
            127.919756,
            41.906827
          ],
          [
            127.919528,
            41.906663
          ],
          [
            127.919361,
            41.906473
          ],
          [
            127.919123,
            41.906035
          ],
          [
            127.918861,
            41.905683
          ],
          [
            127.918626,
            41.905469
          ],
          [
            127.918369,
            41.905284
          ],
          [
            127.917964,
            41.905074
          ],
          [
            127.917544,
            41.904942
          ],
          [
            127.91724,
            41.90491
          ],
          [
            127.916952,
            41.904916
          ],
          [
            127.91628,
            41.904976
          ],
          [
            127.916033,
            41.904967
          ],
          [
            127.915721,
            41.904922
          ],
          [
            127.915468,
            41.904842
          ],
          [
            127.915156,
            41.904699
          ],
          [
            127.914792,
            41.904428
          ],
          [
            127.91445,
            41.904097
          ],
          [
            127.914365,
            41.904036
          ],
          [
            127.914177,
            41.903931
          ],
          [
            127.91397,
            41.90385
          ],
          [
            127.913648,
            41.903796
          ],
          [
            127.913552,
            41.903794
          ],
          [
            127.913379,
            41.903821
          ],
          [
            127.913311,
            41.903848
          ],
          [
            127.913189,
            41.903936
          ],
          [
            127.912957,
            41.904174
          ],
          [
            127.912917,
            41.904198
          ],
          [
            127.912835,
            41.904206
          ],
          [
            127.912678,
            41.904146
          ],
          [
            127.912115,
            41.903852
          ],
          [
            127.911552,
            41.903534
          ],
          [
            127.910939,
            41.903351
          ],
          [
            127.910366,
            41.90324
          ],
          [
            127.910285,
            41.903214
          ],
          [
            127.910181,
            41.903147
          ],
          [
            127.910139,
            41.903073
          ],
          [
            127.910171,
            41.902763
          ],
          [
            127.910256,
            41.902585
          ],
          [
            127.910417,
            41.90239
          ],
          [
            127.910475,
            41.902273
          ],
          [
            127.91088,
            41.901978
          ],
          [
            127.911099,
            41.90178
          ],
          [
            127.911134,
            41.901729
          ],
          [
            127.911143,
            41.901777
          ],
          [
            127.911172,
            41.9018
          ],
          [
            127.911536,
            41.901753
          ],
          [
            127.911783,
            41.901778
          ],
          [
            127.911912,
            41.901686
          ],
          [
            127.912115,
            41.901488
          ],
          [
            127.91234,
            41.901357
          ],
          [
            127.912404,
            41.90129
          ],
          [
            127.912774,
            41.901151
          ],
          [
            127.913051,
            41.901067
          ],
          [
            127.913095,
            41.900819
          ],
          [
            127.91308,
            41.900686
          ],
          [
            127.913093,
            41.900646
          ],
          [
            127.913149,
            41.900619
          ],
          [
            127.913171,
            41.900642
          ],
          [
            127.913195,
            41.900593
          ],
          [
            127.913434,
            41.900388
          ],
          [
            127.913688,
            41.900307
          ],
          [
            127.913762,
            41.900268
          ],
          [
            127.913884,
            41.900062
          ],
          [
            127.91396,
            41.899972
          ],
          [
            127.913978,
            41.899978
          ],
          [
            127.914041,
            41.899914
          ],
          [
            127.914175,
            41.899858
          ],
          [
            127.914419,
            41.899644
          ],
          [
            127.914577,
            41.899375
          ],
          [
            127.914734,
            41.899287
          ],
          [
            127.914808,
            41.898942
          ],
          [
            127.915017,
            41.89885
          ],
          [
            127.915116,
            41.898697
          ],
          [
            127.915351,
            41.898609
          ],
          [
            127.915547,
            41.898425
          ],
          [
            127.915594,
            41.898298
          ],
          [
            127.915633,
            41.89829
          ],
          [
            127.915593,
            41.898308
          ],
          [
            127.915449,
            41.89827
          ],
          [
            127.91531,
            41.898293
          ],
          [
            127.915225,
            41.898263
          ],
          [
            127.91512,
            41.898092
          ],
          [
            127.91508,
            41.897899
          ],
          [
            127.915041,
            41.897845
          ],
          [
            127.914932,
            41.897782
          ],
          [
            127.914901,
            41.897727
          ],
          [
            127.914894,
            41.897737
          ],
          [
            127.91484,
            41.897696
          ],
          [
            127.914789,
            41.897699
          ],
          [
            127.914651,
            41.897729
          ],
          [
            127.914548,
            41.897779
          ],
          [
            127.914397,
            41.89791
          ],
          [
            127.914342,
            41.897987
          ],
          [
            127.914313,
            41.898054
          ],
          [
            127.914308,
            41.898174
          ],
          [
            127.914225,
            41.898236
          ],
          [
            127.914148,
            41.898348
          ],
          [
            127.914076,
            41.898385
          ],
          [
            127.913685,
            41.898461
          ],
          [
            127.913456,
            41.898699
          ],
          [
            127.913319,
            41.898796
          ],
          [
            127.913269,
            41.898782
          ],
          [
            127.913172,
            41.898807
          ],
          [
            127.913038,
            41.898808
          ],
          [
            127.912843,
            41.898881
          ],
          [
            127.912605,
            41.898943
          ],
          [
            127.912531,
            41.89897
          ],
          [
            127.912543,
            41.898978
          ],
          [
            127.912571,
            41.898933
          ],
          [
            127.912579,
            41.898956
          ],
          [
            127.912561,
            41.898961
          ],
          [
            127.912451,
            41.898948
          ],
          [
            127.912423,
            41.898927
          ],
          [
            127.912217,
            41.898995
          ],
          [
            127.912068,
            41.89899
          ],
          [
            127.91197,
            41.898967
          ],
          [
            127.911952,
            41.898981
          ],
          [
            127.911932,
            41.898902
          ],
          [
            127.911945,
            41.898923
          ],
          [
            127.911916,
            41.898922
          ],
          [
            127.911921,
            41.898904
          ],
          [
            127.911857,
            41.898979
          ],
          [
            127.911706,
            41.899034
          ],
          [
            127.91153,
            41.899065
          ],
          [
            127.911365,
            41.899052
          ],
          [
            127.911134,
            41.899062
          ],
          [
            127.910826,
            41.899166
          ],
          [
            127.910658,
            41.899188
          ],
          [
            127.91046,
            41.899244
          ],
          [
            127.910245,
            41.899263
          ],
          [
            127.910125,
            41.899251
          ],
          [
            127.910032,
            41.899264
          ],
          [
            127.909941,
            41.899244
          ],
          [
            127.909857,
            41.899262
          ],
          [
            127.909472,
            41.899177
          ],
          [
            127.909304,
            41.899224
          ],
          [
            127.909247,
            41.899132
          ],
          [
            127.909254,
            41.899048
          ],
          [
            127.909213,
            41.898986
          ],
          [
            127.909152,
            41.898963
          ],
          [
            127.909034,
            41.899026
          ],
          [
            127.908858,
            41.899032
          ],
          [
            127.908807,
            41.899045
          ],
          [
            127.908792,
            41.899068
          ],
          [
            127.908775,
            41.899055
          ],
          [
            127.908799,
            41.899086
          ],
          [
            127.908817,
            41.899273
          ],
          [
            127.908751,
            41.899265
          ],
          [
            127.908775,
            41.899319
          ],
          [
            127.908809,
            41.899346
          ],
          [
            127.908874,
            41.899358
          ],
          [
            127.909031,
            41.899355
          ],
          [
            127.90916,
            41.899327
          ],
          [
            127.90922,
            41.89951
          ],
          [
            127.909263,
            41.899532
          ],
          [
            127.909269,
            41.899553
          ],
          [
            127.909185,
            41.899752
          ],
          [
            127.90921,
            41.899757
          ],
          [
            127.909217,
            41.899726
          ],
          [
            127.909224,
            41.899814
          ],
          [
            127.90933,
            41.899902
          ],
          [
            127.909446,
            41.899954
          ],
          [
            127.909485,
            41.900022
          ],
          [
            127.909656,
            41.899985
          ],
          [
            127.909857,
            41.899975
          ],
          [
            127.910062,
            41.900017
          ],
          [
            127.910125,
            41.900053
          ],
          [
            127.910196,
            41.900162
          ],
          [
            127.91026,
            41.90022
          ],
          [
            127.910489,
            41.900272
          ],
          [
            127.910689,
            41.900266
          ],
          [
            127.910881,
            41.900205
          ],
          [
            127.911388,
            41.900119
          ],
          [
            127.911503,
            41.900109
          ],
          [
            127.911576,
            41.900125
          ],
          [
            127.911629,
            41.900167
          ],
          [
            127.911761,
            41.900402
          ],
          [
            127.911719,
            41.900554
          ],
          [
            127.911728,
            41.900736
          ],
          [
            127.911708,
            41.900873
          ],
          [
            127.911727,
            41.901031
          ],
          [
            127.911687,
            41.901242
          ],
          [
            127.911836,
            41.901435
          ],
          [
            127.911791,
            41.901431
          ],
          [
            127.911793,
            41.901406
          ],
          [
            127.911829,
            41.901461
          ],
          [
            127.911792,
            41.901475
          ],
          [
            127.911829,
            41.901446
          ],
          [
            127.911799,
            41.901432
          ],
          [
            127.911798,
            41.901455
          ],
          [
            127.911817,
            41.901429
          ],
          [
            127.911782,
            41.901449
          ],
          [
            127.91178,
            41.901434
          ],
          [
            127.91176,
            41.901442
          ],
          [
            127.911728,
            41.901426
          ],
          [
            127.911778,
            41.90142
          ],
          [
            127.911744,
            41.901409
          ],
          [
            127.911749,
            41.901394
          ],
          [
            127.911739,
            41.90141
          ],
          [
            127.911806,
            41.901388
          ],
          [
            127.911804,
            41.901407
          ],
          [
            127.911757,
            41.90143
          ],
          [
            127.911744,
            41.9014
          ],
          [
            127.91176,
            41.901389
          ],
          [
            127.911764,
            41.901419
          ],
          [
            127.911744,
            41.901408
          ],
          [
            127.911778,
            41.901422
          ],
          [
            127.911718,
            41.901419
          ],
          [
            127.911745,
            41.901444
          ],
          [
            127.911839,
            41.901326
          ],
          [
            127.912006,
            41.901252
          ],
          [
            127.912414,
            41.901212
          ],
          [
            127.912518,
            41.901241
          ],
          [
            127.912728,
            41.901405
          ],
          [
            127.913198,
            41.901725
          ],
          [
            127.913338,
            41.90178
          ],
          [
            127.91336,
            41.901814
          ],
          [
            127.913737,
            41.902034
          ],
          [
            127.914464,
            41.902561
          ],
          [
            127.915061,
            41.90285
          ],
          [
            127.915581,
            41.903129
          ],
          [
            127.916163,
            41.903394
          ],
          [
            127.917063,
            41.90385
          ],
          [
            127.917255,
            41.903973
          ],
          [
            127.917378,
            41.904132
          ],
          [
            127.917479,
            41.90439
          ],
          [
            127.917552,
            41.90452
          ],
          [
            127.917697,
            41.904702
          ],
          [
            127.917871,
            41.904874
          ],
          [
            127.918149,
            41.905089
          ],
          [
            127.918999,
            41.905579
          ],
          [
            127.919395,
            41.905857
          ],
          [
            127.919545,
            41.906013
          ],
          [
            127.919836,
            41.906582
          ],
          [
            127.919986,
            41.906752
          ],
          [
            127.920188,
            41.906901
          ],
          [
            127.920935,
            41.90731
          ],
          [
            127.921149,
            41.907485
          ],
          [
            127.9213,
            41.907681
          ],
          [
            127.921387,
            41.907884
          ],
          [
            127.921394,
            41.908191
          ],
          [
            127.921128,
            41.909047
          ],
          [
            127.921112,
            41.909384
          ],
          [
            127.921252,
            41.910403
          ],
          [
            127.921303,
            41.910621
          ],
          [
            127.921397,
            41.910824
          ],
          [
            127.921616,
            41.911112
          ],
          [
            127.922518,
            41.911931
          ],
          [
            127.922874,
            41.912208
          ],
          [
            127.92466,
            41.91318
          ],
          [
            127.928016,
            41.915241
          ],
          [
            127.929965,
            41.916558
          ],
          [
            127.9303,
            41.916825
          ],
          [
            127.930515,
            41.917133
          ],
          [
            127.930927,
            41.917955
          ],
          [
            127.931468,
            41.91885
          ],
          [
            127.932198,
            41.919975
          ],
          [
            127.933431,
            41.922058
          ],
          [
            127.933912,
            41.922768
          ],
          [
            127.934806,
            41.923929
          ],
          [
            127.935799,
            41.925302
          ],
          [
            127.936263,
            41.926043
          ],
          [
            127.936544,
            41.926541
          ],
          [
            127.93671,
            41.926766
          ],
          [
            127.936929,
            41.926956
          ],
          [
            127.937192,
            41.927108
          ],
          [
            127.937484,
            41.927227
          ],
          [
            127.938609,
            41.927629
          ],
          [
            127.939053,
            41.927855
          ],
          [
            127.939992,
            41.928516
          ],
          [
            127.940214,
            41.928712
          ],
          [
            127.940299,
            41.928816
          ],
          [
            127.940412,
            41.929043
          ],
          [
            127.940439,
            41.929164
          ],
          [
            127.940671,
            41.931286
          ],
          [
            127.940769,
            41.931979
          ],
          [
            127.940878,
            41.932345
          ],
          [
            127.940938,
            41.932453
          ],
          [
            127.941093,
            41.932644
          ],
          [
            127.941289,
            41.932805
          ],
          [
            127.941502,
            41.932949
          ],
          [
            127.941737,
            41.933077
          ],
          [
            127.941865,
            41.933128
          ],
          [
            127.942001,
            41.933169
          ],
          [
            127.942296,
            41.933212
          ],
          [
            127.942776,
            41.933197
          ],
          [
            127.943457,
            41.933135
          ],
          [
            127.944163,
            41.933027
          ],
          [
            127.945301,
            41.932783
          ],
          [
            127.94677,
            41.932434
          ],
          [
            127.94733,
            41.93233
          ],
          [
            127.949777,
            41.93201
          ],
          [
            127.950118,
            41.931981
          ],
          [
            127.950441,
            41.931988
          ],
          [
            127.950743,
            41.932026
          ],
          [
            127.951026,
            41.932084
          ],
          [
            127.951273,
            41.932165
          ],
          [
            127.951385,
            41.932231
          ],
          [
            127.95159,
            41.932402
          ],
          [
            127.952016,
            41.932847
          ],
          [
            127.952338,
            41.933196
          ],
          [
            127.952523,
            41.933448
          ],
          [
            127.95267,
            41.933718
          ],
          [
            127.952769,
            41.934
          ],
          [
            127.952948,
            41.934806
          ],
          [
            127.952983,
            41.93505
          ],
          [
            127.952983,
            41.935276
          ],
          [
            127.952926,
            41.935476
          ],
          [
            127.952874,
            41.935565
          ],
          [
            127.952724,
            41.935729
          ],
          [
            127.952523,
            41.935887
          ],
          [
            127.951408,
            41.936691
          ],
          [
            127.950912,
            41.937024
          ],
          [
            127.950476,
            41.937242
          ],
          [
            127.948883,
            41.937862
          ],
          [
            127.948656,
            41.937997
          ],
          [
            127.948561,
            41.938083
          ],
          [
            127.948396,
            41.938285
          ],
          [
            127.947978,
            41.938874
          ],
          [
            127.947597,
            41.93935
          ],
          [
            127.947307,
            41.939655
          ],
          [
            127.946724,
            41.940185
          ],
          [
            127.946558,
            41.940384
          ],
          [
            127.946338,
            41.940716
          ],
          [
            127.946239,
            41.940938
          ],
          [
            127.946185,
            41.941174
          ],
          [
            127.946153,
            41.942065
          ],
          [
            127.946035,
            41.94284
          ],
          [
            127.945996,
            41.942948
          ],
          [
            127.945911,
            41.943059
          ],
          [
            127.94551,
            41.943369
          ]
        ]
      }
    }
  ]
}
