{
  "type": "FeatureCollection",
  "features": [
    {
      "type": "Feature",
      "properties": {
        "name": "四姑娘山长坪沟穿越参考轨迹",
        "type": "hiking",
        "source": "霞客示例路书"
      },
      "geometry": {
        "type": "LineString",
        "coordinates": [
          [
            102.89,
            31.12
          ],
          [
            102.889375,
            31.11875
          ],
          [
            102.88875,
            31.1175
          ],
          [
            102.888125,
            31.11625
          ],
          [
            102.8875,
            31.115
          ],
          [
            102.886875,
            31.11375
          ],
          [
            102.88625,
            31.1125
          ],
          [
            102.885625,
            31.11125
          ],
          [
            102.885,
            31.11
          ],
          [
            102.884375,
            31.10875
          ],
          [
            102.88375,
            31.1075
          ],
          [
            102.883125,
            31.10625
          ],
          [
            102.8825,
            31.105
          ],
          [
            102.881875,
            31.10375
          ],
          [
            102.88125,
            31.1025
          ],
          [
            102.880625,
            31.10125
          ],
          [
            102.88,
            31.1
          ],
          [
            102.878333,
            31.099167
          ],
          [
            102.876667,
            31.098333
          ],
          [
            102.875,
            31.0975
          ],
          [
            102.873333,
            31.096667
          ],
          [
            102.871667,
            31.095833
          ],
          [
            102.87,
            31.095
          ],
          [
            102.868333,
            31.094167
          ],
          [
            102.866667,
            31.093333
          ],
          [
            102.865,
            31.0925
          ],
          [
            102.863333,
            31.091667
          ],
          [
            102.861667,
            31.090833
          ],
          [
            102.86,
            31.09
          ],
          [
            102.858571,
            31.088929
          ],
          [
            102.857143,
            31.087857
          ],
          [
            102.855714,
            31.086786
          ],
          [
            102.854286,
            31.085714
          ],
          [
            102.852857,
            31.084643
          ],
          [
            102.851429,
            31.083571
          ],
          [
            102.85,
            31.0825
          ],
          [
            102.848571,
            31.081429
          ],
          [
            102.847143,
            31.080357
          ],
          [
            102.845714,
            31.079286
          ],
          [
            102.844286,
            31.078214
          ],
          [
            102.842857,
            31.077143
          ],
          [
            102.841429,
            31.076071
          ],
          [
            102.84,
            31.075
          ],
          [
            102.838571,
            31.073929
          ],
          [
            102.837143,
            31.072857
          ],
          [
            102.835714,
            31.071786
          ],
          [
            102.834286,
            31.070714
          ],
          [
            102.832857,
            31.069643
          ],
          [
            102.831429,
            31.068571
          ],
          [
            102.83,
            31.0675
          ],
          [
            102.828571,
            31.066429
          ],
          [
            102.827143,
            31.065357
          ],
          [
            102.825714,
            31.064286
          ],
          [
            102.824286,
            31.063214
          ],
          [
            102.822857,
            31.062143
          ],
          [
            102.821429,
            31.061071
          ],
          [
            102.82,
            31.06
          ],
          [
            102.819,
            31.05925
          ],
          [
            102.818,
            31.0585
          ],
          [
            102.817,
            31.05775
          ],
          [
            102.816,
            31.057
          ],
          [
            102.815,
            31.05625
          ],
          [
            102.814,
            31.0555
          ],
          [
            102.813,
            31.05475
          ],
          [
            102.812,
            31.054
          ],
          [
            102.811,
            31.05325
          ],
          [
            102.81,
            31.0525
          ],
          [
            102.809,
            31.05175
          ],
          [
            102.808,
            31.051
          ],
          [
            102.807,
            31.05025
          ],
          [
            102.806,
            31.0495
          ],
          [
            102.805,
            31.04875
          ],
          [
            102.804,
            31.048
          ],
          [
            102.803,
            31.04725
          ],
          [
            102.802,
            31.0465
          ],
          [
            102.801,
            31.04575
          ],
          [
            102.8,
            31.045
          ],
          [
            102.799,
            31.04425
          ],
          [
            102.798,
            31.0435
          ],
          [
            102.797,
            31.04275
          ],
          [
            102.796,
            31.042
          ],
          [
            102.795,
            31.04125
          ],
          [
            102.794,
            31.0405
          ],
          [
            102.793,
            31.03975
          ],
          [
            102.792,
            31.039
          ],
          [
            102.791,
            31.03825
          ],
          [
            102.79,
            31.0375
          ],
          [
            102.789,
            31.03675
          ],
          [
            102.788,
            31.036
          ],
          [
            102.787,
            31.03525
          ],
          [
            102.786,
            31.0345
          ],
          [
            102.785,
            31.03375
          ],
          [
            102.784,
            31.033
          ],
          [
            102.783,
            31.03225
          ],
          [
            102.782,
            31.0315
          ],
          [
            102.781,
            31.03075
          ],
          [
            102.78,
            31.03
          ],
          [
            102.778333,
            31.02875
          ],
          [
            102.776667,
            31.0275
          ],
          [
            102.775,
            31.02625
          ],
          [
            102.773333,
            31.025
          ],
          [
            102.771667,
            31.02375
          ],
          [
            102.77,
            31.0225
          ],
          [
            102.768333,
            31.02125
          ],
          [
            102.766667,
            31.02
          ],
          [
            102.765,
            31.01875
          ],
          [
            102.763333,
            31.0175
          ],
          [
            102.761667,
            31.01625
          ],
          [
            102.76,
            31.015
          ],
          [
            102.758333,
            31.01375
          ],
          [
            102.756667,
            31.0125
          ],
          [
            102.755,
            31.01125
          ],
          [
            102.753333,
            31.01
          ],
          [
            102.751667,
            31.00875
          ],
          [
            102.75,
            31.0075
          ],
          [
            102.748333,
            31.00625
          ],
          [
            102.746667,
            31.005
          ],
          [
            102.745,
            31.00375
          ],
          [
            102.743333,
            31.0025
          ],
          [
            102.741667,
            31.00125
          ],
          [
            102.74,
            31
          ],
          [
            102.738333,
            30.999167
          ],
          [
            102.736667,
            30.998333
          ],
          [
            102.735,
            30.9975
          ],
          [
            102.733333,
            30.996667
          ],
          [
            102.731667,
            30.995833
          ],
          [
            102.73,
            30.995
          ],
          [
            102.728333,
            30.994167
          ],
          [
            102.726667,
            30.993333
          ],
          [
            102.725,
            30.9925
          ],
          [
            102.723333,
            30.991667
          ],
          [
            102.721667,
            30.990833
          ],
          [
            102.72,
            30.99
          ],
          [
            102.718333,
            30.989167
          ],
          [
            102.716667,
            30.988333
          ],
          [
            102.715,
            30.9875
          ],
          [
            102.713333,
            30.986667
          ],
          [
            102.711667,
            30.985833
          ],
          [
            102.71,
            30.985
          ],
          [
            102.708333,
            30.984167
          ],
          [
            102.706667,
            30.983333
          ],
          [
            102.705,
            30.9825
          ],
          [
            102.703333,
            30.981667
          ],
          [
            102.701667,
            30.980833
          ],
          [
            102.7,
            30.98
          ]
        ]
      }
    }
  ]
}