{
  "type": "FeatureCollection",
  "features": [
    {
      "type": "Feature",
      "properties": {
        "name": "恩施大峡谷—鹿院坪参考轨迹",
        "type": "hiking",
        "source": "两步路用户轨迹",
        "segments": 1
      },
      "geometry": {
        "type": "LineString",
        "coordinates": [
          [
            109.221967,
            30.473873
          ],
          [
            109.22188,
            30.473892
          ],
          [
            109.221718,
            30.473872
          ],
          [
            109.22168,
            30.474157
          ],
          [
            109.22147,
            30.474542
          ],
          [
            109.221455,
            30.47465
          ],
          [
            109.22148,
            30.474865
          ],
          [
            109.221455,
            30.475005
          ],
          [
            109.221413,
            30.475063
          ],
          [
            109.22135,
            30.475088
          ],
          [
            109.22122,
            30.4752
          ],
          [
            109.221107,
            30.475433
          ],
          [
            109.221118,
            30.475485
          ],
          [
            109.221532,
            30.475867
          ],
          [
            109.221583,
            30.475945
          ],
          [
            109.221815,
            30.476193
          ],
          [
            109.222098,
            30.476582
          ],
          [
            109.222285,
            30.476722
          ],
          [
            109.222303,
            30.476807
          ],
          [
            109.222392,
            30.47691
          ],
          [
            109.222472,
            30.477073
          ],
          [
            109.22256,
            30.477327
          ],
          [
            109.222623,
            30.477452
          ],
          [
            109.222725,
            30.477555
          ],
          [
            109.222812,
            30.47768
          ],
          [
            109.222812,
            30.477787
          ],
          [
            109.222938,
            30.477865
          ],
          [
            109.223108,
            30.477893
          ],
          [
            109.223205,
            30.477943
          ],
          [
            109.223308,
            30.478042
          ],
          [
            109.223332,
            30.47811
          ],
          [
            109.223395,
            30.478145
          ],
          [
            109.223402,
            30.478165
          ],
          [
            109.223453,
            30.478165
          ],
          [
            109.223552,
            30.478087
          ],
          [
            109.223602,
            30.478093
          ],
          [
            109.223455,
            30.47814
          ],
          [
            109.223412,
            30.478175
          ],
          [
            109.223383,
            30.478168
          ],
          [
            109.22317,
            30.477905
          ],
          [
            109.223062,
            30.477868
          ],
          [
            109.222902,
            30.477888
          ],
          [
            109.222752,
            30.47804
          ],
          [
            109.222543,
            30.478167
          ],
          [
            109.22247,
            30.478235
          ],
          [
            109.222253,
            30.478472
          ],
          [
            109.222157,
            30.478692
          ],
          [
            109.222122,
            30.478735
          ],
          [
            109.222,
            30.478807
          ],
          [
            109.221913,
            30.478807
          ],
          [
            109.221887,
            30.478822
          ],
          [
            109.221828,
            30.478907
          ],
          [
            109.221823,
            30.478958
          ],
          [
            109.221863,
            30.479057
          ],
          [
            109.221913,
            30.479098
          ],
          [
            109.221967,
            30.479125
          ],
          [
            109.22213,
            30.479148
          ],
          [
            109.222463,
            30.479002
          ],
          [
            109.222595,
            30.478993
          ],
          [
            109.222702,
            30.47902
          ],
          [
            109.222847,
            30.478975
          ],
          [
            109.222928,
            30.478928
          ],
          [
            109.22309,
            30.478932
          ],
          [
            109.223302,
            30.478902
          ],
          [
            109.223483,
            30.478827
          ],
          [
            109.223562,
            30.47881
          ],
          [
            109.223665,
            30.478812
          ],
          [
            109.223755,
            30.478778
          ],
          [
            109.223808,
            30.47878
          ],
          [
            109.22399,
            30.478685
          ],
          [
            109.224108,
            30.478673
          ],
          [
            109.22412,
            30.47875
          ],
          [
            109.224098,
            30.478898
          ],
          [
            109.224063,
            30.47894
          ],
          [
            109.224032,
            30.479073
          ],
          [
            109.223947,
            30.479255
          ],
          [
            109.223925,
            30.479422
          ],
          [
            109.223877,
            30.479577
          ],
          [
            109.223745,
            30.479793
          ],
          [
            109.223808,
            30.479932
          ],
          [
            109.223942,
            30.480025
          ],
          [
            109.223932,
            30.480075
          ],
          [
            109.223873,
            30.48014
          ],
          [
            109.223878,
            30.480167
          ],
          [
            109.224032,
            30.480292
          ],
          [
            109.223975,
            30.480755
          ],
          [
            109.223877,
            30.481012
          ],
          [
            109.223722,
            30.481125
          ],
          [
            109.223632,
            30.481157
          ],
          [
            109.223612,
            30.481105
          ],
          [
            109.223585,
            30.481105
          ],
          [
            109.2235,
            30.48119
          ],
          [
            109.22342,
            30.481232
          ],
          [
            109.223367,
            30.481228
          ],
          [
            109.223263,
            30.481257
          ],
          [
            109.223242,
            30.481252
          ],
          [
            109.223238,
            30.48123
          ],
          [
            109.223147,
            30.481305
          ],
          [
            109.22306,
            30.481332
          ],
          [
            109.222807,
            30.48139
          ],
          [
            109.222598,
            30.48141
          ],
          [
            109.222538,
            30.481475
          ],
          [
            109.222488,
            30.481613
          ],
          [
            109.222405,
            30.481607
          ],
          [
            109.222228,
            30.481718
          ],
          [
            109.222132,
            30.481815
          ],
          [
            109.22208,
            30.481828
          ],
          [
            109.221972,
            30.48182
          ],
          [
            109.221743,
            30.481842
          ],
          [
            109.221543,
            30.481822
          ],
          [
            109.221465,
            30.481793
          ],
          [
            109.221377,
            30.48173
          ],
          [
            109.221215,
            30.481713
          ],
          [
            109.221067,
            30.48165
          ],
          [
            109.22106,
            30.481607
          ],
          [
            109.220988,
            30.4816
          ],
          [
            109.220922,
            30.481573
          ],
          [
            109.220895,
            30.481535
          ],
          [
            109.220853,
            30.481542
          ],
          [
            109.220845,
            30.48152
          ],
          [
            109.220792,
            30.481517
          ],
          [
            109.220757,
            30.48166
          ],
          [
            109.220857,
            30.48183
          ],
          [
            109.22085,
            30.48192
          ],
          [
            109.220875,
            30.481995
          ],
          [
            109.22084,
            30.481972
          ],
          [
            109.220702,
            30.481943
          ],
          [
            109.22068,
            30.481943
          ],
          [
            109.220685,
            30.481983
          ],
          [
            109.220633,
            30.48197
          ],
          [
            109.220518,
            30.481873
          ],
          [
            109.220498,
            30.48189
          ],
          [
            109.220473,
            30.482143
          ],
          [
            109.220575,
            30.48227
          ],
          [
            109.220707,
            30.482367
          ],
          [
            109.22082,
            30.482493
          ],
          [
            109.22081,
            30.482547
          ],
          [
            109.22061,
            30.48276
          ],
          [
            109.220623,
            30.482807
          ],
          [
            109.220603,
            30.482813
          ],
          [
            109.22049,
            30.48277
          ],
          [
            109.220392,
            30.482693
          ],
          [
            109.220235,
            30.482675
          ],
          [
            109.22017,
            30.482645
          ],
          [
            109.219968,
            30.482625
          ],
          [
            109.219917,
            30.48253
          ],
          [
            109.219862,
            30.482518
          ],
          [
            109.219832,
            30.482488
          ],
          [
            109.21983,
            30.482442
          ],
          [
            109.219798,
            30.482385
          ],
          [
            109.219635,
            30.48231
          ],
          [
            109.219548,
            30.482157
          ],
          [
            109.219475,
            30.482125
          ],
          [
            109.219422,
            30.48213
          ],
          [
            109.219375,
            30.482112
          ],
          [
            109.219298,
            30.482043
          ],
          [
            109.219187,
            30.481882
          ],
          [
            109.219058,
            30.481783
          ],
          [
            109.218992,
            30.481753
          ],
          [
            109.218835,
            30.481573
          ],
          [
            109.218757,
            30.481513
          ],
          [
            109.218682,
            30.481495
          ],
          [
            109.218657,
            30.481385
          ],
          [
            109.21863,
            30.481343
          ],
          [
            109.218467,
            30.481212
          ],
          [
            109.2184,
            30.481105
          ],
          [
            109.218275,
            30.480995
          ],
          [
            109.218203,
            30.481077
          ],
          [
            109.218085,
            30.481028
          ],
          [
            109.218038,
            30.481053
          ],
          [
            109.21793,
            30.481038
          ],
          [
            109.217847,
            30.481045
          ],
          [
            109.217835,
            30.481115
          ],
          [
            109.217762,
            30.481147
          ],
          [
            109.217738,
            30.481203
          ],
          [
            109.21769,
            30.481217
          ],
          [
            109.217658,
            30.481293
          ],
          [
            109.217605,
            30.481293
          ],
          [
            109.21756,
            30.481322
          ],
          [
            109.217507,
            30.481308
          ],
          [
            109.217425,
            30.481235
          ],
          [
            109.217365,
            30.48123
          ],
          [
            109.21731,
            30.48119
          ],
          [
            109.217207,
            30.481182
          ],
          [
            109.217183,
            30.481197
          ],
          [
            109.2172,
            30.481252
          ],
          [
            109.21718,
            30.48129
          ],
          [
            109.217103,
            30.481243
          ],
          [
            109.217032,
            30.481222
          ],
          [
            109.216928,
            30.48123
          ],
          [
            109.216958,
            30.481325
          ],
          [
            109.216953,
            30.481372
          ],
          [
            109.216932,
            30.481378
          ],
          [
            109.216897,
            30.481345
          ],
          [
            109.216847,
            30.481335
          ],
          [
            109.216842,
            30.481363
          ],
          [
            109.216873,
            30.481453
          ],
          [
            109.21692,
            30.481508
          ],
          [
            109.216905,
            30.48153
          ],
          [
            109.216885,
            30.48154
          ],
          [
            109.216827,
            30.481497
          ],
          [
            109.216728,
            30.48147
          ],
          [
            109.216723,
            30.481447
          ],
          [
            109.216698,
            30.481447
          ],
          [
            109.216678,
            30.481485
          ],
          [
            109.216688,
            30.48168
          ],
          [
            109.216708,
            30.48173
          ],
          [
            109.216675,
            30.481757
          ],
          [
            109.216615,
            30.48171
          ],
          [
            109.216485,
            30.48167
          ],
          [
            109.216423,
            30.48162
          ],
          [
            109.216297,
            30.481582
          ],
          [
            109.216175,
            30.481567
          ],
          [
            109.21616,
            30.481582
          ],
          [
            109.21618,
            30.481625
          ],
          [
            109.216302,
            30.481753
          ],
          [
            109.216228,
            30.48176
          ],
          [
            109.216303,
            30.48194
          ],
          [
            109.216357,
            30.481998
          ],
          [
            109.216342,
            30.48204
          ],
          [
            109.216245,
            30.481985
          ],
          [
            109.21615,
            30.481967
          ],
          [
            109.21613,
            30.481932
          ],
          [
            109.216085,
            30.481907
          ],
          [
            109.216093,
            30.48189
          ],
          [
            109.216058,
            30.481858
          ],
          [
            109.215525,
            30.481687
          ],
          [
            109.215407,
            30.481633
          ],
          [
            109.21522,
            30.4816
          ],
          [
            109.215107,
            30.481555
          ],
          [
            109.215032,
            30.481505
          ],
          [
            109.214872,
            30.481468
          ],
          [
            109.21482,
            30.481467
          ],
          [
            109.214767,
            30.481487
          ],
          [
            109.214738,
            30.481455
          ],
          [
            109.214683,
            30.481452
          ],
          [
            109.214605,
            30.48142
          ],
          [
            109.214558,
            30.48143
          ],
          [
            109.214595,
            30.481515
          ],
          [
            109.214652,
            30.481558
          ],
          [
            109.214575,
            30.481572
          ],
          [
            109.214503,
            30.481538
          ],
          [
            109.214467,
            30.481498
          ],
          [
            109.214315,
            30.481512
          ],
          [
            109.214265,
            30.48149
          ],
          [
            109.214367,
            30.481637
          ],
          [
            109.21438,
            30.481678
          ],
          [
            109.214347,
            30.481705
          ],
          [
            109.214237,
            30.481647
          ],
          [
            109.214157,
            30.481625
          ],
          [
            109.214115,
            30.48164
          ],
          [
            109.213727,
            30.481558
          ],
          [
            109.213603,
            30.481503
          ],
          [
            109.213517,
            30.48141
          ],
          [
            109.213383,
            30.48137
          ],
          [
            109.2133,
            30.481292
          ],
          [
            109.213078,
            30.481208
          ],
          [
            109.213072,
            30.481183
          ],
          [
            109.213012,
            30.481153
          ],
          [
            109.212988,
            30.481117
          ],
          [
            109.212743,
            30.480997
          ],
          [
            109.21267,
            30.480985
          ],
          [
            109.21256,
            30.480933
          ],
          [
            109.212382,
            30.480895
          ],
          [
            109.21233,
            30.480903
          ],
          [
            109.212172,
            30.481003
          ],
          [
            109.212118,
            30.481073
          ],
          [
            109.212097,
            30.481233
          ],
          [
            109.212068,
            30.481278
          ],
          [
            109.212052,
            30.481365
          ],
          [
            109.211978,
            30.481497
          ],
          [
            109.21196,
            30.48162
          ],
          [
            109.211953,
            30.481638
          ],
          [
            109.211928,
            30.481633
          ],
          [
            109.211848,
            30.48174
          ],
          [
            109.211837,
            30.48178
          ],
          [
            109.211852,
            30.481823
          ],
          [
            109.211822,
            30.481893
          ],
          [
            109.211513,
            30.482122
          ],
          [
            109.211445,
            30.482138
          ],
          [
            109.211325,
            30.482112
          ],
          [
            109.211255,
            30.482122
          ],
          [
            109.211225,
            30.482098
          ],
          [
            109.211085,
            30.482108
          ],
          [
            109.211097,
            30.482183
          ],
          [
            109.211053,
            30.48222
          ],
          [
            109.211052,
            30.48224
          ],
          [
            109.21109,
            30.482273
          ],
          [
            109.211195,
            30.482248
          ],
          [
            109.211152,
            30.482273
          ],
          [
            109.21107,
            30.48223
          ],
          [
            109.211067,
            30.482212
          ],
          [
            109.211037,
            30.482208
          ],
          [
            109.21101,
            30.482217
          ],
          [
            109.211013,
            30.482248
          ],
          [
            109.210855,
            30.48227
          ],
          [
            109.210845,
            30.482287
          ],
          [
            109.210687,
            30.482298
          ],
          [
            109.210555,
            30.482298
          ],
          [
            109.21046,
            30.482267
          ],
          [
            109.210087,
            30.482265
          ],
          [
            109.209885,
            30.48221
          ],
          [
            109.209807,
            30.482223
          ],
          [
            109.209673,
            30.482203
          ],
          [
            109.209625,
            30.482217
          ],
          [
            109.209582,
            30.482197
          ],
          [
            109.209507,
            30.482212
          ],
          [
            109.209358,
            30.482203
          ],
          [
            109.2093,
            30.48224
          ],
          [
            109.209302,
            30.48226
          ],
          [
            109.209398,
            30.482252
          ],
          [
            109.209415,
            30.482265
          ],
          [
            109.209397,
            30.482275
          ],
          [
            109.20947,
            30.482333
          ],
          [
            109.20968,
            30.482403
          ],
          [
            109.209717,
            30.48244
          ],
          [
            109.209737,
            30.482433
          ],
          [
            109.209507,
            30.4825
          ],
          [
            109.209385,
            30.482495
          ],
          [
            109.209318,
            30.482462
          ],
          [
            109.2092,
            30.482442
          ],
          [
            109.209077,
            30.482358
          ],
          [
            109.208933,
            30.48234
          ],
          [
            109.208867,
            30.482358
          ],
          [
            109.20874,
            30.482498
          ],
          [
            109.20873,
            30.482627
          ],
          [
            109.208713,
            30.482647
          ],
          [
            109.208745,
            30.482705
          ],
          [
            109.208715,
            30.482823
          ],
          [
            109.208675,
            30.482875
          ],
          [
            109.208663,
            30.48298
          ],
          [
            109.208603,
            30.483037
          ],
          [
            109.208505,
            30.483238
          ],
          [
            109.208395,
            30.48333
          ],
          [
            109.208267,
            30.483408
          ],
          [
            109.208162,
            30.483523
          ],
          [
            109.208102,
            30.483565
          ],
          [
            109.208032,
            30.48374
          ],
          [
            109.207967,
            30.483757
          ],
          [
            109.207888,
            30.48386
          ],
          [
            109.207742,
            30.483952
          ],
          [
            109.20765,
            30.483917
          ],
          [
            109.207575,
            30.48386
          ],
          [
            109.207318,
            30.483827
          ],
          [
            109.20723,
            30.483792
          ],
          [
            109.207075,
            30.483775
          ],
          [
            109.206903,
            30.483708
          ],
          [
            109.206748,
            30.4837
          ],
          [
            109.206553,
            30.48373
          ],
          [
            109.206425,
            30.483842
          ],
          [
            109.206222,
            30.48393
          ],
          [
            109.206105,
            30.483915
          ],
          [
            109.205948,
            30.483857
          ],
          [
            109.205797,
            30.48389
          ],
          [
            109.205728,
            30.483853
          ],
          [
            109.205563,
            30.48386
          ],
          [
            109.205408,
            30.483905
          ],
          [
            109.205305,
            30.483993
          ],
          [
            109.205285,
            30.484003
          ],
          [
            109.205293,
            30.483982
          ],
          [
            109.20533,
            30.483958
          ],
          [
            109.20517,
            30.484033
          ],
          [
            109.205083,
            30.484097
          ],
          [
            109.204952,
            30.484122
          ],
          [
            109.204857,
            30.48419
          ],
          [
            109.204743,
            30.484243
          ],
          [
            109.204323,
            30.484373
          ],
          [
            109.204295,
            30.484405
          ],
          [
            109.204283,
            30.48439
          ],
          [
            109.204205,
            30.48441
          ],
          [
            109.203982,
            30.48455
          ],
          [
            109.203833,
            30.484543
          ],
          [
            109.203687,
            30.484615
          ],
          [
            109.203617,
            30.484603
          ],
          [
            109.203462,
            30.484645
          ],
          [
            109.20329,
            30.484733
          ],
          [
            109.203003,
            30.484922
          ],
          [
            109.20287,
            30.484965
          ],
          [
            109.202652,
            30.48493
          ],
          [
            109.202598,
            30.484942
          ],
          [
            109.202547,
            30.484985
          ],
          [
            109.202365,
            30.484985
          ],
          [
            109.202162,
            30.485027
          ],
          [
            109.202023,
            30.485027
          ],
          [
            109.20194,
            30.485075
          ],
          [
            109.201765,
            30.485122
          ],
          [
            109.201722,
            30.485112
          ],
          [
            109.201575,
            30.485128
          ],
          [
            109.201408,
            30.48508
          ],
          [
            109.201227,
            30.485125
          ],
          [
            109.201085,
            30.485098
          ],
          [
            109.200987,
            30.485123
          ],
          [
            109.200812,
            30.485077
          ],
          [
            109.200552,
            30.485085
          ],
          [
            109.20042,
            30.485142
          ],
          [
            109.200332,
            30.4852
          ],
          [
            109.200232,
            30.485188
          ],
          [
            109.200085,
            30.485225
          ],
          [
            109.199962,
            30.485227
          ],
          [
            109.199957,
            30.485207
          ],
          [
            109.199978,
            30.485193
          ],
          [
            109.199953,
            30.485232
          ],
          [
            109.199962,
            30.485195
          ],
          [
            109.19991,
            30.485247
          ],
          [
            109.199768,
            30.48525
          ],
          [
            109.199677,
            30.485283
          ],
          [
            109.199568,
            30.485377
          ],
          [
            109.199447,
            30.485397
          ],
          [
            109.19936,
            30.485438
          ],
          [
            109.19923,
            30.485567
          ],
          [
            109.199228,
            30.48559
          ],
          [
            109.199073,
            30.485725
          ],
          [
            109.199007,
            30.485747
          ],
          [
            109.198883,
            30.485842
          ],
          [
            109.19884,
            30.485943
          ],
          [
            109.198837,
            30.486007
          ],
          [
            109.198788,
            30.486035
          ],
          [
            109.198668,
            30.486165
          ],
          [
            109.198615,
            30.486242
          ],
          [
            109.198562,
            30.486398
          ],
          [
            109.198498,
            30.486455
          ],
          [
            109.198492,
            30.486495
          ],
          [
            109.198302,
            30.486618
          ],
          [
            109.198202,
            30.486723
          ],
          [
            109.198155,
            30.486748
          ],
          [
            109.198125,
            30.486832
          ],
          [
            109.19802,
            30.486913
          ],
          [
            109.198017,
            30.486937
          ],
          [
            109.197927,
            30.487025
          ],
          [
            109.1979,
            30.48711
          ],
          [
            109.197838,
            30.487135
          ],
          [
            109.197768,
            30.487278
          ],
          [
            109.197693,
            30.487333
          ],
          [
            109.19763,
            30.487412
          ],
          [
            109.197688,
            30.487468
          ],
          [
            109.197663,
            30.48757
          ],
          [
            109.197593,
            30.487623
          ],
          [
            109.197565,
            30.487712
          ],
          [
            109.197543,
            30.487722
          ],
          [
            109.197533,
            30.487807
          ],
          [
            109.197482,
            30.487815
          ],
          [
            109.197447,
            30.487877
          ],
          [
            109.197367,
            30.487915
          ],
          [
            109.197335,
            30.487957
          ],
          [
            109.197235,
            30.48798
          ],
          [
            109.197155,
            30.48805
          ],
          [
            109.197147,
            30.488088
          ],
          [
            109.19709,
            30.488153
          ],
          [
            109.197058,
            30.488273
          ],
          [
            109.197057,
            30.488292
          ],
          [
            109.19711,
            30.488292
          ],
          [
            109.197112,
            30.48831
          ],
          [
            109.197087,
            30.48832
          ],
          [
            109.197045,
            30.488382
          ],
          [
            109.196995,
            30.488547
          ],
          [
            109.196982,
            30.488682
          ],
          [
            109.196937,
            30.488742
          ],
          [
            109.19692,
            30.488825
          ],
          [
            109.196745,
            30.489078
          ],
          [
            109.196703,
            30.489185
          ],
          [
            109.196548,
            30.489408
          ],
          [
            109.196422,
            30.489665
          ],
          [
            109.19641,
            30.489745
          ],
          [
            109.196362,
            30.48986
          ],
          [
            109.196183,
            30.490023
          ],
          [
            109.19603,
            30.490128
          ],
          [
            109.196037,
            30.490192
          ],
          [
            109.195988,
            30.49027
          ],
          [
            109.195995,
            30.49033
          ],
          [
            109.195973,
            30.490337
          ],
          [
            109.19604,
            30.490417
          ],
          [
            109.196045,
            30.490462
          ],
          [
            109.196012,
            30.490437
          ],
          [
            109.195922,
            30.490513
          ],
          [
            109.195882,
            30.490497
          ],
          [
            109.195858,
            30.490508
          ],
          [
            109.195848,
            30.490557
          ],
          [
            109.195907,
            30.49064
          ],
          [
            109.195862,
            30.490623
          ],
          [
            109.195815,
            30.490577
          ],
          [
            109.195757,
            30.490485
          ],
          [
            109.195768,
            30.49047
          ],
          [
            109.19573,
            30.490465
          ],
          [
            109.195738,
            30.49053
          ],
          [
            109.195817,
            30.490652
          ],
          [
            109.195778,
            30.490623
          ],
          [
            109.195743,
            30.490542
          ],
          [
            109.195698,
            30.49052
          ],
          [
            109.195683,
            30.490533
          ],
          [
            109.195665,
            30.490603
          ],
          [
            109.19569,
            30.490747
          ],
          [
            109.195657,
            30.49078
          ],
          [
            109.19569,
            30.490872
          ],
          [
            109.195688,
            30.490852
          ],
          [
            109.195667,
            30.490867
          ],
          [
            109.195643,
            30.490845
          ],
          [
            109.195532,
            30.490828
          ],
          [
            109.195558,
            30.49083
          ],
          [
            109.19553,
            30.4908
          ],
          [
            109.195538,
            30.490905
          ],
          [
            109.195585,
            30.490967
          ],
          [
            109.195577,
            30.491008
          ],
          [
            109.195555,
            30.491012
          ],
          [
            109.195475,
            30.490965
          ],
          [
            109.195482,
            30.490983
          ],
          [
            109.19546,
            30.490992
          ],
          [
            109.195442,
            30.491117
          ],
          [
            109.195457,
            30.491172
          ],
          [
            109.195433,
            30.49121
          ],
          [
            109.195452,
            30.491268
          ],
          [
            109.1955,
            30.49132
          ],
          [
            109.195472,
            30.49131
          ],
          [
            109.1955,
            30.491467
          ],
          [
            109.195437,
            30.491553
          ],
          [
            109.195423,
            30.491615
          ],
          [
            109.19527,
            30.491432
          ],
          [
            109.195193,
            30.49143
          ],
          [
            109.195202,
            30.49152
          ],
          [
            109.195167,
            30.491638
          ],
          [
            109.195192,
            30.491673
          ],
          [
            109.195187,
            30.491753
          ],
          [
            109.195253,
            30.491842
          ],
          [
            109.195258,
            30.491892
          ],
          [
            109.195252,
            30.49194
          ],
          [
            109.19522,
            30.491972
          ],
          [
            109.19519,
            30.491973
          ],
          [
            109.195162,
            30.492008
          ],
          [
            109.195165,
            30.492093
          ],
          [
            109.195187,
            30.492228
          ],
          [
            109.195232,
            30.492248
          ],
          [
            109.195237,
            30.492272
          ],
          [
            109.195135,
            30.492325
          ],
          [
            109.195028,
            30.492308
          ],
          [
            109.194897,
            30.492348
          ],
          [
            109.194853,
            30.492398
          ],
          [
            109.194752,
            30.49237
          ],
          [
            109.1947,
            30.492388
          ],
          [
            109.19466,
            30.49242
          ],
          [
            109.194587,
            30.492528
          ],
          [
            109.194513,
            30.492557
          ],
          [
            109.19438,
            30.492558
          ],
          [
            109.194325,
            30.49259
          ],
          [
            109.194262,
            30.492662
          ],
          [
            109.194145,
            30.492712
          ],
          [
            109.194075,
            30.492782
          ],
          [
            109.19386,
            30.492788
          ],
          [
            109.19359,
            30.492715
          ],
          [
            109.193525,
            30.492685
          ],
          [
            109.193515,
            30.492665
          ],
          [
            109.193417,
            30.492647
          ],
          [
            109.193365,
            30.492602
          ],
          [
            109.193265,
            30.492558
          ],
          [
            109.193217,
            30.492552
          ],
          [
            109.193158,
            30.492572
          ],
          [
            109.19311,
            30.492647
          ],
          [
            109.19312,
            30.492685
          ],
          [
            109.193085,
            30.492712
          ],
          [
            109.193075,
            30.492818
          ],
          [
            109.193023,
            30.492872
          ],
          [
            109.193,
            30.49296
          ],
          [
            109.192963,
            30.492995
          ],
          [
            109.192877,
            30.493033
          ],
          [
            109.192827,
            30.493038
          ],
          [
            109.192668,
            30.493028
          ],
          [
            109.19257,
            30.492997
          ],
          [
            109.19253,
            30.49302
          ],
          [
            109.192482,
            30.493092
          ],
          [
            109.192343,
            30.493135
          ],
          [
            109.19233,
            30.493158
          ],
          [
            109.192338,
            30.493233
          ],
          [
            109.192335,
            30.493202
          ],
          [
            109.1923,
            30.493328
          ],
          [
            109.192285,
            30.49348
          ],
          [
            109.19225,
            30.493575
          ],
          [
            109.192265,
            30.49369
          ],
          [
            109.192248,
            30.493747
          ],
          [
            109.192165,
            30.493738
          ],
          [
            109.191988,
            30.493782
          ],
          [
            109.19182,
            30.493738
          ],
          [
            109.19173,
            30.493767
          ],
          [
            109.191568,
            30.493773
          ],
          [
            109.191395,
            30.493858
          ],
          [
            109.191102,
            30.493962
          ],
          [
            109.191063,
            30.493997
          ],
          [
            109.190982,
            30.49415
          ],
          [
            109.190792,
            30.494262
          ],
          [
            109.190683,
            30.494287
          ],
          [
            109.190488,
            30.494295
          ],
          [
            109.190392,
            30.494417
          ],
          [
            109.190222,
            30.494442
          ],
          [
            109.19013,
            30.4945
          ],
          [
            109.190007,
            30.494608
          ],
          [
            109.189928,
            30.494705
          ],
          [
            109.189845,
            30.494898
          ],
          [
            109.189763,
            30.494958
          ],
          [
            109.189713,
            30.494932
          ],
          [
            109.18962,
            30.494955
          ],
          [
            109.189597,
            30.494943
          ],
          [
            109.189495,
            30.495035
          ],
          [
            109.18931,
            30.495075
          ],
          [
            109.18928,
            30.495238
          ],
          [
            109.189177,
            30.495288
          ],
          [
            109.189062,
            30.495282
          ],
          [
            109.188957,
            30.495305
          ],
          [
            109.188768,
            30.495218
          ],
          [
            109.188727,
            30.495215
          ],
          [
            109.188647,
            30.49515
          ],
          [
            109.188498,
            30.495077
          ],
          [
            109.188382,
            30.494987
          ],
          [
            109.188285,
            30.49495
          ],
          [
            109.18809,
            30.494918
          ],
          [
            109.188008,
            30.494928
          ],
          [
            109.187948,
            30.494882
          ],
          [
            109.187832,
            30.494863
          ],
          [
            109.187783,
            30.494873
          ],
          [
            109.187642,
            30.49484
          ],
          [
            109.18759,
            30.494812
          ],
          [
            109.187483,
            30.494795
          ],
          [
            109.187433,
            30.494807
          ],
          [
            109.18737,
            30.494848
          ],
          [
            109.187233,
            30.494985
          ],
          [
            109.187187,
            30.495002
          ],
          [
            109.187125,
            30.494988
          ],
          [
            109.187048,
            30.494995
          ],
          [
            109.186978,
            30.495053
          ],
          [
            109.18694,
            30.495123
          ],
          [
            109.186913,
            30.495233
          ],
          [
            109.186898,
            30.495507
          ],
          [
            109.186708,
            30.495617
          ],
          [
            109.186545,
            30.495675
          ],
          [
            109.186517,
            30.495727
          ],
          [
            109.186525,
            30.495802
          ],
          [
            109.186497,
            30.495977
          ],
          [
            109.186347,
            30.496215
          ],
          [
            109.186247,
            30.496313
          ],
          [
            109.186142,
            30.496352
          ],
          [
            109.186083,
            30.496343
          ],
          [
            109.185768,
            30.49608
          ],
          [
            109.185683,
            30.496107
          ],
          [
            109.185557,
            30.496058
          ],
          [
            109.185292,
            30.496052
          ],
          [
            109.185175,
            30.496123
          ],
          [
            109.185038,
            30.496112
          ],
          [
            109.184978,
            30.496127
          ],
          [
            109.184838,
            30.496225
          ],
          [
            109.184722,
            30.496357
          ],
          [
            109.184505,
            30.49647
          ],
          [
            109.18421,
            30.496557
          ],
          [
            109.184095,
            30.496567
          ],
          [
            109.183963,
            30.496615
          ],
          [
            109.183752,
            30.49674
          ],
          [
            109.183672,
            30.496835
          ],
          [
            109.18357,
            30.496912
          ],
          [
            109.183453,
            30.4971
          ],
          [
            109.183438,
            30.497197
          ],
          [
            109.183362,
            30.497343
          ],
          [
            109.183318,
            30.497365
          ],
          [
            109.183145,
            30.497382
          ],
          [
            109.182907,
            30.497487
          ],
          [
            109.182812,
            30.497478
          ],
          [
            109.1827,
            30.497492
          ],
          [
            109.1826,
            30.497417
          ],
          [
            109.182547,
            30.4974
          ],
          [
            109.182327,
            30.497475
          ],
          [
            109.18226,
            30.497518
          ],
          [
            109.182235,
            30.497565
          ],
          [
            109.182215,
            30.497693
          ],
          [
            109.182242,
            30.497742
          ],
          [
            109.182312,
            30.4978
          ],
          [
            109.182282,
            30.49784
          ],
          [
            109.182005,
            30.497968
          ],
          [
            109.18199,
            30.49802
          ],
          [
            109.182018,
            30.49817
          ],
          [
            109.18192,
            30.498308
          ],
          [
            109.181858,
            30.498463
          ],
          [
            109.181738,
            30.498528
          ],
          [
            109.181638,
            30.498548
          ],
          [
            109.181535,
            30.498593
          ],
          [
            109.181367,
            30.498692
          ],
          [
            109.181277,
            30.49871
          ],
          [
            109.181195,
            30.498703
          ],
          [
            109.181132,
            30.498658
          ],
          [
            109.180813,
            30.498552
          ],
          [
            109.180652,
            30.49846
          ],
          [
            109.180482,
            30.498413
          ],
          [
            109.180393,
            30.498403
          ],
          [
            109.180067,
            30.498425
          ],
          [
            109.179882,
            30.498348
          ],
          [
            109.179838,
            30.498392
          ],
          [
            109.179922,
            30.498372
          ],
          [
            109.180005,
            30.49842
          ],
          [
            109.180003,
            30.498392
          ],
          [
            109.179978,
            30.49837
          ],
          [
            109.179792,
            30.498295
          ],
          [
            109.179778,
            30.498253
          ],
          [
            109.179837,
            30.498175
          ],
          [
            109.17988,
            30.498045
          ],
          [
            109.180008,
            30.497952
          ],
          [
            109.180053,
            30.497942
          ],
          [
            109.180105,
            30.497868
          ],
          [
            109.1802,
            30.49779
          ],
          [
            109.180357,
            30.497727
          ],
          [
            109.18063,
            30.497718
          ],
          [
            109.180803,
            30.49774
          ],
          [
            109.180613,
            30.49769
          ],
          [
            109.180402,
            30.497673
          ],
          [
            109.180165,
            30.497797
          ],
          [
            109.18009,
            30.497825
          ],
          [
            109.179982,
            30.497838
          ],
          [
            109.17996,
            30.497827
          ],
          [
            109.180067,
            30.497618
          ],
          [
            109.179972,
            30.497808
          ],
          [
            109.179935,
            30.497848
          ],
          [
            109.179843,
            30.497862
          ],
          [
            109.17963,
            30.49786
          ],
          [
            109.179527,
            30.497882
          ],
          [
            109.179358,
            30.497733
          ],
          [
            109.179383,
            30.497563
          ],
          [
            109.179463,
            30.497408
          ],
          [
            109.179622,
            30.49723
          ],
          [
            109.17967,
            30.497123
          ],
          [
            109.179717,
            30.497067
          ],
          [
            109.179772,
            30.496932
          ],
          [
            109.179795,
            30.496815
          ],
          [
            109.179818,
            30.496802
          ],
          [
            109.179838,
            30.496755
          ],
          [
            109.179935,
            30.496675
          ],
          [
            109.18008,
            30.496623
          ],
          [
            109.180187,
            30.496552
          ],
          [
            109.18039,
            30.496518
          ],
          [
            109.181002,
            30.496097
          ],
          [
            109.181072,
            30.496073
          ],
          [
            109.18116,
            30.495973
          ],
          [
            109.181477,
            30.495755
          ],
          [
            109.18162,
            30.495677
          ],
          [
            109.18181,
            30.495625
          ],
          [
            109.18187,
            30.495668
          ],
          [
            109.181852,
            30.495703
          ],
          [
            109.181853,
            30.495578
          ],
          [
            109.181973,
            30.495503
          ],
          [
            109.182088,
            30.495388
          ],
          [
            109.182142,
            30.495365
          ],
          [
            109.18219,
            30.495302
          ],
          [
            109.182265,
            30.495263
          ],
          [
            109.182667,
            30.49497
          ],
          [
            109.182883,
            30.494845
          ],
          [
            109.183297,
            30.494673
          ],
          [
            109.18365,
            30.494403
          ],
          [
            109.183913,
            30.494287
          ],
          [
            109.184148,
            30.494145
          ],
          [
            109.184187,
            30.494108
          ],
          [
            109.184245,
            30.49394
          ],
          [
            109.184265,
            30.493773
          ],
          [
            109.18425,
            30.493493
          ],
          [
            109.184217,
            30.493375
          ],
          [
            109.184188,
            30.49334
          ],
          [
            109.18414,
            30.49333
          ],
          [
            109.184143,
            30.49335
          ],
          [
            109.184163,
            30.493365
          ],
          [
            109.184165,
            30.493323
          ],
          [
            109.18408,
            30.493237
          ],
          [
            109.183987,
            30.492942
          ],
          [
            109.18381,
            30.492792
          ],
          [
            109.18381,
            30.492727
          ],
          [
            109.183777,
            30.492633
          ],
          [
            109.183802,
            30.49259
          ],
          [
            109.183825,
            30.4926
          ],
          [
            109.183707,
            30.492578
          ],
          [
            109.183578,
            30.492512
          ],
          [
            109.183453,
            30.49242
          ],
          [
            109.183332,
            30.49239
          ],
          [
            109.183257,
            30.49235
          ],
          [
            109.183237,
            30.49241
          ],
          [
            109.183213,
            30.492413
          ],
          [
            109.183128,
            30.492375
          ],
          [
            109.182938,
            30.492337
          ],
          [
            109.182872,
            30.492308
          ],
          [
            109.182897,
            30.492352
          ],
          [
            109.18288,
            30.492368
          ],
          [
            109.182853,
            30.49237
          ],
          [
            109.182782,
            30.492317
          ],
          [
            109.182618,
            30.492335
          ],
          [
            109.1825,
            30.492372
          ],
          [
            109.182338,
            30.49235
          ],
          [
            109.182257,
            30.492318
          ],
          [
            109.182167,
            30.492305
          ],
          [
            109.181948,
            30.49231
          ],
          [
            109.181778,
            30.492208
          ],
          [
            109.181712,
            30.492107
          ],
          [
            109.181648,
            30.491757
          ],
          [
            109.181623,
            30.491723
          ],
          [
            109.181742,
            30.49163
          ],
          [
            109.181722,
            30.491548
          ],
          [
            109.181645,
            30.491455
          ],
          [
            109.181502,
            30.491343
          ],
          [
            109.181422,
            30.49132
          ],
          [
            109.18136,
            30.491278
          ],
          [
            109.181272,
            30.49126
          ],
          [
            109.181267,
            30.49122
          ],
          [
            109.181318,
            30.491227
          ],
          [
            109.181332,
            30.49115
          ],
          [
            109.181313,
            30.491107
          ],
          [
            109.18125,
            30.491068
          ],
          [
            109.181258,
            30.49105
          ],
          [
            109.18133,
            30.491057
          ],
          [
            109.181307,
            30.491042
          ],
          [
            109.181245,
            30.49104
          ],
          [
            109.181077,
            30.491058
          ],
          [
            109.181125,
            30.49106
          ],
          [
            109.18116,
            30.49103
          ],
          [
            109.181093,
            30.490965
          ],
          [
            109.181097,
            30.490848
          ],
          [
            109.181072,
            30.490783
          ],
          [
            109.181005,
            30.49071
          ],
          [
            109.180992,
            30.490642
          ],
          [
            109.180927,
            30.490578
          ],
          [
            109.180878,
            30.490538
          ],
          [
            109.18083,
            30.490547
          ],
          [
            109.180787,
            30.490535
          ],
          [
            109.180752,
            30.490505
          ],
          [
            109.180777,
            30.490488
          ],
          [
            109.180798,
            30.490493
          ],
          [
            109.180775,
            30.490455
          ],
          [
            109.180722,
            30.490453
          ],
          [
            109.180648,
            30.490487
          ],
          [
            109.180583,
            30.490445
          ],
          [
            109.18072,
            30.490497
          ],
          [
            109.180743,
            30.49048
          ],
          [
            109.180748,
            30.490435
          ],
          [
            109.180672,
            30.490373
          ],
          [
            109.180662,
            30.490357
          ],
          [
            109.18068,
            30.490337
          ],
          [
            109.180735,
            30.490312
          ],
          [
            109.180863,
            30.490312
          ],
          [
            109.180927,
            30.490295
          ],
          [
            109.180978,
            30.490337
          ],
          [
            109.181047,
            30.490313
          ],
          [
            109.181052,
            30.490288
          ],
          [
            109.180983,
            30.490203
          ],
          [
            109.180968,
            30.490127
          ],
          [
            109.180832,
            30.490097
          ],
          [
            109.180748,
            30.490005
          ],
          [
            109.180762,
            30.489987
          ],
          [
            109.180792,
            30.489992
          ],
          [
            109.180678,
            30.489917
          ],
          [
            109.18064,
            30.489935
          ],
          [
            109.180587,
            30.489997
          ],
          [
            109.180552,
            30.490008
          ],
          [
            109.180437,
            30.490008
          ],
          [
            109.180368,
            30.489977
          ],
          [
            109.180318,
            30.489917
          ],
          [
            109.180215,
            30.489918
          ],
          [
            109.180202,
            30.489878
          ],
          [
            109.180128,
            30.489793
          ],
          [
            109.1801,
            30.489713
          ],
          [
            109.180112,
            30.48967
          ],
          [
            109.180133,
            30.489675
          ],
          [
            109.180117,
            30.489658
          ],
          [
            109.180137,
            30.489717
          ],
          [
            109.180108,
            30.489715
          ],
          [
            109.1801,
            30.489668
          ],
          [
            109.180118,
            30.489642
          ],
          [
            109.180137,
            30.489678
          ],
          [
            109.180112,
            30.489645
          ],
          [
            109.18014,
            30.489687
          ],
          [
            109.180127,
            30.489707
          ],
          [
            109.180075,
            30.48969
          ],
          [
            109.180083,
            30.48971
          ],
          [
            109.180148,
            30.489718
          ],
          [
            109.180157,
            30.489735
          ],
          [
            109.180133,
            30.489773
          ],
          [
            109.180163,
            30.489862
          ],
          [
            109.180205,
            30.489907
          ],
          [
            109.180362,
            30.48991
          ],
          [
            109.1804,
            30.489972
          ],
          [
            109.180443,
            30.489995
          ],
          [
            109.18061,
            30.489988
          ],
          [
            109.180692,
            30.489933
          ],
          [
            109.180853,
            30.489973
          ],
          [
            109.180872,
            30.490002
          ],
          [
            109.180807,
            30.490037
          ],
          [
            109.180852,
            30.490073
          ],
          [
            109.181022,
            30.490143
          ],
          [
            109.181035,
            30.490162
          ],
          [
            109.181092,
            30.490173
          ],
          [
            109.181178,
            30.490153
          ],
          [
            109.181348,
            30.490208
          ],
          [
            109.181377,
            30.490242
          ],
          [
            109.181363,
            30.490267
          ],
          [
            109.181375,
            30.490302
          ],
          [
            109.1814,
            30.490317
          ],
          [
            109.18162,
            30.490355
          ],
          [
            109.181965,
            30.49046
          ],
          [
            109.182087,
            30.490517
          ],
          [
            109.182475,
            30.490647
          ],
          [
            109.182623,
            30.490747
          ],
          [
            109.182822,
            30.490798
          ],
          [
            109.182883,
            30.490862
          ],
          [
            109.182947,
            30.491038
          ],
          [
            109.183023,
            30.49105
          ],
          [
            109.183153,
            30.491032
          ],
          [
            109.183232,
            30.491062
          ],
          [
            109.183392,
            30.491185
          ],
          [
            109.183418,
            30.491193
          ],
          [
            109.18349,
            30.491175
          ],
          [
            109.183548,
            30.491192
          ],
          [
            109.183603,
            30.49125
          ],
          [
            109.183723,
            30.491297
          ],
          [
            109.1838,
            30.491393
          ],
          [
            109.18381,
            30.491463
          ],
          [
            109.183833,
            30.491463
          ],
          [
            109.183905,
            30.49139
          ],
          [
            109.183963,
            30.491448
          ],
          [
            109.183965,
            30.49151
          ],
          [
            109.184025,
            30.491457
          ],
          [
            109.184075,
            30.491482
          ],
          [
            109.184082,
            30.491548
          ],
          [
            109.184137,
            30.491535
          ],
          [
            109.184165,
            30.491567
          ],
          [
            109.184208,
            30.49156
          ],
          [
            109.184267,
            30.4916
          ],
          [
            109.184303,
            30.491583
          ],
          [
            109.184392,
            30.491677
          ],
          [
            109.18444,
            30.491665
          ],
          [
            109.184457,
            30.491642
          ],
          [
            109.184507,
            30.491702
          ],
          [
            109.184535,
            30.491712
          ],
          [
            109.184638,
            30.491713
          ],
          [
            109.184642,
            30.49169
          ],
          [
            109.184663,
            30.491692
          ],
          [
            109.18479,
            30.491787
          ],
          [
            109.18491,
            30.491813
          ],
          [
            109.18493,
            30.491833
          ],
          [
            109.184912,
            30.491907
          ],
          [
            109.184927,
            30.491933
          ],
          [
            109.185043,
            30.49204
          ],
          [
            109.185042,
            30.49209
          ],
          [
            109.184975,
            30.492205
          ],
          [
            109.184887,
            30.492242
          ],
          [
            109.18477,
            30.492238
          ],
          [
            109.184672,
            30.492273
          ],
          [
            109.184597,
            30.492275
          ],
          [
            109.184457,
            30.492352
          ],
          [
            109.18439,
            30.492372
          ],
          [
            109.184207,
            30.492393
          ],
          [
            109.183987,
            30.492447
          ],
          [
            109.183948,
            30.492492
          ],
          [
            109.183842,
            30.492525
          ],
          [
            109.183828,
            30.492702
          ],
          [
            109.18385,
            30.492812
          ],
          [
            109.183832,
            30.492793
          ],
          [
            109.183785,
            30.492647
          ],
          [
            109.18382,
            30.492578
          ],
          [
            109.183847,
            30.492585
          ],
          [
            109.183965,
            30.492655
          ],
          [
            109.184038,
            30.492657
          ],
          [
            109.184087,
            30.492677
          ],
          [
            109.184267,
            30.492788
          ],
          [
            109.184327,
            30.492878
          ],
          [
            109.184398,
            30.492888
          ],
          [
            109.184468,
            30.492948
          ],
          [
            109.184635,
            30.492933
          ],
          [
            109.184715,
            30.492948
          ],
          [
            109.18485,
            30.49305
          ],
          [
            109.184947,
            30.493058
          ],
          [
            109.184987,
            30.49304
          ],
          [
            109.185122,
            30.493062
          ],
          [
            109.185148,
            30.493093
          ],
          [
            109.185172,
            30.493093
          ],
          [
            109.185158,
            30.493143
          ],
          [
            109.185203,
            30.493147
          ],
          [
            109.185233,
            30.49311
          ],
          [
            109.18534,
            30.493113
          ],
          [
            109.185408,
            30.493133
          ],
          [
            109.185415,
            30.493185
          ],
          [
            109.185432,
            30.493193
          ],
          [
            109.185495,
            30.493173
          ],
          [
            109.185513,
            30.493193
          ],
          [
            109.185717,
            30.493228
          ],
          [
            109.185812,
            30.493277
          ],
          [
            109.185862,
            30.493347
          ],
          [
            109.185885,
            30.493405
          ],
          [
            109.185813,
            30.493432
          ],
          [
            109.18579,
            30.493313
          ],
          [
            109.185632,
            30.49322
          ],
          [
            109.185657,
            30.493215
          ],
          [
            109.185415,
            30.4932
          ],
          [
            109.185393,
            30.493185
          ],
          [
            109.185363,
            30.493067
          ],
          [
            109.185295,
            30.493055
          ],
          [
            109.185277,
            30.493033
          ],
          [
            109.185273,
            30.493045
          ],
          [
            109.185292,
            30.493012
          ],
          [
            109.18528,
            30.493037
          ],
          [
            109.185173,
            30.49303
          ],
          [
            109.1852,
            30.493045
          ],
          [
            109.185297,
            30.493045
          ],
          [
            109.185373,
            30.49309
          ],
          [
            109.18536,
            30.493105
          ],
          [
            109.185327,
            30.493105
          ],
          [
            109.185292,
            30.493142
          ],
          [
            109.185192,
            30.493137
          ],
          [
            109.185178,
            30.493118
          ],
          [
            109.1852,
            30.493115
          ],
          [
            109.185213,
            30.493132
          ],
          [
            109.185183,
            30.493148
          ],
          [
            109.185172,
            30.493078
          ],
          [
            109.18515,
            30.493125
          ],
          [
            109.185165,
            30.493148
          ],
          [
            109.185132,
            30.493147
          ],
          [
            109.185173,
            30.493103
          ],
          [
            109.185163,
            30.493078
          ],
          [
            109.185178,
            30.49318
          ],
          [
            109.18516,
            30.493223
          ],
          [
            109.1852,
            30.49314
          ],
          [
            109.185225,
            30.493153
          ],
          [
            109.185348,
            30.493137
          ],
          [
            109.185378,
            30.493173
          ],
          [
            109.18536,
            30.493187
          ],
          [
            109.185388,
            30.493227
          ],
          [
            109.185417,
            30.493238
          ],
          [
            109.185537,
            30.493235
          ],
          [
            109.185555,
            30.49321
          ],
          [
            109.185525,
            30.493185
          ],
          [
            109.185593,
            30.493172
          ],
          [
            109.185627,
            30.493207
          ],
          [
            109.185595,
            30.493255
          ],
          [
            109.185598,
            30.493237
          ],
          [
            109.185618,
            30.493255
          ],
          [
            109.185645,
            30.493315
          ],
          [
            109.18569,
            30.493312
          ],
          [
            109.185795,
            30.493348
          ],
          [
            109.18581,
            30.493367
          ],
          [
            109.18578,
            30.493403
          ],
          [
            109.185798,
            30.493443
          ],
          [
            109.185955,
            30.493572
          ],
          [
            109.18598,
            30.493553
          ],
          [
            109.186108,
            30.49355
          ],
          [
            109.186192,
            30.493648
          ],
          [
            109.186178,
            30.4937
          ],
          [
            109.186233,
            30.493795
          ],
          [
            109.1862,
            30.493885
          ],
          [
            109.186202,
            30.49393
          ],
          [
            109.186173,
            30.493963
          ],
          [
            109.186165,
            30.494045
          ],
          [
            109.186133,
            30.494087
          ],
          [
            109.186053,
            30.494158
          ],
          [
            109.18605,
            30.494178
          ],
          [
            109.185898,
            30.494263
          ],
          [
            109.185815,
            30.494368
          ],
          [
            109.185762,
            30.494392
          ],
          [
            109.185717,
            30.494392
          ],
          [
            109.185708,
            30.494472
          ],
          [
            109.185673,
            30.494558
          ],
          [
            109.185685,
            30.49462
          ],
          [
            109.18573,
            30.494685
          ],
          [
            109.185695,
            30.494803
          ],
          [
            109.185587,
            30.494828
          ],
          [
            109.18549,
            30.494793
          ],
          [
            109.18534,
            30.494775
          ],
          [
            109.185218,
            30.494727
          ],
          [
            109.185168,
            30.494727
          ],
          [
            109.185042,
            30.494828
          ],
          [
            109.184898,
            30.494828
          ],
          [
            109.18479,
            30.494885
          ],
          [
            109.184678,
            30.494897
          ],
          [
            109.184572,
            30.49485
          ],
          [
            109.184502,
            30.494843
          ],
          [
            109.184385,
            30.494912
          ],
          [
            109.184313,
            30.494972
          ],
          [
            109.184275,
            30.495047
          ],
          [
            109.184152,
            30.495105
          ],
          [
            109.18413,
            30.495218
          ],
          [
            109.184165,
            30.495242
          ],
          [
            109.184155,
            30.495308
          ],
          [
            109.184298,
            30.495323
          ],
          [
            109.184318,
            30.49537
          ],
          [
            109.184393,
            30.49538
          ],
          [
            109.18441,
            30.495477
          ],
          [
            109.184437,
            30.49547
          ],
          [
            109.184437,
            30.49549
          ],
          [
            109.18446,
            30.495473
          ],
          [
            109.184425,
            30.495498
          ],
          [
            109.18442,
            30.495582
          ],
          [
            109.184348,
            30.495672
          ],
          [
            109.18423,
            30.495737
          ],
          [
            109.184113,
            30.495735
          ],
          [
            109.184055,
            30.495778
          ],
          [
            109.183977,
            30.49579
          ],
          [
            109.183943,
            30.495825
          ],
          [
            109.183947,
            30.495843
          ],
          [
            109.183937,
            30.495827
          ],
          [
            109.183907,
            30.49607
          ],
          [
            109.18385,
            30.496097
          ],
          [
            109.183703,
            30.496113
          ],
          [
            109.183722,
            30.496123
          ],
          [
            109.183675,
            30.496145
          ],
          [
            109.183565,
            30.49614
          ],
          [
            109.183535,
            30.496218
          ],
          [
            109.183587,
            30.496268
          ],
          [
            109.183558,
            30.496327
          ],
          [
            109.18232,
            30.496753
          ],
          [
            109.182477,
            30.496727
          ],
          [
            109.182458,
            30.496762
          ],
          [
            109.182433,
            30.496745
          ],
          [
            109.182378,
            30.496778
          ],
          [
            109.182345,
            30.49683
          ],
          [
            109.182215,
            30.496882
          ],
          [
            109.182208,
            30.496967
          ],
          [
            109.182173,
            30.497012
          ],
          [
            109.182043,
            30.497027
          ],
          [
            109.181895,
            30.497017
          ],
          [
            109.181852,
            30.497042
          ],
          [
            109.181808,
            30.497033
          ],
          [
            109.181778,
            30.497045
          ],
          [
            109.181708,
            30.497108
          ],
          [
            109.181665,
            30.497095
          ],
          [
            109.181642,
            30.497107
          ],
          [
            109.181612,
            30.497213
          ],
          [
            109.181573,
            30.497223
          ],
          [
            109.181568,
            30.497252
          ],
          [
            109.18152,
            30.497282
          ],
          [
            109.18145,
            30.497282
          ],
          [
            109.181452,
            30.497325
          ],
          [
            109.181395,
            30.497368
          ],
          [
            109.181418,
            30.4974
          ],
          [
            109.181408,
            30.497417
          ],
          [
            109.181348,
            30.497437
          ],
          [
            109.181333,
            30.497518
          ],
          [
            109.181375,
            30.497523
          ],
          [
            109.181368,
            30.49759
          ],
          [
            109.181407,
            30.497618
          ],
          [
            109.18139,
            30.497713
          ],
          [
            109.181298,
            30.49781
          ],
          [
            109.18127,
            30.49787
          ],
          [
            109.181147,
            30.497938
          ],
          [
            109.181128,
            30.497965
          ],
          [
            109.18114,
            30.498
          ],
          [
            109.18121,
            30.497825
          ],
          [
            109.181152,
            30.497603
          ],
          [
            109.18114,
            30.497587
          ],
          [
            109.181043,
            30.497607
          ],
          [
            109.180983,
            30.497573
          ],
          [
            109.180727,
            30.49724
          ],
          [
            109.180628,
            30.497223
          ],
          [
            109.180578,
            30.497232
          ],
          [
            109.18051,
            30.497265
          ],
          [
            109.180348,
            30.497422
          ],
          [
            109.18009,
            30.497525
          ],
          [
            109.179963,
            30.497703
          ],
          [
            109.179952,
            30.497775
          ],
          [
            109.179838,
            30.498065
          ],
          [
            109.179827,
            30.498147
          ],
          [
            109.179772,
            30.498253
          ],
          [
            109.179828,
            30.498333
          ],
          [
            109.179955,
            30.498377
          ],
          [
            109.180028,
            30.49846
          ],
          [
            109.18001,
            30.498543
          ],
          [
            109.179962,
            30.498598
          ],
          [
            109.179863,
            30.498627
          ],
          [
            109.17979,
            30.498627
          ],
          [
            109.17959,
            30.498688
          ],
          [
            109.179538,
            30.498708
          ],
          [
            109.179448,
            30.498792
          ],
          [
            109.179422,
            30.498798
          ],
          [
            109.179307,
            30.498785
          ],
          [
            109.179235,
            30.498797
          ],
          [
            109.178967,
            30.498788
          ],
          [
            109.178593,
            30.498825
          ],
          [
            109.178457,
            30.498892
          ],
          [
            109.178293,
            30.499027
          ],
          [
            109.178212,
            30.499128
          ],
          [
            109.178135,
            30.499172
          ],
          [
            109.17811,
            30.499228
          ],
          [
            109.178128,
            30.49928
          ],
          [
            109.178293,
            30.49949
          ],
          [
            109.178345,
            30.49952
          ],
          [
            109.178335,
            30.49954
          ],
          [
            109.178358,
            30.499647
          ],
          [
            109.17839,
            30.499705
          ],
          [
            109.178465,
            30.499755
          ],
          [
            109.178493,
            30.499753
          ],
          [
            109.178608,
            30.499803
          ],
          [
            109.178678,
            30.499793
          ],
          [
            109.178567,
            30.499818
          ],
          [
            109.178415,
            30.499788
          ],
          [
            109.178363,
            30.499878
          ],
          [
            109.17836,
            30.499932
          ],
          [
            109.178198,
            30.499858
          ],
          [
            109.178138,
            30.49987
          ],
          [
            109.178097,
            30.49986
          ],
          [
            109.1782,
            30.499888
          ],
          [
            109.178265,
            30.500013
          ],
          [
            109.178338,
            30.500017
          ],
          [
            109.178355,
            30.500032
          ],
          [
            109.178367,
            30.500108
          ],
          [
            109.178422,
            30.500153
          ],
          [
            109.178395,
            30.500207
          ],
          [
            109.178478,
            30.500263
          ],
          [
            109.178367,
            30.500217
          ],
          [
            109.178322,
            30.500163
          ],
          [
            109.17819,
            30.500068
          ],
          [
            109.178118,
            30.500082
          ],
          [
            109.178087,
            30.500235
          ],
          [
            109.17809,
            30.500252
          ],
          [
            109.178227,
            30.500228
          ],
          [
            109.178245,
            30.50024
          ],
          [
            109.178247,
            30.500305
          ],
          [
            109.178275,
            30.500315
          ],
          [
            109.178387,
            30.50027
          ],
          [
            109.1784,
            30.500287
          ],
          [
            109.17836,
            30.50032
          ],
          [
            109.178382,
            30.50039
          ],
          [
            109.17855,
            30.500395
          ],
          [
            109.178482,
            30.500475
          ],
          [
            109.178585,
            30.500513
          ],
          [
            109.178675,
            30.500702
          ],
          [
            109.178712,
            30.500733
          ],
          [
            109.178785,
            30.50086
          ],
          [
            109.178992,
            30.500993
          ],
          [
            109.17904,
            30.501053
          ],
          [
            109.178953,
            30.501127
          ],
          [
            109.178712,
            30.501162
          ],
          [
            109.178652,
            30.501188
          ],
          [
            109.178643,
            30.501253
          ],
          [
            109.178647,
            30.501273
          ],
          [
            109.178683,
            30.501287
          ],
          [
            109.178685,
            30.501393
          ],
          [
            109.178817,
            30.501302
          ],
          [
            109.178883,
            30.50131
          ],
          [
            109.178858,
            30.501372
          ],
          [
            109.17888,
            30.501423
          ],
          [
            109.17885,
            30.501482
          ],
          [
            109.178857,
            30.501683
          ],
          [
            109.178882,
            30.501692
          ],
          [
            109.178912,
            30.501663
          ],
          [
            109.179038,
            30.501625
          ],
          [
            109.179122,
            30.501538
          ],
          [
            109.17917,
            30.501542
          ],
          [
            109.179145,
            30.501617
          ],
          [
            109.179223,
            30.5016
          ],
          [
            109.179302,
            30.501545
          ],
          [
            109.179348,
            30.501545
          ],
          [
            109.179255,
            30.501673
          ],
          [
            109.179238,
            30.501775
          ],
          [
            109.17925,
            30.501792
          ],
          [
            109.179373,
            30.501807
          ],
          [
            109.179438,
            30.501752
          ],
          [
            109.179532,
            30.501723
          ],
          [
            109.179562,
            30.50169
          ],
          [
            109.179588,
            30.501687
          ],
          [
            109.17956,
            30.501893
          ],
          [
            109.179702,
            30.502042
          ],
          [
            109.17973,
            30.502035
          ],
          [
            109.179778,
            30.50208
          ],
          [
            109.179808,
            30.502078
          ],
          [
            109.179852,
            30.50199
          ],
          [
            109.179802,
            30.501917
          ],
          [
            109.179813,
            30.50185
          ],
          [
            109.17984,
            30.50182
          ],
          [
            109.179932,
            30.501783
          ],
          [
            109.17998,
            30.50178
          ],
          [
            109.180007,
            30.501788
          ],
          [
            109.180067,
            30.50187
          ],
          [
            109.180022,
            30.501875
          ],
          [
            109.180005,
            30.501893
          ],
          [
            109.180067,
            30.501973
          ],
          [
            109.180078,
            30.502035
          ],
          [
            109.180037,
            30.502113
          ],
          [
            109.179992,
            30.502118
          ],
          [
            109.179795,
            30.502297
          ],
          [
            109.179443,
            30.50248
          ],
          [
            109.17913,
            30.502577
          ],
          [
            109.179075,
            30.502607
          ],
          [
            109.179065,
            30.50259
          ],
          [
            109.178962,
            30.502585
          ],
          [
            109.178985,
            30.502587
          ],
          [
            109.178957,
            30.502598
          ],
          [
            109.178875,
            30.502608
          ],
          [
            109.178718,
            30.502597
          ],
          [
            109.17868,
            30.502575
          ],
          [
            109.178622,
            30.502575
          ],
          [
            109.178352,
            30.502498
          ],
          [
            109.17828,
            30.502515
          ],
          [
            109.178213,
            30.502483
          ],
          [
            109.178157,
            30.50248
          ],
          [
            109.178042,
            30.502488
          ],
          [
            109.177818,
            30.502622
          ],
          [
            109.17774,
            30.502727
          ],
          [
            109.177733,
            30.502767
          ],
          [
            109.177745,
            30.502848
          ],
          [
            109.177805,
            30.503003
          ],
          [
            109.177767,
            30.503147
          ],
          [
            109.177745,
            30.503158
          ],
          [
            109.177723,
            30.503273
          ],
          [
            109.177727,
            30.503367
          ],
          [
            109.177628,
            30.503758
          ],
          [
            109.17767,
            30.503892
          ],
          [
            109.177665,
            30.503962
          ],
          [
            109.177607,
            30.504097
          ],
          [
            109.177407,
            30.504238
          ],
          [
            109.177375,
            30.504287
          ],
          [
            109.177283,
            30.504363
          ],
          [
            109.177262,
            30.504435
          ],
          [
            109.177175,
            30.504492
          ],
          [
            109.176998,
            30.504543
          ],
          [
            109.176935,
            30.504593
          ],
          [
            109.176932,
            30.504627
          ],
          [
            109.176957,
            30.504628
          ],
          [
            109.177098,
            30.50459
          ],
          [
            109.177022,
            30.504663
          ],
          [
            109.177023,
            30.504908
          ],
          [
            109.176953,
            30.505178
          ],
          [
            109.176973,
            30.505337
          ],
          [
            109.176915,
            30.505432
          ]
        ]
      }
    }
  ]
}
