{
  "type": "FeatureCollection",
  "features": [
    {
      "type": "Feature",
      "properties": {
        "name": "贡嘎大环线参考轨迹",
        "type": "hiking",
        "source": "霞客示例路书"
      },
      "geometry": {
        "type": "LineString",
        "coordinates": [
          [
            101.88,
            29.6
          ],
          [
            101.88125,
            29.600938
          ],
          [
            101.8825,
            29.601875
          ],
          [
            101.88375,
            29.602813
          ],
          [
            101.885,
            29.60375
          ],
          [
            101.88625,
            29.604688
          ],
          [
            101.8875,
            29.605625
          ],
          [
            101.88875,
            29.606563
          ],
          [
            101.89,
            29.6075
          ],
          [
            101.89125,
            29.608438
          ],
          [
            101.8925,
            29.609375
          ],
          [
            101.89375,
            29.610312
          ],
          [
            101.895,
            29.61125
          ],
          [
            101.89625,
            29.612188
          ],
          [
            101.8975,
            29.613125
          ],
          [
            101.89875,
            29.614062
          ],
          [
            101.9,
            29.615
          ],
          [
            101.90125,
            29.615938
          ],
          [
            101.9025,
            29.616875
          ],
          [
            101.90375,
            29.617812
          ],
          [
            101.905,
            29.61875
          ],
          [
            101.90625,
            29.619688
          ],
          [
            101.9075,
            29.620625
          ],
          [
            101.90875,
            29.621562
          ],
          [
            101.91,
            29.6225
          ],
          [
            101.91125,
            29.623437
          ],
          [
            101.9125,
            29.624375
          ],
          [
            101.91375,
            29.625312
          ],
          [
            101.915,
            29.62625
          ],
          [
            101.91625,
            29.627187
          ],
          [
            101.9175,
            29.628125
          ],
          [
            101.91875,
            29.629062
          ],
          [
            101.92,
            29.63
          ],
          [
            101.921071,
            29.630536
          ],
          [
            101.922143,
            29.631071
          ],
          [
            101.923214,
            29.631607
          ],
          [
            101.924286,
            29.632143
          ],
          [
            101.925357,
            29.632679
          ],
          [
            101.926429,
            29.633214
          ],
          [
            101.9275,
            29.63375
          ],
          [
            101.928571,
            29.634286
          ],
          [
            101.929643,
            29.634821
          ],
          [
            101.930714,
            29.635357
          ],
          [
            101.931786,
            29.635893
          ],
          [
            101.932857,
            29.636429
          ],
          [
            101.933929,
            29.636964
          ],
          [
            101.935,
            29.6375
          ],
          [
            101.936071,
            29.638036
          ],
          [
            101.937143,
            29.638571
          ],
          [
            101.938214,
            29.639107
          ],
          [
            101.939286,
            29.639643
          ],
          [
            101.940357,
            29.640179
          ],
          [
            101.941429,
            29.640714
          ],
          [
            101.9425,
            29.64125
          ],
          [
            101.943571,
            29.641786
          ],
          [
            101.944643,
            29.642321
          ],
          [
            101.945714,
            29.642857
          ],
          [
            101.946786,
            29.643393
          ],
          [
            101.947857,
            29.643929
          ],
          [
            101.948929,
            29.644464
          ],
          [
            101.95,
            29.645
          ],
          [
            101.951071,
            29.645536
          ],
          [
            101.952143,
            29.646071
          ],
          [
            101.953214,
            29.646607
          ],
          [
            101.954286,
            29.647143
          ],
          [
            101.955357,
            29.647679
          ],
          [
            101.956429,
            29.648214
          ],
          [
            101.9575,
            29.64875
          ],
          [
            101.958571,
            29.649286
          ],
          [
            101.959643,
            29.649821
          ],
          [
            101.960714,
            29.650357
          ],
          [
            101.961786,
            29.650893
          ],
          [
            101.962857,
            29.651429
          ],
          [
            101.963929,
            29.651964
          ],
          [
            101.965,
            29.6525
          ],
          [
            101.966071,
            29.653036
          ],
          [
            101.967143,
            29.653571
          ],
          [
            101.968214,
            29.654107
          ],
          [
            101.969286,
            29.654643
          ],
          [
            101.970357,
            29.655179
          ],
          [
            101.971429,
            29.655714
          ],
          [
            101.9725,
            29.65625
          ],
          [
            101.973571,
            29.656786
          ],
          [
            101.974643,
            29.657321
          ],
          [
            101.975714,
            29.657857
          ],
          [
            101.976786,
            29.658393
          ],
          [
            101.977857,
            29.658929
          ],
          [
            101.978929,
            29.659464
          ],
          [
            101.98,
            29.66
          ],
          [
            101.980625,
            29.660625
          ],
          [
            101.98125,
            29.66125
          ],
          [
            101.981875,
            29.661875
          ],
          [
            101.9825,
            29.6625
          ],
          [
            101.983125,
            29.663125
          ],
          [
            101.98375,
            29.66375
          ],
          [
            101.984375,
            29.664375
          ],
          [
            101.985,
            29.665
          ],
          [
            101.985625,
            29.665625
          ],
          [
            101.98625,
            29.66625
          ],
          [
            101.986875,
            29.666875
          ],
          [
            101.9875,
            29.6675
          ],
          [
            101.988125,
            29.668125
          ],
          [
            101.98875,
            29.66875
          ],
          [
            101.989375,
            29.669375
          ],
          [
            101.99,
            29.67
          ],
          [
            101.990625,
            29.670625
          ],
          [
            101.99125,
            29.67125
          ],
          [
            101.991875,
            29.671875
          ],
          [
            101.9925,
            29.6725
          ],
          [
            101.993125,
            29.673125
          ],
          [
            101.99375,
            29.67375
          ],
          [
            101.994375,
            29.674375
          ],
          [
            101.995,
            29.675
          ],
          [
            101.995625,
            29.675625
          ],
          [
            101.99625,
            29.67625
          ],
          [
            101.996875,
            29.676875
          ],
          [
            101.9975,
            29.6775
          ],
          [
            101.998125,
            29.678125
          ],
          [
            101.99875,
            29.67875
          ],
          [
            101.999375,
            29.679375
          ],
          [
            102,
            29.68
          ],
          [
            101.999333,
            29.679333
          ],
          [
            101.998667,
            29.678667
          ],
          [
            101.998,
            29.678
          ],
          [
            101.997333,
            29.677333
          ],
          [
            101.996667,
            29.676667
          ],
          [
            101.996,
            29.676
          ],
          [
            101.995333,
            29.675333
          ],
          [
            101.994667,
            29.674667
          ],
          [
            101.994,
            29.674
          ],
          [
            101.993333,
            29.673333
          ],
          [
            101.992667,
            29.672667
          ],
          [
            101.992,
            29.672
          ],
          [
            101.991333,
            29.671333
          ],
          [
            101.990667,
            29.670667
          ],
          [
            101.99,
            29.67
          ],
          [
            101.989333,
            29.669333
          ],
          [
            101.988667,
            29.668667
          ],
          [
            101.988,
            29.668
          ],
          [
            101.987333,
            29.667333
          ],
          [
            101.986667,
            29.666667
          ],
          [
            101.986,
            29.666
          ],
          [
            101.985333,
            29.665333
          ],
          [
            101.984667,
            29.664667
          ],
          [
            101.984,
            29.664
          ],
          [
            101.983333,
            29.663333
          ],
          [
            101.982667,
            29.662667
          ],
          [
            101.982,
            29.662
          ],
          [
            101.981333,
            29.661333
          ],
          [
            101.980667,
            29.660667
          ],
          [
            101.98,
            29.66
          ],
          [
            101.979333,
            29.659333
          ],
          [
            101.978667,
            29.658667
          ],
          [
            101.978,
            29.658
          ],
          [
            101.977333,
            29.657333
          ],
          [
            101.976667,
            29.656667
          ],
          [
            101.976,
            29.656
          ],
          [
            101.975333,
            29.655333
          ],
          [
            101.974667,
            29.654667
          ],
          [
            101.974,
            29.654
          ],
          [
            101.973333,
            29.653333
          ],
          [
            101.972667,
            29.652667
          ],
          [
            101.972,
            29.652
          ],
          [
            101.971333,
            29.651333
          ],
          [
            101.970667,
            29.650667
          ],
          [
            101.97,
            29.65
          ],
          [
            101.969333,
            29.649333
          ],
          [
            101.968667,
            29.648667
          ],
          [
            101.968,
            29.648
          ],
          [
            101.967333,
            29.647333
          ],
          [
            101.966667,
            29.646667
          ],
          [
            101.966,
            29.646
          ],
          [
            101.965333,
            29.645333
          ],
          [
            101.964667,
            29.644667
          ],
          [
            101.964,
            29.644
          ],
          [
            101.963333,
            29.643333
          ],
          [
            101.962667,
            29.642667
          ],
          [
            101.962,
            29.642
          ],
          [
            101.961333,
            29.641333
          ],
          [
            101.960667,
            29.640667
          ],
          [
            101.96,
            29.64
          ],
          [
            101.959375,
            29.639125
          ],
          [
            101.95875,
            29.63825
          ],
          [
            101.958125,
            29.637375
          ],
          [
            101.9575,
            29.6365
          ],
          [
            101.956875,
            29.635625
          ],
          [
            101.95625,
            29.63475
          ],
          [
            101.955625,
            29.633875
          ],
          [
            101.955,
            29.633
          ],
          [
            101.954375,
            29.632125
          ],
          [
            101.95375,
            29.63125
          ],
          [
            101.953125,
            29.630375
          ],
          [
            101.9525,
            29.6295
          ],
          [
            101.951875,
            29.628625
          ],
          [
            101.95125,
            29.62775
          ],
          [
            101.950625,
            29.626875
          ],
          [
            101.95,
            29.626
          ],
          [
            101.949375,
            29.625125
          ],
          [
            101.94875,
            29.62425
          ],
          [
            101.948125,
            29.623375
          ],
          [
            101.9475,
            29.6225
          ],
          [
            101.946875,
            29.621625
          ],
          [
            101.94625,
            29.62075
          ],
          [
            101.945625,
            29.619875
          ],
          [
            101.945,
            29.619
          ],
          [
            101.944375,
            29.618125
          ],
          [
            101.94375,
            29.61725
          ],
          [
            101.943125,
            29.616375
          ],
          [
            101.9425,
            29.6155
          ],
          [
            101.941875,
            29.614625
          ],
          [
            101.94125,
            29.61375
          ],
          [
            101.940625,
            29.612875
          ],
          [
            101.94,
            29.612
          ],
          [
            101.939375,
            29.611125
          ],
          [
            101.93875,
            29.61025
          ],
          [
            101.938125,
            29.609375
          ],
          [
            101.9375,
            29.6085
          ],
          [
            101.936875,
            29.607625
          ],
          [
            101.93625,
            29.60675
          ],
          [
            101.935625,
            29.605875
          ],
          [
            101.935,
            29.605
          ],
          [
            101.934375,
            29.604125
          ],
          [
            101.93375,
            29.60325
          ],
          [
            101.933125,
            29.602375
          ],
          [
            101.9325,
            29.6015
          ],
          [
            101.931875,
            29.600625
          ],
          [
            101.93125,
            29.59975
          ],
          [
            101.930625,
            29.598875
          ],
          [
            101.93,
            29.598
          ],
          [
            101.929375,
            29.597125
          ],
          [
            101.92875,
            29.59625
          ],
          [
            101.928125,
            29.595375
          ],
          [
            101.9275,
            29.5945
          ],
          [
            101.926875,
            29.593625
          ],
          [
            101.92625,
            29.59275
          ],
          [
            101.925625,
            29.591875
          ],
          [
            101.925,
            29.591
          ],
          [
            101.924375,
            29.590125
          ],
          [
            101.92375,
            29.58925
          ],
          [
            101.923125,
            29.588375
          ],
          [
            101.9225,
            29.5875
          ],
          [
            101.921875,
            29.586625
          ],
          [
            101.92125,
            29.58575
          ],
          [
            101.920625,
            29.584875
          ],
          [
            101.92,
            29.584
          ],
          [
            101.919375,
            29.583125
          ],
          [
            101.91875,
            29.58225
          ],
          [
            101.918125,
            29.581375
          ],
          [
            101.9175,
            29.5805
          ],
          [
            101.916875,
            29.579625
          ],
          [
            101.91625,
            29.57875
          ],
          [
            101.915625,
            29.577875
          ],
          [
            101.915,
            29.577
          ],
          [
            101.914375,
            29.576125
          ],
          [
            101.91375,
            29.57525
          ],
          [
            101.913125,
            29.574375
          ],
          [
            101.9125,
            29.5735
          ],
          [
            101.911875,
            29.572625
          ],
          [
            101.91125,
            29.57175
          ],
          [
            101.910625,
            29.570875
          ],
          [
            101.91,
            29.57
          ],
          [
            101.909,
            29.5695
          ],
          [
            101.908,
            29.569
          ],
          [
            101.907,
            29.5685
          ],
          [
            101.906,
            29.568
          ],
          [
            101.905,
            29.5675
          ],
          [
            101.904,
            29.567
          ],
          [
            101.903,
            29.5665
          ],
          [
            101.902,
            29.566
          ],
          [
            101.901,
            29.5655
          ],
          [
            101.9,
            29.565
          ],
          [
            101.899,
            29.5645
          ],
          [
            101.898,
            29.564
          ],
          [
            101.897,
            29.5635
          ],
          [
            101.896,
            29.563
          ],
          [
            101.895,
            29.5625
          ],
          [
            101.894,
            29.562
          ],
          [
            101.893,
            29.5615
          ],
          [
            101.892,
            29.561
          ],
          [
            101.891,
            29.5605
          ],
          [
            101.89,
            29.56
          ],
          [
            101.889,
            29.5595
          ],
          [
            101.888,
            29.559
          ],
          [
            101.887,
            29.5585
          ],
          [
            101.886,
            29.558
          ],
          [
            101.885,
            29.5575
          ],
          [
            101.884,
            29.557
          ],
          [
            101.883,
            29.5565
          ],
          [
            101.882,
            29.556
          ],
          [
            101.881,
            29.5555
          ],
          [
            101.88,
            29.555
          ],
          [
            101.879,
            29.5545
          ],
          [
            101.878,
            29.554
          ],
          [
            101.877,
            29.5535
          ],
          [
            101.876,
            29.553
          ],
          [
            101.875,
            29.5525
          ],
          [
            101.874,
            29.552
          ],
          [
            101.873,
            29.5515
          ],
          [
            101.872,
            29.551
          ],
          [
            101.871,
            29.5505
          ],
          [
            101.87,
            29.55
          ],
          [
            101.869,
            29.5495
          ],
          [
            101.868,
            29.549
          ],
          [
            101.867,
            29.5485
          ],
          [
            101.866,
            29.548
          ],
          [
            101.865,
            29.5475
          ],
          [
            101.864,
            29.547
          ],
          [
            101.863,
            29.5465
          ],
          [
            101.862,
            29.546
          ],
          [
            101.861,
            29.5455
          ],
          [
            101.86,
            29.545
          ],
          [
            101.859,
            29.5445
          ],
          [
            101.858,
            29.544
          ],
          [
            101.857,
            29.5435
          ],
          [
            101.856,
            29.543
          ],
          [
            101.855,
            29.5425
          ],
          [
            101.854,
            29.542
          ],
          [
            101.853,
            29.5415
          ],
          [
            101.852,
            29.541
          ],
          [
            101.851,
            29.5405
          ],
          [
            101.85,
            29.54
          ]
        ]
      }
    }
  ]
}