<?xml version="1.0" encoding="UTF-8"?>
<gpx version="1.1" creator="霞客示例路书" xmlns="http://www.topografix.com/GPX/1/1">
  <metadata><name>贡嘎大环线参考轨迹</name></metadata>
  <trk><name>贡嘎大环线</name><trkseg>
      <trkpt lat="29.6" lon="101.88"><ele>3000</ele></trkpt>
      <trkpt lat="29.600938" lon="101.88125"><ele>3013</ele></trkpt>
      <trkpt lat="29.601875" lon="101.8825"><ele>3025</ele></trkpt>
      <trkpt lat="29.602813" lon="101.88375"><ele>3038</ele></trkpt>
      <trkpt lat="29.60375" lon="101.885"><ele>3050</ele></trkpt>
      <trkpt lat="29.604688" lon="101.88625"><ele>3063</ele></trkpt>
      <trkpt lat="29.605625" lon="101.8875"><ele>3075</ele></trkpt>
      <trkpt lat="29.606563" lon="101.88875"><ele>3088</ele></trkpt>
      <trkpt lat="29.6075" lon="101.89"><ele>3100</ele></trkpt>
      <trkpt lat="29.608438" lon="101.89125"><ele>3113</ele></trkpt>
      <trkpt lat="29.609375" lon="101.8925"><ele>3125</ele></trkpt>
      <trkpt lat="29.610312" lon="101.89375"><ele>3138</ele></trkpt>
      <trkpt lat="29.61125" lon="101.895"><ele>3150</ele></trkpt>
      <trkpt lat="29.612188" lon="101.89625"><ele>3163</ele></trkpt>
      <trkpt lat="29.613125" lon="101.8975"><ele>3175</ele></trkpt>
      <trkpt lat="29.614062" lon="101.89875"><ele>3188</ele></trkpt>
      <trkpt lat="29.615" lon="101.9"><ele>3200</ele></trkpt>
      <trkpt lat="29.615938" lon="101.90125"><ele>3213</ele></trkpt>
      <trkpt lat="29.616875" lon="101.9025"><ele>3225</ele></trkpt>
      <trkpt lat="29.617812" lon="101.90375"><ele>3238</ele></trkpt>
      <trkpt lat="29.61875" lon="101.905"><ele>3250</ele></trkpt>
      <trkpt lat="29.619688" lon="101.90625"><ele>3263</ele></trkpt>
      <trkpt lat="29.620625" lon="101.9075"><ele>3275</ele></trkpt>
      <trkpt lat="29.621562" lon="101.90875"><ele>3288</ele></trkpt>
      <trkpt lat="29.6225" lon="101.91"><ele>3300</ele></trkpt>
      <trkpt lat="29.623437" lon="101.91125"><ele>3313</ele></trkpt>
      <trkpt lat="29.624375" lon="101.9125"><ele>3325</ele></trkpt>
      <trkpt lat="29.625312" lon="101.91375"><ele>3338</ele></trkpt>
      <trkpt lat="29.62625" lon="101.915"><ele>3350</ele></trkpt>
      <trkpt lat="29.627187" lon="101.91625"><ele>3363</ele></trkpt>
      <trkpt lat="29.628125" lon="101.9175"><ele>3375</ele></trkpt>
      <trkpt lat="29.629062" lon="101.91875"><ele>3388</ele></trkpt>
      <trkpt lat="29.63" lon="101.92"><ele>3400</ele></trkpt>
      <trkpt lat="29.630536" lon="101.921071"><ele>3417</ele></trkpt>
      <trkpt lat="29.631071" lon="101.922143"><ele>3434</ele></trkpt>
      <trkpt lat="29.631607" lon="101.923214"><ele>3451</ele></trkpt>
      <trkpt lat="29.632143" lon="101.924286"><ele>3468</ele></trkpt>
      <trkpt lat="29.632679" lon="101.925357"><ele>3485</ele></trkpt>
      <trkpt lat="29.633214" lon="101.926429"><ele>3502</ele></trkpt>
      <trkpt lat="29.63375" lon="101.9275"><ele>3519</ele></trkpt>
      <trkpt lat="29.634286" lon="101.928571"><ele>3536</ele></trkpt>
      <trkpt lat="29.634821" lon="101.929643"><ele>3553</ele></trkpt>
      <trkpt lat="29.635357" lon="101.930714"><ele>3570</ele></trkpt>
      <trkpt lat="29.635893" lon="101.931786"><ele>3587</ele></trkpt>
      <trkpt lat="29.636429" lon="101.932857"><ele>3604</ele></trkpt>
      <trkpt lat="29.636964" lon="101.933929"><ele>3621</ele></trkpt>
      <trkpt lat="29.6375" lon="101.935"><ele>3638</ele></trkpt>
      <trkpt lat="29.638036" lon="101.936071"><ele>3654</ele></trkpt>
      <trkpt lat="29.638571" lon="101.937143"><ele>3671</ele></trkpt>
      <trkpt lat="29.639107" lon="101.938214"><ele>3688</ele></trkpt>
      <trkpt lat="29.639643" lon="101.939286"><ele>3705</ele></trkpt>
      <trkpt lat="29.640179" lon="101.940357"><ele>3722</ele></trkpt>
      <trkpt lat="29.640714" lon="101.941429"><ele>3739</ele></trkpt>
      <trkpt lat="29.64125" lon="101.9425"><ele>3756</ele></trkpt>
      <trkpt lat="29.641786" lon="101.943571"><ele>3773</ele></trkpt>
      <trkpt lat="29.642321" lon="101.944643"><ele>3790</ele></trkpt>
      <trkpt lat="29.642857" lon="101.945714"><ele>3807</ele></trkpt>
      <trkpt lat="29.643393" lon="101.946786"><ele>3824</ele></trkpt>
      <trkpt lat="29.643929" lon="101.947857"><ele>3841</ele></trkpt>
      <trkpt lat="29.644464" lon="101.948929"><ele>3858</ele></trkpt>
      <trkpt lat="29.645" lon="101.95"><ele>3875</ele></trkpt>
      <trkpt lat="29.645536" lon="101.951071"><ele>3892</ele></trkpt>
      <trkpt lat="29.646071" lon="101.952143"><ele>3909</ele></trkpt>
      <trkpt lat="29.646607" lon="101.953214"><ele>3926</ele></trkpt>
      <trkpt lat="29.647143" lon="101.954286"><ele>3943</ele></trkpt>
      <trkpt lat="29.647679" lon="101.955357"><ele>3960</ele></trkpt>
      <trkpt lat="29.648214" lon="101.956429"><ele>3977</ele></trkpt>
      <trkpt lat="29.64875" lon="101.9575"><ele>3994</ele></trkpt>
      <trkpt lat="29.649286" lon="101.958571"><ele>4011</ele></trkpt>
      <trkpt lat="29.649821" lon="101.959643"><ele>4028</ele></trkpt>
      <trkpt lat="29.650357" lon="101.960714"><ele>4045</ele></trkpt>
      <trkpt lat="29.650893" lon="101.961786"><ele>4062</ele></trkpt>
      <trkpt lat="29.651429" lon="101.962857"><ele>4079</ele></trkpt>
      <trkpt lat="29.651964" lon="101.963929"><ele>4096</ele></trkpt>
      <trkpt lat="29.6525" lon="101.965"><ele>4113</ele></trkpt>
      <trkpt lat="29.653036" lon="101.966071"><ele>4129</ele></trkpt>
      <trkpt lat="29.653571" lon="101.967143"><ele>4146</ele></trkpt>
      <trkpt lat="29.654107" lon="101.968214"><ele>4163</ele></trkpt>
      <trkpt lat="29.654643" lon="101.969286"><ele>4180</ele></trkpt>
      <trkpt lat="29.655179" lon="101.970357"><ele>4197</ele></trkpt>
      <trkpt lat="29.655714" lon="101.971429"><ele>4214</ele></trkpt>
      <trkpt lat="29.65625" lon="101.9725"><ele>4231</ele></trkpt>
      <trkpt lat="29.656786" lon="101.973571"><ele>4248</ele></trkpt>
      <trkpt lat="29.657321" lon="101.974643"><ele>4265</ele></trkpt>
      <trkpt lat="29.657857" lon="101.975714"><ele>4282</ele></trkpt>
      <trkpt lat="29.658393" lon="101.976786"><ele>4299</ele></trkpt>
      <trkpt lat="29.658929" lon="101.977857"><ele>4316</ele></trkpt>
      <trkpt lat="29.659464" lon="101.978929"><ele>4333</ele></trkpt>
      <trkpt lat="29.66" lon="101.98"><ele>4350</ele></trkpt>
      <trkpt lat="29.660625" lon="101.980625"><ele>4368</ele></trkpt>
      <trkpt lat="29.66125" lon="101.98125"><ele>4386</ele></trkpt>
      <trkpt lat="29.661875" lon="101.981875"><ele>4403</ele></trkpt>
      <trkpt lat="29.6625" lon="101.9825"><ele>4421</ele></trkpt>
      <trkpt lat="29.663125" lon="101.983125"><ele>4439</ele></trkpt>
      <trkpt lat="29.66375" lon="101.98375"><ele>4457</ele></trkpt>
      <trkpt lat="29.664375" lon="101.984375"><ele>4475</ele></trkpt>
      <trkpt lat="29.665" lon="101.985"><ele>4493</ele></trkpt>
      <trkpt lat="29.665625" lon="101.985625"><ele>4510</ele></trkpt>
      <trkpt lat="29.66625" lon="101.98625"><ele>4528</ele></trkpt>
      <trkpt lat="29.666875" lon="101.986875"><ele>4546</ele></trkpt>
      <trkpt lat="29.6675" lon="101.9875"><ele>4564</ele></trkpt>
      <trkpt lat="29.668125" lon="101.988125"><ele>4582</ele></trkpt>
      <trkpt lat="29.66875" lon="101.98875"><ele>4599</ele></trkpt>
      <trkpt lat="29.669375" lon="101.989375"><ele>4617</ele></trkpt>
      <trkpt lat="29.67" lon="101.99"><ele>4635</ele></trkpt>
      <trkpt lat="29.670625" lon="101.990625"><ele>4653</ele></trkpt>
      <trkpt lat="29.67125" lon="101.99125"><ele>4671</ele></trkpt>
      <trkpt lat="29.671875" lon="101.991875"><ele>4688</ele></trkpt>
      <trkpt lat="29.6725" lon="101.9925"><ele>4706</ele></trkpt>
      <trkpt lat="29.673125" lon="101.993125"><ele>4724</ele></trkpt>
      <trkpt lat="29.67375" lon="101.99375"><ele>4742</ele></trkpt>
      <trkpt lat="29.674375" lon="101.994375"><ele>4760</ele></trkpt>
      <trkpt lat="29.675" lon="101.995"><ele>4778</ele></trkpt>
      <trkpt lat="29.675625" lon="101.995625"><ele>4795</ele></trkpt>
      <trkpt lat="29.67625" lon="101.99625"><ele>4813</ele></trkpt>
      <trkpt lat="29.676875" lon="101.996875"><ele>4831</ele></trkpt>
      <trkpt lat="29.6775" lon="101.9975"><ele>4849</ele></trkpt>
      <trkpt lat="29.678125" lon="101.998125"><ele>4867</ele></trkpt>
      <trkpt lat="29.67875" lon="101.99875"><ele>4884</ele></trkpt>
      <trkpt lat="29.679375" lon="101.999375"><ele>4902</ele></trkpt>
      <trkpt lat="29.68" lon="102"><ele>4920</ele></trkpt>
      <trkpt lat="29.679333" lon="101.999333"><ele>4903</ele></trkpt>
      <trkpt lat="29.678667" lon="101.998667"><ele>4886</ele></trkpt>
      <trkpt lat="29.678" lon="101.998"><ele>4869</ele></trkpt>
      <trkpt lat="29.677333" lon="101.997333"><ele>4852</ele></trkpt>
      <trkpt lat="29.676667" lon="101.996667"><ele>4835</ele></trkpt>
      <trkpt lat="29.676" lon="101.996"><ele>4818</ele></trkpt>
      <trkpt lat="29.675333" lon="101.995333"><ele>4801</ele></trkpt>
      <trkpt lat="29.674667" lon="101.994667"><ele>4784</ele></trkpt>
      <trkpt lat="29.674" lon="101.994"><ele>4767</ele></trkpt>
      <trkpt lat="29.673333" lon="101.993333"><ele>4750</ele></trkpt>
      <trkpt lat="29.672667" lon="101.992667"><ele>4733</ele></trkpt>
      <trkpt lat="29.672" lon="101.992"><ele>4716</ele></trkpt>
      <trkpt lat="29.671333" lon="101.991333"><ele>4699</ele></trkpt>
      <trkpt lat="29.670667" lon="101.990667"><ele>4682</ele></trkpt>
      <trkpt lat="29.67" lon="101.99"><ele>4665</ele></trkpt>
      <trkpt lat="29.669333" lon="101.989333"><ele>4648</ele></trkpt>
      <trkpt lat="29.668667" lon="101.988667"><ele>4631</ele></trkpt>
      <trkpt lat="29.668" lon="101.988"><ele>4614</ele></trkpt>
      <trkpt lat="29.667333" lon="101.987333"><ele>4597</ele></trkpt>
      <trkpt lat="29.666667" lon="101.986667"><ele>4580</ele></trkpt>
      <trkpt lat="29.666" lon="101.986"><ele>4563</ele></trkpt>
      <trkpt lat="29.665333" lon="101.985333"><ele>4546</ele></trkpt>
      <trkpt lat="29.664667" lon="101.984667"><ele>4529</ele></trkpt>
      <trkpt lat="29.664" lon="101.984"><ele>4512</ele></trkpt>
      <trkpt lat="29.663333" lon="101.983333"><ele>4495</ele></trkpt>
      <trkpt lat="29.662667" lon="101.982667"><ele>4478</ele></trkpt>
      <trkpt lat="29.662" lon="101.982"><ele>4461</ele></trkpt>
      <trkpt lat="29.661333" lon="101.981333"><ele>4444</ele></trkpt>
      <trkpt lat="29.660667" lon="101.980667"><ele>4427</ele></trkpt>
      <trkpt lat="29.66" lon="101.98"><ele>4410</ele></trkpt>
      <trkpt lat="29.659333" lon="101.979333"><ele>4393</ele></trkpt>
      <trkpt lat="29.658667" lon="101.978667"><ele>4376</ele></trkpt>
      <trkpt lat="29.658" lon="101.978"><ele>4359</ele></trkpt>
      <trkpt lat="29.657333" lon="101.977333"><ele>4342</ele></trkpt>
      <trkpt lat="29.656667" lon="101.976667"><ele>4325</ele></trkpt>
      <trkpt lat="29.656" lon="101.976"><ele>4308</ele></trkpt>
      <trkpt lat="29.655333" lon="101.975333"><ele>4291</ele></trkpt>
      <trkpt lat="29.654667" lon="101.974667"><ele>4274</ele></trkpt>
      <trkpt lat="29.654" lon="101.974"><ele>4257</ele></trkpt>
      <trkpt lat="29.653333" lon="101.973333"><ele>4240</ele></trkpt>
      <trkpt lat="29.652667" lon="101.972667"><ele>4223</ele></trkpt>
      <trkpt lat="29.652" lon="101.972"><ele>4206</ele></trkpt>
      <trkpt lat="29.651333" lon="101.971333"><ele>4189</ele></trkpt>
      <trkpt lat="29.650667" lon="101.970667"><ele>4172</ele></trkpt>
      <trkpt lat="29.65" lon="101.97"><ele>4155</ele></trkpt>
      <trkpt lat="29.649333" lon="101.969333"><ele>4138</ele></trkpt>
      <trkpt lat="29.648667" lon="101.968667"><ele>4121</ele></trkpt>
      <trkpt lat="29.648" lon="101.968"><ele>4104</ele></trkpt>
      <trkpt lat="29.647333" lon="101.967333"><ele>4087</ele></trkpt>
      <trkpt lat="29.646667" lon="101.966667"><ele>4070</ele></trkpt>
      <trkpt lat="29.646" lon="101.966"><ele>4053</ele></trkpt>
      <trkpt lat="29.645333" lon="101.965333"><ele>4036</ele></trkpt>
      <trkpt lat="29.644667" lon="101.964667"><ele>4019</ele></trkpt>
      <trkpt lat="29.644" lon="101.964"><ele>4002</ele></trkpt>
      <trkpt lat="29.643333" lon="101.963333"><ele>3985</ele></trkpt>
      <trkpt lat="29.642667" lon="101.962667"><ele>3968</ele></trkpt>
      <trkpt lat="29.642" lon="101.962"><ele>3951</ele></trkpt>
      <trkpt lat="29.641333" lon="101.961333"><ele>3934</ele></trkpt>
      <trkpt lat="29.640667" lon="101.960667"><ele>3917</ele></trkpt>
      <trkpt lat="29.64" lon="101.96"><ele>3900</ele></trkpt>
      <trkpt lat="29.639125" lon="101.959375"><ele>3898</ele></trkpt>
      <trkpt lat="29.63825" lon="101.95875"><ele>3896</ele></trkpt>
      <trkpt lat="29.637375" lon="101.958125"><ele>3894</ele></trkpt>
      <trkpt lat="29.6365" lon="101.9575"><ele>3893</ele></trkpt>
      <trkpt lat="29.635625" lon="101.956875"><ele>3891</ele></trkpt>
      <trkpt lat="29.63475" lon="101.95625"><ele>3889</ele></trkpt>
      <trkpt lat="29.633875" lon="101.955625"><ele>3887</ele></trkpt>
      <trkpt lat="29.633" lon="101.955"><ele>3885</ele></trkpt>
      <trkpt lat="29.632125" lon="101.954375"><ele>3883</ele></trkpt>
      <trkpt lat="29.63125" lon="101.95375"><ele>3881</ele></trkpt>
      <trkpt lat="29.630375" lon="101.953125"><ele>3879</ele></trkpt>
      <trkpt lat="29.6295" lon="101.9525"><ele>3878</ele></trkpt>
      <trkpt lat="29.628625" lon="101.951875"><ele>3876</ele></trkpt>
      <trkpt lat="29.62775" lon="101.95125"><ele>3874</ele></trkpt>
      <trkpt lat="29.626875" lon="101.950625"><ele>3872</ele></trkpt>
      <trkpt lat="29.626" lon="101.95"><ele>3870</ele></trkpt>
      <trkpt lat="29.625125" lon="101.949375"><ele>3868</ele></trkpt>
      <trkpt lat="29.62425" lon="101.94875"><ele>3866</ele></trkpt>
      <trkpt lat="29.623375" lon="101.948125"><ele>3864</ele></trkpt>
      <trkpt lat="29.6225" lon="101.9475"><ele>3863</ele></trkpt>
      <trkpt lat="29.621625" lon="101.946875"><ele>3861</ele></trkpt>
      <trkpt lat="29.62075" lon="101.94625"><ele>3859</ele></trkpt>
      <trkpt lat="29.619875" lon="101.945625"><ele>3857</ele></trkpt>
      <trkpt lat="29.619" lon="101.945"><ele>3855</ele></trkpt>
      <trkpt lat="29.618125" lon="101.944375"><ele>3853</ele></trkpt>
      <trkpt lat="29.61725" lon="101.94375"><ele>3851</ele></trkpt>
      <trkpt lat="29.616375" lon="101.943125"><ele>3849</ele></trkpt>
      <trkpt lat="29.6155" lon="101.9425"><ele>3848</ele></trkpt>
      <trkpt lat="29.614625" lon="101.941875"><ele>3846</ele></trkpt>
      <trkpt lat="29.61375" lon="101.94125"><ele>3844</ele></trkpt>
      <trkpt lat="29.612875" lon="101.940625"><ele>3842</ele></trkpt>
      <trkpt lat="29.612" lon="101.94"><ele>3840</ele></trkpt>
      <trkpt lat="29.611125" lon="101.939375"><ele>3838</ele></trkpt>
      <trkpt lat="29.61025" lon="101.93875"><ele>3836</ele></trkpt>
      <trkpt lat="29.609375" lon="101.938125"><ele>3834</ele></trkpt>
      <trkpt lat="29.6085" lon="101.9375"><ele>3833</ele></trkpt>
      <trkpt lat="29.607625" lon="101.936875"><ele>3831</ele></trkpt>
      <trkpt lat="29.60675" lon="101.93625"><ele>3829</ele></trkpt>
      <trkpt lat="29.605875" lon="101.935625"><ele>3827</ele></trkpt>
      <trkpt lat="29.605" lon="101.935"><ele>3825</ele></trkpt>
      <trkpt lat="29.604125" lon="101.934375"><ele>3823</ele></trkpt>
      <trkpt lat="29.60325" lon="101.93375"><ele>3821</ele></trkpt>
      <trkpt lat="29.602375" lon="101.933125"><ele>3819</ele></trkpt>
      <trkpt lat="29.6015" lon="101.9325"><ele>3818</ele></trkpt>
      <trkpt lat="29.600625" lon="101.931875"><ele>3816</ele></trkpt>
      <trkpt lat="29.59975" lon="101.93125"><ele>3814</ele></trkpt>
      <trkpt lat="29.598875" lon="101.930625"><ele>3812</ele></trkpt>
      <trkpt lat="29.598" lon="101.93"><ele>3810</ele></trkpt>
      <trkpt lat="29.597125" lon="101.929375"><ele>3808</ele></trkpt>
      <trkpt lat="29.59625" lon="101.92875"><ele>3806</ele></trkpt>
      <trkpt lat="29.595375" lon="101.928125"><ele>3804</ele></trkpt>
      <trkpt lat="29.5945" lon="101.9275"><ele>3803</ele></trkpt>
      <trkpt lat="29.593625" lon="101.926875"><ele>3801</ele></trkpt>
      <trkpt lat="29.59275" lon="101.92625"><ele>3799</ele></trkpt>
      <trkpt lat="29.591875" lon="101.925625"><ele>3797</ele></trkpt>
      <trkpt lat="29.591" lon="101.925"><ele>3795</ele></trkpt>
      <trkpt lat="29.590125" lon="101.924375"><ele>3793</ele></trkpt>
      <trkpt lat="29.58925" lon="101.92375"><ele>3791</ele></trkpt>
      <trkpt lat="29.588375" lon="101.923125"><ele>3789</ele></trkpt>
      <trkpt lat="29.5875" lon="101.9225"><ele>3788</ele></trkpt>
      <trkpt lat="29.586625" lon="101.921875"><ele>3786</ele></trkpt>
      <trkpt lat="29.58575" lon="101.92125"><ele>3784</ele></trkpt>
      <trkpt lat="29.584875" lon="101.920625"><ele>3782</ele></trkpt>
      <trkpt lat="29.584" lon="101.92"><ele>3780</ele></trkpt>
      <trkpt lat="29.583125" lon="101.919375"><ele>3778</ele></trkpt>
      <trkpt lat="29.58225" lon="101.91875"><ele>3776</ele></trkpt>
      <trkpt lat="29.581375" lon="101.918125"><ele>3774</ele></trkpt>
      <trkpt lat="29.5805" lon="101.9175"><ele>3773</ele></trkpt>
      <trkpt lat="29.579625" lon="101.916875"><ele>3771</ele></trkpt>
      <trkpt lat="29.57875" lon="101.91625"><ele>3769</ele></trkpt>
      <trkpt lat="29.577875" lon="101.915625"><ele>3767</ele></trkpt>
      <trkpt lat="29.577" lon="101.915"><ele>3765</ele></trkpt>
      <trkpt lat="29.576125" lon="101.914375"><ele>3763</ele></trkpt>
      <trkpt lat="29.57525" lon="101.91375"><ele>3761</ele></trkpt>
      <trkpt lat="29.574375" lon="101.913125"><ele>3759</ele></trkpt>
      <trkpt lat="29.5735" lon="101.9125"><ele>3758</ele></trkpt>
      <trkpt lat="29.572625" lon="101.911875"><ele>3756</ele></trkpt>
      <trkpt lat="29.57175" lon="101.91125"><ele>3754</ele></trkpt>
      <trkpt lat="29.570875" lon="101.910625"><ele>3752</ele></trkpt>
      <trkpt lat="29.57" lon="101.91"><ele>3750</ele></trkpt>
      <trkpt lat="29.5695" lon="101.909"><ele>3763</ele></trkpt>
      <trkpt lat="29.569" lon="101.908"><ele>3777</ele></trkpt>
      <trkpt lat="29.5685" lon="101.907"><ele>3790</ele></trkpt>
      <trkpt lat="29.568" lon="101.906"><ele>3803</ele></trkpt>
      <trkpt lat="29.5675" lon="101.905"><ele>3817</ele></trkpt>
      <trkpt lat="29.567" lon="101.904"><ele>3830</ele></trkpt>
      <trkpt lat="29.5665" lon="101.903"><ele>3843</ele></trkpt>
      <trkpt lat="29.566" lon="101.902"><ele>3857</ele></trkpt>
      <trkpt lat="29.5655" lon="101.901"><ele>3870</ele></trkpt>
      <trkpt lat="29.565" lon="101.9"><ele>3883</ele></trkpt>
      <trkpt lat="29.5645" lon="101.899"><ele>3897</ele></trkpt>
      <trkpt lat="29.564" lon="101.898"><ele>3910</ele></trkpt>
      <trkpt lat="29.5635" lon="101.897"><ele>3923</ele></trkpt>
      <trkpt lat="29.563" lon="101.896"><ele>3937</ele></trkpt>
      <trkpt lat="29.5625" lon="101.895"><ele>3950</ele></trkpt>
      <trkpt lat="29.562" lon="101.894"><ele>3963</ele></trkpt>
      <trkpt lat="29.5615" lon="101.893"><ele>3977</ele></trkpt>
      <trkpt lat="29.561" lon="101.892"><ele>3990</ele></trkpt>
      <trkpt lat="29.5605" lon="101.891"><ele>4003</ele></trkpt>
      <trkpt lat="29.56" lon="101.89"><ele>4017</ele></trkpt>
      <trkpt lat="29.5595" lon="101.889"><ele>4030</ele></trkpt>
      <trkpt lat="29.559" lon="101.888"><ele>4043</ele></trkpt>
      <trkpt lat="29.5585" lon="101.887"><ele>4057</ele></trkpt>
      <trkpt lat="29.558" lon="101.886"><ele>4070</ele></trkpt>
      <trkpt lat="29.5575" lon="101.885"><ele>4083</ele></trkpt>
      <trkpt lat="29.557" lon="101.884"><ele>4097</ele></trkpt>
      <trkpt lat="29.5565" lon="101.883"><ele>4110</ele></trkpt>
      <trkpt lat="29.556" lon="101.882"><ele>4123</ele></trkpt>
      <trkpt lat="29.5555" lon="101.881"><ele>4137</ele></trkpt>
      <trkpt lat="29.555" lon="101.88"><ele>4150</ele></trkpt>
      <trkpt lat="29.5545" lon="101.879"><ele>4163</ele></trkpt>
      <trkpt lat="29.554" lon="101.878"><ele>4177</ele></trkpt>
      <trkpt lat="29.5535" lon="101.877"><ele>4190</ele></trkpt>
      <trkpt lat="29.553" lon="101.876"><ele>4203</ele></trkpt>
      <trkpt lat="29.5525" lon="101.875"><ele>4217</ele></trkpt>
      <trkpt lat="29.552" lon="101.874"><ele>4230</ele></trkpt>
      <trkpt lat="29.5515" lon="101.873"><ele>4243</ele></trkpt>
      <trkpt lat="29.551" lon="101.872"><ele>4257</ele></trkpt>
      <trkpt lat="29.5505" lon="101.871"><ele>4270</ele></trkpt>
      <trkpt lat="29.55" lon="101.87"><ele>4283</ele></trkpt>
      <trkpt lat="29.5495" lon="101.869"><ele>4297</ele></trkpt>
      <trkpt lat="29.549" lon="101.868"><ele>4310</ele></trkpt>
      <trkpt lat="29.5485" lon="101.867"><ele>4323</ele></trkpt>
      <trkpt lat="29.548" lon="101.866"><ele>4337</ele></trkpt>
      <trkpt lat="29.5475" lon="101.865"><ele>4350</ele></trkpt>
      <trkpt lat="29.547" lon="101.864"><ele>4363</ele></trkpt>
      <trkpt lat="29.5465" lon="101.863"><ele>4377</ele></trkpt>
      <trkpt lat="29.546" lon="101.862"><ele>4390</ele></trkpt>
      <trkpt lat="29.5455" lon="101.861"><ele>4403</ele></trkpt>
      <trkpt lat="29.545" lon="101.86"><ele>4417</ele></trkpt>
      <trkpt lat="29.5445" lon="101.859"><ele>4430</ele></trkpt>
      <trkpt lat="29.544" lon="101.858"><ele>4443</ele></trkpt>
      <trkpt lat="29.5435" lon="101.857"><ele>4457</ele></trkpt>
      <trkpt lat="29.543" lon="101.856"><ele>4470</ele></trkpt>
      <trkpt lat="29.5425" lon="101.855"><ele>4483</ele></trkpt>
      <trkpt lat="29.542" lon="101.854"><ele>4497</ele></trkpt>
      <trkpt lat="29.5415" lon="101.853"><ele>4510</ele></trkpt>
      <trkpt lat="29.541" lon="101.852"><ele>4523</ele></trkpt>
      <trkpt lat="29.5405" lon="101.851"><ele>4537</ele></trkpt>
      <trkpt lat="29.54" lon="101.85"><ele>4550</ele></trkpt>
    </trkseg></trk>
</gpx>
