{
  "type": "FeatureCollection",
  "features": [
    {
      "type": "Feature",
      "properties": {
        "name": "黄山参考轨迹",
        "type": "hiking",
        "source": "两步路用户轨迹",
        "segments": 1
      },
      "geometry": {
        "type": "LineString",
        "coordinates": [
          [
            118.165689,
            30.102935
          ],
          [
            118.165618,
            30.103049
          ],
          [
            118.165581,
            30.103076
          ],
          [
            118.165573,
            30.103052
          ],
          [
            118.165644,
            30.102893
          ],
          [
            118.165757,
            30.102728
          ],
          [
            118.165782,
            30.102727
          ],
          [
            118.165647,
            30.102904
          ],
          [
            118.165463,
            30.103233
          ],
          [
            118.16535,
            30.103271
          ],
          [
            118.1652,
            30.103291
          ],
          [
            118.165118,
            30.103332
          ],
          [
            118.165059,
            30.103626
          ],
          [
            118.164997,
            30.103752
          ],
          [
            118.164927,
            30.103816
          ],
          [
            118.164494,
            30.104071
          ],
          [
            118.164159,
            30.104241
          ],
          [
            118.163991,
            30.104295
          ],
          [
            118.163889,
            30.104363
          ],
          [
            118.163715,
            30.104536
          ],
          [
            118.163654,
            30.104649
          ],
          [
            118.163677,
            30.104859
          ],
          [
            118.163754,
            30.104972
          ],
          [
            118.163936,
            30.105092
          ],
          [
            118.164041,
            30.105198
          ],
          [
            118.164173,
            30.105409
          ],
          [
            118.164196,
            30.105501
          ],
          [
            118.164186,
            30.10555
          ],
          [
            118.164133,
            30.105614
          ],
          [
            118.164089,
            30.105621
          ],
          [
            118.164052,
            30.105648
          ],
          [
            118.163821,
            30.105878
          ],
          [
            118.163565,
            30.106056
          ],
          [
            118.163495,
            30.106159
          ],
          [
            118.163276,
            30.106303
          ],
          [
            118.163208,
            30.106407
          ],
          [
            118.163162,
            30.106544
          ],
          [
            118.163124,
            30.1066
          ],
          [
            118.16295,
            30.106693
          ],
          [
            118.162691,
            30.106883
          ],
          [
            118.162589,
            30.107019
          ],
          [
            118.162573,
            30.10707
          ],
          [
            118.162617,
            30.107156
          ],
          [
            118.162768,
            30.107328
          ],
          [
            118.162858,
            30.107413
          ],
          [
            118.162915,
            30.107444
          ],
          [
            118.163144,
            30.107473
          ],
          [
            118.163316,
            30.107471
          ],
          [
            118.163405,
            30.107493
          ],
          [
            118.163511,
            30.107481
          ],
          [
            118.163723,
            30.107491
          ],
          [
            118.164072,
            30.107634
          ],
          [
            118.164295,
            30.10764
          ],
          [
            118.164361,
            30.107599
          ],
          [
            118.164427,
            30.107511
          ],
          [
            118.164456,
            30.107385
          ],
          [
            118.164479,
            30.107094
          ],
          [
            118.164508,
            30.107031
          ],
          [
            118.164554,
            30.106984
          ],
          [
            118.164697,
            30.106897
          ],
          [
            118.165019,
            30.106765
          ],
          [
            118.165299,
            30.106611
          ],
          [
            118.165422,
            30.106582
          ],
          [
            118.165633,
            30.1065
          ],
          [
            118.165634,
            30.106476
          ],
          [
            118.165822,
            30.106366
          ],
          [
            118.166266,
            30.106219
          ],
          [
            118.16647,
            30.106134
          ],
          [
            118.166549,
            30.10612
          ],
          [
            118.166684,
            30.106132
          ],
          [
            118.166763,
            30.106162
          ],
          [
            118.16684,
            30.106227
          ],
          [
            118.166995,
            30.106435
          ],
          [
            118.167076,
            30.106517
          ],
          [
            118.167149,
            30.106556
          ],
          [
            118.167289,
            30.106598
          ],
          [
            118.16727,
            30.106682
          ],
          [
            118.167328,
            30.10677
          ],
          [
            118.167309,
            30.106852
          ],
          [
            118.16733,
            30.106884
          ],
          [
            118.16742,
            30.106914
          ],
          [
            118.167576,
            30.106895
          ],
          [
            118.167581,
            30.106911
          ],
          [
            118.167548,
            30.106954
          ],
          [
            118.167556,
            30.106977
          ],
          [
            118.167625,
            30.106966
          ],
          [
            118.167672,
            30.10699
          ],
          [
            118.167672,
            30.107023
          ],
          [
            118.167639,
            30.107078
          ],
          [
            118.167514,
            30.107184
          ],
          [
            118.167419,
            30.107291
          ],
          [
            118.167403,
            30.107356
          ],
          [
            118.167414,
            30.107407
          ],
          [
            118.1674,
            30.107413
          ],
          [
            118.16743,
            30.107419
          ],
          [
            118.167371,
            30.107426
          ],
          [
            118.167342,
            30.107464
          ],
          [
            118.167366,
            30.107523
          ],
          [
            118.167412,
            30.107565
          ],
          [
            118.167554,
            30.107632
          ],
          [
            118.167648,
            30.107647
          ],
          [
            118.167653,
            30.107659
          ],
          [
            118.167597,
            30.107931
          ],
          [
            118.167642,
            30.108003
          ],
          [
            118.167614,
            30.108095
          ],
          [
            118.167662,
            30.108135
          ],
          [
            118.167676,
            30.108189
          ],
          [
            118.167616,
            30.108318
          ],
          [
            118.167632,
            30.108383
          ],
          [
            118.167713,
            30.108531
          ],
          [
            118.167703,
            30.108618
          ],
          [
            118.167776,
            30.108757
          ],
          [
            118.167897,
            30.10878
          ],
          [
            118.167935,
            30.108806
          ],
          [
            118.167938,
            30.108837
          ],
          [
            118.167857,
            30.108895
          ],
          [
            118.167831,
            30.108938
          ],
          [
            118.168017,
            30.108958
          ],
          [
            118.168108,
            30.109039
          ],
          [
            118.1681,
            30.109184
          ],
          [
            118.168136,
            30.109265
          ],
          [
            118.168141,
            30.109381
          ],
          [
            118.168187,
            30.109449
          ],
          [
            118.168202,
            30.109597
          ],
          [
            118.168244,
            30.109663
          ],
          [
            118.168343,
            30.109727
          ],
          [
            118.16835,
            30.10981
          ],
          [
            118.168325,
            30.109934
          ],
          [
            118.168359,
            30.109986
          ],
          [
            118.168503,
            30.110036
          ],
          [
            118.168524,
            30.11006
          ],
          [
            118.168465,
            30.110165
          ],
          [
            118.16845,
            30.110314
          ],
          [
            118.168411,
            30.110371
          ],
          [
            118.168415,
            30.110398
          ],
          [
            118.168511,
            30.110478
          ],
          [
            118.168668,
            30.110513
          ],
          [
            118.168712,
            30.110539
          ],
          [
            118.168642,
            30.110664
          ],
          [
            118.168642,
            30.110719
          ],
          [
            118.168698,
            30.11086
          ],
          [
            118.16864,
            30.111001
          ],
          [
            118.168746,
            30.111189
          ],
          [
            118.168755,
            30.111279
          ],
          [
            118.168742,
            30.111328
          ],
          [
            118.168797,
            30.111435
          ],
          [
            118.16887,
            30.111654
          ],
          [
            118.168936,
            30.111768
          ],
          [
            118.168964,
            30.111912
          ],
          [
            118.168937,
            30.11195
          ],
          [
            118.168937,
            30.111985
          ],
          [
            118.169001,
            30.112041
          ],
          [
            118.169053,
            30.112139
          ],
          [
            118.169037,
            30.112267
          ],
          [
            118.169087,
            30.112323
          ],
          [
            118.169158,
            30.112546
          ],
          [
            118.169207,
            30.112603
          ],
          [
            118.169213,
            30.112589
          ],
          [
            118.16918,
            30.112642
          ],
          [
            118.169179,
            30.112684
          ],
          [
            118.169254,
            30.112776
          ],
          [
            118.169443,
            30.113086
          ],
          [
            118.169499,
            30.113131
          ],
          [
            118.169551,
            30.113234
          ],
          [
            118.169641,
            30.113323
          ],
          [
            118.169661,
            30.113375
          ],
          [
            118.169642,
            30.113627
          ],
          [
            118.16967,
            30.113719
          ],
          [
            118.169648,
            30.11377
          ],
          [
            118.169694,
            30.113861
          ],
          [
            118.169654,
            30.114014
          ],
          [
            118.169693,
            30.114083
          ],
          [
            118.169751,
            30.11432
          ],
          [
            118.169837,
            30.114429
          ],
          [
            118.169901,
            30.114465
          ],
          [
            118.16991,
            30.114507
          ],
          [
            118.169909,
            30.114569
          ],
          [
            118.169771,
            30.114676
          ],
          [
            118.169765,
            30.114728
          ],
          [
            118.169823,
            30.114791
          ],
          [
            118.169933,
            30.114967
          ],
          [
            118.170023,
            30.115049
          ],
          [
            118.170147,
            30.115119
          ],
          [
            118.170205,
            30.115126
          ],
          [
            118.170285,
            30.115102
          ],
          [
            118.170409,
            30.115029
          ],
          [
            118.170483,
            30.115023
          ],
          [
            118.170537,
            30.115178
          ],
          [
            118.17049,
            30.115279
          ],
          [
            118.170653,
            30.115502
          ],
          [
            118.170687,
            30.11564
          ],
          [
            118.170731,
            30.115709
          ],
          [
            118.170716,
            30.115737
          ],
          [
            118.170652,
            30.11576
          ],
          [
            118.170602,
            30.115858
          ],
          [
            118.170634,
            30.115892
          ],
          [
            118.170732,
            30.115926
          ],
          [
            118.170744,
            30.115953
          ],
          [
            118.170678,
            30.116042
          ],
          [
            118.170566,
            30.116048
          ],
          [
            118.170438,
            30.116139
          ],
          [
            118.170423,
            30.11617
          ],
          [
            118.17043,
            30.116288
          ],
          [
            118.17047,
            30.116337
          ],
          [
            118.17053,
            30.116371
          ],
          [
            118.170592,
            30.116366
          ],
          [
            118.170642,
            30.116336
          ],
          [
            118.170807,
            30.116433
          ],
          [
            118.170835,
            30.116479
          ],
          [
            118.17081,
            30.11658
          ],
          [
            118.170871,
            30.11663
          ],
          [
            118.170928,
            30.116725
          ],
          [
            118.171015,
            30.116755
          ],
          [
            118.171001,
            30.116773
          ],
          [
            118.171163,
            30.116739
          ],
          [
            118.171212,
            30.116851
          ],
          [
            118.171356,
            30.116917
          ],
          [
            118.171424,
            30.116995
          ],
          [
            118.17146,
            30.117134
          ],
          [
            118.171453,
            30.117189
          ],
          [
            118.171404,
            30.117248
          ],
          [
            118.171196,
            30.117341
          ],
          [
            118.171179,
            30.117385
          ],
          [
            118.171216,
            30.117448
          ],
          [
            118.171426,
            30.117541
          ],
          [
            118.17147,
            30.117657
          ],
          [
            118.171487,
            30.117769
          ],
          [
            118.171589,
            30.117851
          ],
          [
            118.171582,
            30.117903
          ],
          [
            118.171531,
            30.117937
          ],
          [
            118.171548,
            30.117992
          ],
          [
            118.171609,
            30.118045
          ],
          [
            118.171596,
            30.118189
          ],
          [
            118.171567,
            30.118233
          ],
          [
            118.171473,
            30.118303
          ],
          [
            118.171434,
            30.118412
          ],
          [
            118.171374,
            30.118455
          ],
          [
            118.171271,
            30.118496
          ],
          [
            118.171139,
            30.118587
          ],
          [
            118.171097,
            30.118671
          ],
          [
            118.171031,
            30.118743
          ],
          [
            118.171085,
            30.118814
          ],
          [
            118.171156,
            30.11884
          ],
          [
            118.171267,
            30.119049
          ],
          [
            118.17133,
            30.119198
          ],
          [
            118.171312,
            30.119272
          ],
          [
            118.17132,
            30.119322
          ],
          [
            118.171388,
            30.119336
          ],
          [
            118.17143,
            30.119324
          ],
          [
            118.171453,
            30.119298
          ],
          [
            118.171372,
            30.119359
          ],
          [
            118.171415,
            30.119394
          ],
          [
            118.171484,
            30.119395
          ],
          [
            118.171413,
            30.119523
          ],
          [
            118.171372,
            30.119718
          ],
          [
            118.171339,
            30.119755
          ],
          [
            118.171157,
            30.119862
          ],
          [
            118.171102,
            30.12005
          ],
          [
            118.171089,
            30.120188
          ],
          [
            118.170957,
            30.120398
          ],
          [
            118.170748,
            30.120528
          ],
          [
            118.170618,
            30.120563
          ],
          [
            118.170586,
            30.12064
          ],
          [
            118.170522,
            30.120707
          ],
          [
            118.170458,
            30.120697
          ],
          [
            118.170408,
            30.120652
          ],
          [
            118.170308,
            30.120672
          ],
          [
            118.170411,
            30.120662
          ],
          [
            118.170433,
            30.120639
          ],
          [
            118.170429,
            30.120611
          ],
          [
            118.170388,
            30.120651
          ],
          [
            118.1704,
            30.12067
          ],
          [
            118.170589,
            30.120796
          ],
          [
            118.170687,
            30.120838
          ],
          [
            118.170779,
            30.12096
          ],
          [
            118.170779,
            30.121089
          ],
          [
            118.170742,
            30.12116
          ],
          [
            118.170753,
            30.121182
          ],
          [
            118.170671,
            30.121347
          ],
          [
            118.170688,
            30.121372
          ],
          [
            118.170668,
            30.121501
          ],
          [
            118.170615,
            30.12157
          ],
          [
            118.170558,
            30.121711
          ],
          [
            118.170557,
            30.121824
          ],
          [
            118.170448,
            30.121938
          ],
          [
            118.170265,
            30.121996
          ],
          [
            118.170355,
            30.122197
          ],
          [
            118.170324,
            30.122328
          ],
          [
            118.170319,
            30.122521
          ],
          [
            118.17042,
            30.12267
          ],
          [
            118.170503,
            30.122717
          ],
          [
            118.170461,
            30.122806
          ],
          [
            118.17054,
            30.122923
          ],
          [
            118.170531,
            30.12303
          ],
          [
            118.170565,
            30.12305
          ],
          [
            118.17068,
            30.123049
          ],
          [
            118.170943,
            30.12297
          ],
          [
            118.171058,
            30.123039
          ],
          [
            118.171085,
            30.123092
          ],
          [
            118.17112,
            30.123095
          ],
          [
            118.171219,
            30.123048
          ],
          [
            118.171243,
            30.123007
          ],
          [
            118.171316,
            30.123005
          ],
          [
            118.17137,
            30.123075
          ],
          [
            118.171158,
            30.123242
          ],
          [
            118.171121,
            30.123251
          ],
          [
            118.17102,
            30.123582
          ],
          [
            118.170964,
            30.123626
          ],
          [
            118.170967,
            30.12368
          ],
          [
            118.170884,
            30.123748
          ],
          [
            118.170874,
            30.123811
          ],
          [
            118.170833,
            30.12382
          ],
          [
            118.170869,
            30.123922
          ],
          [
            118.170824,
            30.123908
          ],
          [
            118.170766,
            30.123919
          ],
          [
            118.170734,
            30.123978
          ],
          [
            118.170613,
            30.124022
          ],
          [
            118.170581,
            30.124257
          ],
          [
            118.17051,
            30.12439
          ],
          [
            118.170508,
            30.124445
          ],
          [
            118.168456,
            30.124722
          ],
          [
            118.168572,
            30.124783
          ],
          [
            118.168715,
            30.124814
          ],
          [
            118.169171,
            30.124848
          ],
          [
            118.169407,
            30.124916
          ],
          [
            118.169669,
            30.124916
          ],
          [
            118.169738,
            30.124962
          ],
          [
            118.169839,
            30.125078
          ],
          [
            118.169887,
            30.125005
          ],
          [
            118.169828,
            30.125067
          ],
          [
            118.169639,
            30.125122
          ],
          [
            118.169496,
            30.125201
          ],
          [
            118.169372,
            30.125349
          ],
          [
            118.169242,
            30.125413
          ],
          [
            118.169202,
            30.125468
          ],
          [
            118.169223,
            30.125516
          ],
          [
            118.169218,
            30.1255
          ],
          [
            118.169197,
            30.125506
          ],
          [
            118.169052,
            30.125645
          ],
          [
            118.16904,
            30.125709
          ],
          [
            118.168964,
            30.125863
          ],
          [
            118.168935,
            30.125884
          ],
          [
            118.168802,
            30.125906
          ],
          [
            118.168498,
            30.126082
          ],
          [
            118.168401,
            30.126168
          ],
          [
            118.168235,
            30.126214
          ],
          [
            118.16817,
            30.126284
          ],
          [
            118.168136,
            30.126356
          ],
          [
            118.168088,
            30.126397
          ],
          [
            118.167996,
            30.126414
          ],
          [
            118.167852,
            30.126412
          ],
          [
            118.167739,
            30.126462
          ],
          [
            118.167632,
            30.126488
          ],
          [
            118.167472,
            30.126445
          ],
          [
            118.167382,
            30.126322
          ],
          [
            118.16726,
            30.126307
          ],
          [
            118.167187,
            30.126241
          ],
          [
            118.167104,
            30.126123
          ],
          [
            118.16708,
            30.126041
          ],
          [
            118.166985,
            30.125887
          ],
          [
            118.166984,
            30.125834
          ],
          [
            118.166935,
            30.125749
          ],
          [
            118.16687,
            30.125673
          ],
          [
            118.166726,
            30.125613
          ],
          [
            118.166434,
            30.125562
          ],
          [
            118.166281,
            30.125586
          ],
          [
            118.166057,
            30.125591
          ],
          [
            118.165813,
            30.125644
          ],
          [
            118.165779,
            30.125627
          ],
          [
            118.165655,
            30.12549
          ],
          [
            118.165581,
            30.125464
          ],
          [
            118.165481,
            30.125471
          ],
          [
            118.165349,
            30.125583
          ],
          [
            118.165268,
            30.125595
          ],
          [
            118.165146,
            30.125644
          ],
          [
            118.164931,
            30.125754
          ],
          [
            118.164861,
            30.125816
          ],
          [
            118.1648,
            30.12581
          ],
          [
            118.164546,
            30.12606
          ],
          [
            118.164455,
            30.126116
          ],
          [
            118.164336,
            30.126235
          ],
          [
            118.164149,
            30.126338
          ],
          [
            118.164063,
            30.12642
          ],
          [
            118.164056,
            30.126452
          ],
          [
            118.164081,
            30.126539
          ],
          [
            118.164028,
            30.12666
          ],
          [
            118.163948,
            30.126771
          ],
          [
            118.163854,
            30.126848
          ],
          [
            118.163777,
            30.126858
          ],
          [
            118.163682,
            30.126951
          ],
          [
            118.16347,
            30.127093
          ],
          [
            118.163421,
            30.127153
          ],
          [
            118.1634,
            30.127195
          ],
          [
            118.163407,
            30.127221
          ],
          [
            118.163499,
            30.127211
          ],
          [
            118.163634,
            30.127097
          ],
          [
            118.163694,
            30.127081
          ],
          [
            118.163731,
            30.127108
          ],
          [
            118.163745,
            30.127152
          ],
          [
            118.163688,
            30.12727
          ],
          [
            118.163645,
            30.127671
          ],
          [
            118.163824,
            30.127999
          ],
          [
            118.163885,
            30.128046
          ],
          [
            118.163981,
            30.128082
          ],
          [
            118.164083,
            30.128291
          ],
          [
            118.164079,
            30.128384
          ],
          [
            118.163978,
            30.128557
          ],
          [
            118.163916,
            30.128613
          ],
          [
            118.16376,
            30.128612
          ],
          [
            118.163627,
            30.128682
          ],
          [
            118.163394,
            30.128739
          ],
          [
            118.163248,
            30.128753
          ],
          [
            118.163099,
            30.128807
          ],
          [
            118.1631,
            30.128853
          ],
          [
            118.163259,
            30.128923
          ],
          [
            118.163285,
            30.128959
          ],
          [
            118.163151,
            30.128966
          ],
          [
            118.16302,
            30.12903
          ],
          [
            118.162895,
            30.129058
          ],
          [
            118.162978,
            30.129148
          ],
          [
            118.16295,
            30.129203
          ],
          [
            118.162982,
            30.129176
          ],
          [
            118.163011,
            30.129243
          ],
          [
            118.163091,
            30.129214
          ],
          [
            118.163133,
            30.129253
          ],
          [
            118.163126,
            30.129281
          ],
          [
            118.162995,
            30.129374
          ],
          [
            118.162897,
            30.129413
          ],
          [
            118.162781,
            30.129485
          ],
          [
            118.162597,
            30.12949
          ],
          [
            118.162419,
            30.129581
          ],
          [
            118.162172,
            30.129637
          ],
          [
            118.161988,
            30.129734
          ],
          [
            118.16196,
            30.12972
          ],
          [
            118.161937,
            30.129665
          ],
          [
            118.161952,
            30.129609
          ],
          [
            118.16196,
            30.129701
          ],
          [
            118.161876,
            30.129833
          ],
          [
            118.161782,
            30.130133
          ],
          [
            118.161852,
            30.13033
          ],
          [
            118.16185,
            30.130374
          ],
          [
            118.161709,
            30.130613
          ],
          [
            118.161703,
            30.130696
          ],
          [
            118.161749,
            30.130938
          ],
          [
            118.161718,
            30.131038
          ],
          [
            118.161714,
            30.131238
          ],
          [
            118.161579,
            30.131444
          ],
          [
            118.161633,
            30.13163
          ],
          [
            118.161818,
            30.131766
          ],
          [
            118.161957,
            30.131801
          ],
          [
            118.162113,
            30.131804
          ],
          [
            118.162238,
            30.131785
          ],
          [
            118.162481,
            30.131839
          ],
          [
            118.162493,
            30.131817
          ],
          [
            118.162654,
            30.131919
          ],
          [
            118.162846,
            30.132099
          ],
          [
            118.162839,
            30.132142
          ],
          [
            118.16269,
            30.132236
          ],
          [
            118.162648,
            30.132353
          ],
          [
            118.162533,
            30.132396
          ],
          [
            118.162471,
            30.132443
          ],
          [
            118.162363,
            30.132478
          ],
          [
            118.162287,
            30.132469
          ],
          [
            118.162285,
            30.132457
          ],
          [
            118.162343,
            30.132462
          ],
          [
            118.162311,
            30.132436
          ],
          [
            118.162325,
            30.132477
          ],
          [
            118.162364,
            30.132497
          ],
          [
            118.162543,
            30.132535
          ],
          [
            118.162587,
            30.132441
          ],
          [
            118.162618,
            30.132483
          ],
          [
            118.162626,
            30.132587
          ],
          [
            118.162792,
            30.132535
          ],
          [
            118.162835,
            30.13256
          ],
          [
            118.162866,
            30.132609
          ],
          [
            118.16298,
            30.132644
          ],
          [
            118.163076,
            30.132599
          ],
          [
            118.163221,
            30.132427
          ],
          [
            118.163288,
            30.132403
          ],
          [
            118.163317,
            30.132413
          ],
          [
            118.163597,
            30.132791
          ],
          [
            118.163699,
            30.132999
          ],
          [
            118.163819,
            30.133112
          ],
          [
            118.163902,
            30.133238
          ],
          [
            118.164084,
            30.133381
          ],
          [
            118.164158,
            30.13362
          ],
          [
            118.164139,
            30.13371
          ],
          [
            118.164096,
            30.13378
          ],
          [
            118.163921,
            30.133908
          ],
          [
            118.163832,
            30.133995
          ],
          [
            118.163723,
            30.134045
          ],
          [
            118.16357,
            30.134147
          ],
          [
            118.163442,
            30.1343
          ],
          [
            118.163457,
            30.134357
          ],
          [
            118.163536,
            30.134459
          ],
          [
            118.163753,
            30.134438
          ],
          [
            118.163863,
            30.134368
          ],
          [
            118.163922,
            30.134363
          ],
          [
            118.164026,
            30.134465
          ],
          [
            118.164241,
            30.134448
          ],
          [
            118.164256,
            30.13447
          ],
          [
            118.164279,
            30.13432
          ],
          [
            118.164344,
            30.134213
          ],
          [
            118.164506,
            30.134147
          ],
          [
            118.164527,
            30.134242
          ],
          [
            118.164518,
            30.134146
          ],
          [
            118.16454,
            30.13408
          ],
          [
            118.164569,
            30.134059
          ],
          [
            118.164551,
            30.134059
          ],
          [
            118.164511,
            30.134096
          ],
          [
            118.164489,
            30.134081
          ],
          [
            118.164378,
            30.134116
          ],
          [
            118.164265,
            30.134306
          ],
          [
            118.164211,
            30.134351
          ],
          [
            118.164044,
            30.134439
          ],
          [
            118.164014,
            30.134439
          ],
          [
            118.163894,
            30.134364
          ],
          [
            118.163627,
            30.134455
          ],
          [
            118.163521,
            30.134464
          ],
          [
            118.163333,
            30.134536
          ],
          [
            118.163186,
            30.134475
          ],
          [
            118.163182,
            30.134397
          ],
          [
            118.163154,
            30.134362
          ],
          [
            118.163184,
            30.134491
          ],
          [
            118.163281,
            30.134525
          ],
          [
            118.163307,
            30.134519
          ],
          [
            118.163322,
            30.134443
          ],
          [
            118.163376,
            30.134373
          ],
          [
            118.163689,
            30.134104
          ],
          [
            118.164052,
            30.133872
          ],
          [
            118.164187,
            30.133729
          ],
          [
            118.164224,
            30.133648
          ],
          [
            118.164201,
            30.133499
          ],
          [
            118.164146,
            30.133371
          ],
          [
            118.164002,
            30.133284
          ],
          [
            118.163885,
            30.133163
          ],
          [
            118.163696,
            30.132899
          ],
          [
            118.163606,
            30.132704
          ],
          [
            118.163372,
            30.132433
          ],
          [
            118.163311,
            30.132401
          ],
          [
            118.1632,
            30.132434
          ],
          [
            118.163086,
            30.132569
          ],
          [
            118.163041,
            30.132599
          ],
          [
            118.162945,
            30.132614
          ],
          [
            118.16287,
            30.132587
          ],
          [
            118.162846,
            30.13256
          ],
          [
            118.162809,
            30.132557
          ],
          [
            118.162688,
            30.132621
          ],
          [
            118.162562,
            30.132641
          ],
          [
            118.162419,
            30.132691
          ],
          [
            118.162264,
            30.132783
          ],
          [
            118.162218,
            30.132847
          ],
          [
            118.16216,
            30.133023
          ],
          [
            118.162065,
            30.133136
          ],
          [
            118.161921,
            30.133376
          ],
          [
            118.161657,
            30.133543
          ],
          [
            118.1616,
            30.133652
          ],
          [
            118.161553,
            30.133697
          ],
          [
            118.161467,
            30.133738
          ],
          [
            118.161338,
            30.13376
          ],
          [
            118.16129,
            30.133789
          ],
          [
            118.16115,
            30.133999
          ],
          [
            118.161054,
            30.134066
          ],
          [
            118.160583,
            30.134222
          ],
          [
            118.160367,
            30.134264
          ],
          [
            118.160309,
            30.134305
          ],
          [
            118.160215,
            30.134423
          ],
          [
            118.160128,
            30.134467
          ],
          [
            118.160056,
            30.134461
          ],
          [
            118.159991,
            30.134379
          ],
          [
            118.159888,
            30.134315
          ],
          [
            118.159615,
            30.134367
          ],
          [
            118.159413,
            30.134489
          ],
          [
            118.159317,
            30.134593
          ],
          [
            118.159216,
            30.134622
          ],
          [
            118.159075,
            30.134699
          ],
          [
            118.159022,
            30.134642
          ],
          [
            118.15901,
            30.13458
          ],
          [
            118.159006,
            30.134472
          ],
          [
            118.159035,
            30.134385
          ],
          [
            118.159029,
            30.134349
          ],
          [
            118.159004,
            30.134294
          ],
          [
            118.158901,
            30.134218
          ],
          [
            118.158934,
            30.13406
          ],
          [
            118.15891,
            30.134012
          ],
          [
            118.158848,
            30.13399
          ],
          [
            118.158618,
            30.134
          ],
          [
            118.158122,
            30.134093
          ],
          [
            118.157559,
            30.134249
          ],
          [
            118.15738,
            30.134235
          ],
          [
            118.156961,
            30.134281
          ],
          [
            118.156588,
            30.134352
          ],
          [
            118.156362,
            30.134434
          ],
          [
            118.156306,
            30.134432
          ],
          [
            118.156363,
            30.134398
          ],
          [
            118.156406,
            30.134313
          ],
          [
            118.156385,
            30.134248
          ],
          [
            118.155995,
            30.134054
          ],
          [
            118.155763,
            30.134106
          ],
          [
            118.155737,
            30.134154
          ],
          [
            118.155614,
            30.13424
          ],
          [
            118.155569,
            30.134233
          ],
          [
            118.155538,
            30.134191
          ],
          [
            118.155516,
            30.134196
          ],
          [
            118.155522,
            30.134206
          ],
          [
            118.15557,
            30.134213
          ],
          [
            118.155557,
            30.134225
          ],
          [
            118.155572,
            30.134233
          ],
          [
            118.15559,
            30.13423
          ],
          [
            118.155562,
            30.134222
          ],
          [
            118.155701,
            30.134222
          ],
          [
            118.155762,
            30.134204
          ],
          [
            118.155809,
            30.134012
          ],
          [
            118.155803,
            30.133986
          ],
          [
            118.155774,
            30.133967
          ],
          [
            118.155636,
            30.133982
          ],
          [
            118.155501,
            30.134027
          ],
          [
            118.155318,
            30.134021
          ],
          [
            118.155166,
            30.134081
          ],
          [
            118.155094,
            30.134131
          ],
          [
            118.155099,
            30.134115
          ],
          [
            118.155099,
            30.134134
          ],
          [
            118.155113,
            30.134112
          ],
          [
            118.15502,
            30.134111
          ],
          [
            118.154812,
            30.134172
          ],
          [
            118.154693,
            30.13418
          ],
          [
            118.154312,
            30.134326
          ],
          [
            118.154145,
            30.134348
          ],
          [
            118.154011,
            30.13433
          ],
          [
            118.153724,
            30.134335
          ],
          [
            118.153585,
            30.134315
          ],
          [
            118.153441,
            30.134338
          ],
          [
            118.153325,
            30.134315
          ],
          [
            118.153129,
            30.134321
          ],
          [
            118.153121,
            30.134171
          ],
          [
            118.153049,
            30.134079
          ],
          [
            118.153041,
            30.133997
          ],
          [
            118.153006,
            30.133913
          ],
          [
            118.152957,
            30.133875
          ],
          [
            118.15274,
            30.133842
          ],
          [
            118.152642,
            30.133792
          ],
          [
            118.152672,
            30.133819
          ],
          [
            118.152561,
            30.133799
          ],
          [
            118.152436,
            30.133836
          ],
          [
            118.15217,
            30.133864
          ],
          [
            118.152054,
            30.133868
          ],
          [
            118.152022,
            30.133837
          ],
          [
            118.15192,
            30.133861
          ],
          [
            118.15184,
            30.133883
          ],
          [
            118.151816,
            30.134019
          ],
          [
            118.151775,
            30.133988
          ],
          [
            118.151667,
            30.134021
          ],
          [
            118.151444,
            30.134017
          ],
          [
            118.151342,
            30.13407
          ],
          [
            118.151285,
            30.134072
          ],
          [
            118.15099,
            30.134216
          ],
          [
            118.150974,
            30.134078
          ],
          [
            118.150865,
            30.134153
          ],
          [
            118.150806,
            30.134175
          ],
          [
            118.150724,
            30.134158
          ],
          [
            118.150722,
            30.134119
          ],
          [
            118.150737,
            30.134111
          ],
          [
            118.150754,
            30.134113
          ],
          [
            118.150747,
            30.134142
          ],
          [
            118.150688,
            30.134187
          ],
          [
            118.150627,
            30.13416
          ],
          [
            118.15061,
            30.134121
          ],
          [
            118.150621,
            30.134083
          ],
          [
            118.150592,
            30.134094
          ],
          [
            118.150664,
            30.134082
          ],
          [
            118.150775,
            30.133984
          ],
          [
            118.150783,
            30.134004
          ],
          [
            118.150807,
            30.133997
          ],
          [
            118.150728,
            30.134044
          ],
          [
            118.150638,
            30.134135
          ],
          [
            118.150654,
            30.134157
          ],
          [
            118.150722,
            30.134186
          ],
          [
            118.150756,
            30.134089
          ],
          [
            118.150804,
            30.134039
          ],
          [
            118.150573,
            30.134134
          ],
          [
            118.150678,
            30.134123
          ],
          [
            118.150569,
            30.134149
          ],
          [
            118.150439,
            30.134112
          ],
          [
            118.150323,
            30.134139
          ],
          [
            118.150218,
            30.134295
          ],
          [
            118.150077,
            30.134403
          ],
          [
            118.149997,
            30.134501
          ],
          [
            118.150004,
            30.134465
          ],
          [
            118.149876,
            30.134504
          ],
          [
            118.149745,
            30.134434
          ],
          [
            118.149746,
            30.134416
          ],
          [
            118.149656,
            30.13444
          ],
          [
            118.149572,
            30.134422
          ],
          [
            118.149598,
            30.134336
          ],
          [
            118.149652,
            30.13428
          ],
          [
            118.149641,
            30.134224
          ],
          [
            118.149572,
            30.134146
          ],
          [
            118.149506,
            30.134108
          ],
          [
            118.149389,
            30.134104
          ],
          [
            118.149359,
            30.13403
          ],
          [
            118.149176,
            30.134047
          ],
          [
            118.14898,
            30.133946
          ],
          [
            118.148842,
            30.133924
          ],
          [
            118.148859,
            30.133959
          ],
          [
            118.148905,
            30.133966
          ],
          [
            118.148696,
            30.13393
          ],
          [
            118.148588,
            30.133974
          ],
          [
            118.148454,
            30.133989
          ],
          [
            118.148419,
            30.134042
          ],
          [
            118.148269,
            30.134102
          ],
          [
            118.148236,
            30.134099
          ],
          [
            118.148215,
            30.134058
          ],
          [
            118.148026,
            30.134126
          ],
          [
            118.147834,
            30.13409
          ],
          [
            118.147715,
            30.134104
          ],
          [
            118.147653,
            30.134141
          ],
          [
            118.147625,
            30.134243
          ],
          [
            118.147433,
            30.13443
          ],
          [
            118.14739,
            30.134496
          ],
          [
            118.147336,
            30.134491
          ],
          [
            118.147317,
            30.134507
          ],
          [
            118.147389,
            30.13445
          ],
          [
            118.147393,
            30.134373
          ],
          [
            118.147299,
            30.134379
          ],
          [
            118.14709,
            30.134461
          ],
          [
            118.147041,
            30.134518
          ],
          [
            118.147007,
            30.1345
          ],
          [
            118.147067,
            30.13442
          ],
          [
            118.147035,
            30.134408
          ],
          [
            118.1467,
            30.134628
          ],
          [
            118.146491,
            30.134706
          ],
          [
            118.14642,
            30.134754
          ],
          [
            118.146361,
            30.134764
          ],
          [
            118.146256,
            30.134851
          ],
          [
            118.146219,
            30.134853
          ],
          [
            118.146199,
            30.134814
          ],
          [
            118.146245,
            30.134867
          ],
          [
            118.146056,
            30.134963
          ],
          [
            118.146012,
            30.134966
          ],
          [
            118.145979,
            30.134948
          ],
          [
            118.145958,
            30.13486
          ],
          [
            118.145863,
            30.13488
          ],
          [
            118.145745,
            30.134944
          ],
          [
            118.145696,
            30.135009
          ],
          [
            118.145708,
            30.135075
          ],
          [
            118.145798,
            30.1352
          ],
          [
            118.145899,
            30.135284
          ],
          [
            118.145843,
            30.135305
          ],
          [
            118.145749,
            30.135284
          ],
          [
            118.145864,
            30.135438
          ],
          [
            118.145867,
            30.135526
          ],
          [
            118.145852,
            30.135534
          ],
          [
            118.14566,
            30.135485
          ],
          [
            118.145567,
            30.135491
          ],
          [
            118.145556,
            30.135418
          ],
          [
            118.145432,
            30.135386
          ],
          [
            118.145355,
            30.135401
          ],
          [
            118.145237,
            30.135492
          ],
          [
            118.145204,
            30.135551
          ],
          [
            118.145263,
            30.135731
          ],
          [
            118.145235,
            30.135793
          ],
          [
            118.145284,
            30.135808
          ],
          [
            118.1453,
            30.135831
          ],
          [
            118.145371,
            30.136068
          ],
          [
            118.145376,
            30.136187
          ],
          [
            118.145504,
            30.136361
          ],
          [
            118.145506,
            30.136449
          ],
          [
            118.145448,
            30.136582
          ],
          [
            118.145392,
            30.13663
          ],
          [
            118.145284,
            30.136681
          ],
          [
            118.145117,
            30.136848
          ],
          [
            118.14509,
            30.136889
          ],
          [
            118.145139,
            30.136944
          ],
          [
            118.145352,
            30.137027
          ],
          [
            118.145417,
            30.137006
          ],
          [
            118.145547,
            30.137007
          ],
          [
            118.145716,
            30.137103
          ],
          [
            118.145999,
            30.137143
          ],
          [
            118.146098,
            30.137186
          ],
          [
            118.146274,
            30.137217
          ],
          [
            118.146334,
            30.137258
          ],
          [
            118.146435,
            30.137373
          ],
          [
            118.146552,
            30.1374
          ],
          [
            118.146596,
            30.137464
          ],
          [
            118.146758,
            30.137411
          ],
          [
            118.146866,
            30.137546
          ],
          [
            118.146971,
            30.137571
          ],
          [
            118.147033,
            30.137611
          ],
          [
            118.147094,
            30.137606
          ],
          [
            118.147172,
            30.137571
          ],
          [
            118.147243,
            30.137488
          ],
          [
            118.14739,
            30.137487
          ],
          [
            118.147429,
            30.137473
          ],
          [
            118.147618,
            30.137233
          ],
          [
            118.147657,
            30.137227
          ],
          [
            118.14773,
            30.137264
          ],
          [
            118.147784,
            30.137265
          ],
          [
            118.148019,
            30.137146
          ],
          [
            118.148131,
            30.137193
          ],
          [
            118.148251,
            30.137204
          ],
          [
            118.148336,
            30.137248
          ],
          [
            118.148438,
            30.137334
          ],
          [
            118.148627,
            30.137371
          ],
          [
            118.148767,
            30.137361
          ],
          [
            118.148938,
            30.137387
          ],
          [
            118.148984,
            30.137443
          ],
          [
            118.149036,
            30.137611
          ],
          [
            118.149136,
            30.137669
          ],
          [
            118.14914,
            30.137769
          ],
          [
            118.14917,
            30.137776
          ],
          [
            118.149277,
            30.137751
          ],
          [
            118.149311,
            30.137774
          ],
          [
            118.149384,
            30.137789
          ],
          [
            118.149522,
            30.137934
          ],
          [
            118.149509,
            30.137964
          ],
          [
            118.149471,
            30.137974
          ],
          [
            118.149373,
            30.137876
          ],
          [
            118.149349,
            30.137874
          ],
          [
            118.149264,
            30.13795
          ],
          [
            118.149158,
            30.138004
          ],
          [
            118.149123,
            30.138066
          ],
          [
            118.14912,
            30.138153
          ],
          [
            118.149134,
            30.138202
          ],
          [
            118.149173,
            30.138239
          ],
          [
            118.14959,
            30.138237
          ],
          [
            118.149709,
            30.138252
          ],
          [
            118.149811,
            30.138284
          ],
          [
            118.149952,
            30.138357
          ],
          [
            118.15002,
            30.138361
          ],
          [
            118.150058,
            30.138385
          ],
          [
            118.150312,
            30.138406
          ],
          [
            118.15047,
            30.138481
          ],
          [
            118.150664,
            30.138516
          ],
          [
            118.150782,
            30.138507
          ],
          [
            118.15086,
            30.138524
          ],
          [
            118.150872,
            30.138557
          ],
          [
            118.15077,
            30.138598
          ],
          [
            118.150779,
            30.138629
          ],
          [
            118.151118,
            30.138743
          ],
          [
            118.151236,
            30.138733
          ],
          [
            118.151413,
            30.13868
          ],
          [
            118.151514,
            30.138669
          ],
          [
            118.151683,
            30.138744
          ],
          [
            118.151812,
            30.138763
          ],
          [
            118.151912,
            30.138908
          ],
          [
            118.152013,
            30.138922
          ],
          [
            118.152074,
            30.138912
          ],
          [
            118.152155,
            30.138871
          ],
          [
            118.152209,
            30.138802
          ],
          [
            118.152245,
            30.138799
          ],
          [
            118.152294,
            30.138837
          ],
          [
            118.152307,
            30.138929
          ],
          [
            118.152334,
            30.138913
          ],
          [
            118.15233,
            30.138882
          ],
          [
            118.152343,
            30.138897
          ],
          [
            118.152385,
            30.139007
          ],
          [
            118.152531,
            30.138989
          ],
          [
            118.152762,
            30.139185
          ],
          [
            118.152947,
            30.1393
          ],
          [
            118.153231,
            30.139401
          ],
          [
            118.153352,
            30.139483
          ],
          [
            118.153463,
            30.139492
          ],
          [
            118.153466,
            30.139471
          ],
          [
            118.153435,
            30.139438
          ],
          [
            118.153265,
            30.139401
          ],
          [
            118.153156,
            30.139454
          ],
          [
            118.153102,
            30.13945
          ],
          [
            118.153059,
            30.139418
          ],
          [
            118.152984,
            30.139414
          ],
          [
            118.152894,
            30.139381
          ],
          [
            118.152789,
            30.139326
          ],
          [
            118.15274,
            30.13928
          ],
          [
            118.15284,
            30.139358
          ],
          [
            118.152871,
            30.139419
          ],
          [
            118.152857,
            30.139439
          ],
          [
            118.152737,
            30.139509
          ],
          [
            118.152655,
            30.139537
          ],
          [
            118.152563,
            30.139715
          ],
          [
            118.152501,
            30.139762
          ],
          [
            118.152517,
            30.139804
          ],
          [
            118.152506,
            30.139827
          ],
          [
            118.152468,
            30.139841
          ],
          [
            118.15232,
            30.140003
          ],
          [
            118.152273,
            30.140021
          ],
          [
            118.152158,
            30.139992
          ],
          [
            118.152194,
            30.140109
          ],
          [
            118.152138,
            30.140242
          ],
          [
            118.152211,
            30.140352
          ],
          [
            118.15228,
            30.140376
          ],
          [
            118.152288,
            30.140401
          ],
          [
            118.152224,
            30.140495
          ],
          [
            118.152053,
            30.140498
          ],
          [
            118.152022,
            30.140561
          ],
          [
            118.151997,
            30.140576
          ],
          [
            118.152053,
            30.1406
          ],
          [
            118.152182,
            30.140697
          ],
          [
            118.152254,
            30.140693
          ],
          [
            118.152318,
            30.140729
          ],
          [
            118.152254,
            30.140745
          ],
          [
            118.152017,
            30.140744
          ],
          [
            118.151872,
            30.140821
          ],
          [
            118.151879,
            30.140844
          ],
          [
            118.151942,
            30.140869
          ],
          [
            118.152104,
            30.140886
          ],
          [
            118.152268,
            30.140951
          ],
          [
            118.152339,
            30.140962
          ],
          [
            118.152377,
            30.140954
          ],
          [
            118.152476,
            30.14086
          ],
          [
            118.152554,
            30.140857
          ],
          [
            118.152708,
            30.140815
          ],
          [
            118.152754,
            30.140778
          ],
          [
            118.15277,
            30.140792
          ],
          [
            118.152837,
            30.14091
          ],
          [
            118.15283,
            30.14094
          ],
          [
            118.152651,
            30.140919
          ],
          [
            118.152714,
            30.14095
          ],
          [
            118.152677,
            30.140995
          ],
          [
            118.152641,
            30.141024
          ],
          [
            118.152537,
            30.141059
          ],
          [
            118.152479,
            30.14111
          ],
          [
            118.152377,
            30.141118
          ],
          [
            118.152331,
            30.141184
          ],
          [
            118.152329,
            30.141155
          ],
          [
            118.152335,
            30.141201
          ],
          [
            118.152175,
            30.141343
          ],
          [
            118.152089,
            30.141378
          ],
          [
            118.151982,
            30.141353
          ],
          [
            118.151996,
            30.141396
          ],
          [
            118.152039,
            30.141429
          ],
          [
            118.152117,
            30.141408
          ],
          [
            118.152141,
            30.141429
          ],
          [
            118.152184,
            30.141578
          ],
          [
            118.152138,
            30.141699
          ],
          [
            118.152157,
            30.141724
          ],
          [
            118.15219,
            30.141731
          ],
          [
            118.152232,
            30.141725
          ],
          [
            118.152316,
            30.141668
          ],
          [
            118.152526,
            30.141614
          ],
          [
            118.152599,
            30.141511
          ],
          [
            118.152583,
            30.14154
          ],
          [
            118.152604,
            30.141549
          ],
          [
            118.152631,
            30.141541
          ],
          [
            118.152618,
            30.141511
          ],
          [
            118.1526,
            30.141541
          ],
          [
            118.152673,
            30.141537
          ],
          [
            118.152722,
            30.141516
          ],
          [
            118.152752,
            30.141472
          ],
          [
            118.152726,
            30.141427
          ],
          [
            118.152739,
            30.141403
          ],
          [
            118.152731,
            30.141437
          ],
          [
            118.15271,
            30.141419
          ],
          [
            118.152729,
            30.141419
          ],
          [
            118.152721,
            30.141442
          ],
          [
            118.152635,
            30.141503
          ],
          [
            118.152501,
            30.141672
          ],
          [
            118.152503,
            30.14178
          ],
          [
            118.152445,
            30.141901
          ],
          [
            118.152486,
            30.141875
          ],
          [
            118.152531,
            30.141875
          ],
          [
            118.152605,
            30.141927
          ],
          [
            118.15262,
            30.141957
          ],
          [
            118.152427,
            30.141879
          ],
          [
            118.152363,
            30.141896
          ],
          [
            118.152242,
            30.141881
          ],
          [
            118.152111,
            30.141914
          ],
          [
            118.151998,
            30.14197
          ],
          [
            118.151896,
            30.141928
          ],
          [
            118.151808,
            30.141864
          ],
          [
            118.151728,
            30.141861
          ],
          [
            118.151838,
            30.141853
          ],
          [
            118.15193,
            30.141886
          ],
          [
            118.152044,
            30.14186
          ],
          [
            118.152359,
            30.141894
          ],
          [
            118.152437,
            30.141923
          ],
          [
            118.15244,
            30.14189
          ],
          [
            118.152536,
            30.141928
          ],
          [
            118.15261,
            30.141938
          ],
          [
            118.152638,
            30.141987
          ],
          [
            118.152614,
            30.142094
          ],
          [
            118.152667,
            30.142192
          ],
          [
            118.153059,
            30.142318
          ],
          [
            118.153105,
            30.1422
          ],
          [
            118.153076,
            30.142194
          ],
          [
            118.153083,
            30.142169
          ],
          [
            118.153099,
            30.14218
          ],
          [
            118.15306,
            30.14218
          ],
          [
            118.153038,
            30.1422
          ],
          [
            118.153048,
            30.142221
          ],
          [
            118.153091,
            30.14221
          ],
          [
            118.1531,
            30.1422
          ],
          [
            118.153076,
            30.142177
          ],
          [
            118.153088,
            30.14215
          ],
          [
            118.153067,
            30.14219
          ],
          [
            118.153578,
            30.142133
          ],
          [
            118.153597,
            30.142077
          ],
          [
            118.153758,
            30.142277
          ],
          [
            118.153753,
            30.142325
          ],
          [
            118.153816,
            30.142356
          ],
          [
            118.153873,
            30.142434
          ],
          [
            118.153906,
            30.142511
          ],
          [
            118.153886,
            30.142618
          ],
          [
            118.153917,
            30.142669
          ],
          [
            118.15418,
            30.142814
          ],
          [
            118.154253,
            30.142923
          ],
          [
            118.154304,
            30.142957
          ],
          [
            118.154537,
            30.142928
          ],
          [
            118.154715,
            30.142887
          ],
          [
            118.154958,
            30.142881
          ],
          [
            118.155186,
            30.142852
          ],
          [
            118.155522,
            30.142857
          ],
          [
            118.155612,
            30.142881
          ],
          [
            118.155707,
            30.142882
          ],
          [
            118.155872,
            30.14278
          ],
          [
            118.156066,
            30.14281
          ],
          [
            118.156122,
            30.142781
          ],
          [
            118.156143,
            30.142701
          ],
          [
            118.156106,
            30.142615
          ],
          [
            118.156103,
            30.142522
          ],
          [
            118.15602,
            30.142383
          ],
          [
            118.156032,
            30.142367
          ],
          [
            118.156091,
            30.142354
          ],
          [
            118.156221,
            30.142364
          ],
          [
            118.156481,
            30.142478
          ],
          [
            118.156697,
            30.142548
          ],
          [
            118.15689,
            30.14247
          ],
          [
            118.157078,
            30.142464
          ],
          [
            118.157196,
            30.142414
          ],
          [
            118.157239,
            30.142421
          ],
          [
            118.157251,
            30.142447
          ],
          [
            118.157331,
            30.142435
          ],
          [
            118.157551,
            30.142347
          ],
          [
            118.157594,
            30.142314
          ],
          [
            118.157687,
            30.142308
          ],
          [
            118.15785,
            30.142332
          ],
          [
            118.157898,
            30.142252
          ],
          [
            118.158031,
            30.14228
          ],
          [
            118.15812,
            30.142319
          ],
          [
            118.158202,
            30.142322
          ],
          [
            118.158534,
            30.14225
          ],
          [
            118.158623,
            30.142247
          ],
          [
            118.158866,
            30.142329
          ],
          [
            118.158966,
            30.142411
          ],
          [
            118.159087,
            30.142479
          ],
          [
            118.159346,
            30.142554
          ],
          [
            118.159491,
            30.142646
          ],
          [
            118.159587,
            30.142733
          ],
          [
            118.159658,
            30.142746
          ],
          [
            118.159767,
            30.142888
          ],
          [
            118.159812,
            30.142904
          ],
          [
            118.15989,
            30.142899
          ],
          [
            118.160035,
            30.142974
          ],
          [
            118.160093,
            30.143023
          ],
          [
            118.160144,
            30.14319
          ],
          [
            118.160287,
            30.143263
          ],
          [
            118.160393,
            30.143283
          ],
          [
            118.160428,
            30.143269
          ],
          [
            118.160584,
            30.143338
          ],
          [
            118.160732,
            30.143363
          ],
          [
            118.161002,
            30.143367
          ],
          [
            118.161111,
            30.143387
          ],
          [
            118.161263,
            30.143379
          ],
          [
            118.161308,
            30.143399
          ],
          [
            118.161366,
            30.14348
          ],
          [
            118.161467,
            30.143542
          ],
          [
            118.161601,
            30.14357
          ],
          [
            118.161743,
            30.143646
          ],
          [
            118.16199,
            30.143694
          ],
          [
            118.162042,
            30.143692
          ],
          [
            118.162085,
            30.143657
          ],
          [
            118.162127,
            30.1437
          ],
          [
            118.162183,
            30.143721
          ],
          [
            118.162476,
            30.143757
          ],
          [
            118.162859,
            30.143864
          ],
          [
            118.163181,
            30.143841
          ],
          [
            118.163318,
            30.14387
          ],
          [
            118.163312,
            30.143845
          ],
          [
            118.163328,
            30.143837
          ],
          [
            118.163496,
            30.143911
          ],
          [
            118.163577,
            30.143966
          ],
          [
            118.163672,
            30.143983
          ],
          [
            118.163828,
            30.143951
          ],
          [
            118.164037,
            30.143935
          ],
          [
            118.164091,
            30.143911
          ],
          [
            118.164126,
            30.143855
          ],
          [
            118.164153,
            30.14385
          ],
          [
            118.164346,
            30.143888
          ],
          [
            118.164599,
            30.143987
          ],
          [
            118.164803,
            30.144117
          ],
          [
            118.164934,
            30.144244
          ],
          [
            118.165044,
            30.144421
          ],
          [
            118.165214,
            30.144518
          ],
          [
            118.165329,
            30.14464
          ],
          [
            118.165377,
            30.144662
          ],
          [
            118.165534,
            30.144663
          ],
          [
            118.165648,
            30.144717
          ],
          [
            118.165729,
            30.144696
          ],
          [
            118.16598,
            30.144694
          ],
          [
            118.16618,
            30.144627
          ],
          [
            118.166349,
            30.144598
          ],
          [
            118.166357,
            30.144579
          ],
          [
            118.166323,
            30.144548
          ],
          [
            118.166326,
            30.144517
          ],
          [
            118.166427,
            30.144432
          ],
          [
            118.166464,
            30.144308
          ],
          [
            118.166546,
            30.144256
          ],
          [
            118.166593,
            30.144112
          ],
          [
            118.166761,
            30.144111
          ],
          [
            118.166658,
            30.144049
          ],
          [
            118.166627,
            30.14401
          ],
          [
            118.166662,
            30.143794
          ],
          [
            118.166718,
            30.143749
          ],
          [
            118.166796,
            30.143722
          ],
          [
            118.166867,
            30.143663
          ],
          [
            118.166929,
            30.143551
          ],
          [
            118.16713,
            30.143389
          ],
          [
            118.167269,
            30.143169
          ],
          [
            118.167346,
            30.142879
          ],
          [
            118.167434,
            30.142763
          ],
          [
            118.167473,
            30.142681
          ],
          [
            118.167519,
            30.142653
          ],
          [
            118.167738,
            30.142622
          ],
          [
            118.167795,
            30.142592
          ],
          [
            118.167833,
            30.142558
          ],
          [
            118.16787,
            30.142418
          ],
          [
            118.167878,
            30.142341
          ],
          [
            118.167856,
            30.142289
          ],
          [
            118.167747,
            30.142147
          ],
          [
            118.167725,
            30.142085
          ],
          [
            118.16762,
            30.141969
          ],
          [
            118.167609,
            30.141804
          ],
          [
            118.167563,
            30.141674
          ],
          [
            118.167509,
            30.141597
          ],
          [
            118.167493,
            30.141521
          ],
          [
            118.167501,
            30.141417
          ],
          [
            118.167593,
            30.141118
          ],
          [
            118.167543,
            30.140933
          ],
          [
            118.167626,
            30.14064
          ],
          [
            118.167608,
            30.140334
          ],
          [
            118.167655,
            30.140183
          ],
          [
            118.167649,
            30.14011
          ],
          [
            118.167673,
            30.139997
          ],
          [
            118.167666,
            30.13993
          ],
          [
            118.167625,
            30.139866
          ],
          [
            118.167437,
            30.139775
          ],
          [
            118.167398,
            30.139667
          ],
          [
            118.167452,
            30.139564
          ],
          [
            118.1675,
            30.139543
          ],
          [
            118.167479,
            30.139523
          ],
          [
            118.167494,
            30.139492
          ],
          [
            118.167529,
            30.139449
          ],
          [
            118.167578,
            30.13943
          ],
          [
            118.167626,
            30.139345
          ],
          [
            118.167534,
            30.13941
          ],
          [
            118.167599,
            30.13925
          ],
          [
            118.167829,
            30.139214
          ],
          [
            118.16806,
            30.139227
          ],
          [
            118.168207,
            30.139183
          ],
          [
            118.168355,
            30.139063
          ],
          [
            118.168418,
            30.139033
          ],
          [
            118.1685,
            30.138956
          ],
          [
            118.168595,
            30.1389
          ],
          [
            118.168655,
            30.13884
          ],
          [
            118.16868,
            30.138795
          ],
          [
            118.168605,
            30.138663
          ],
          [
            118.168629,
            30.138615
          ],
          [
            118.168744,
            30.138548
          ],
          [
            118.168927,
            30.13852
          ],
          [
            118.169006,
            30.138492
          ],
          [
            118.169059,
            30.138439
          ],
          [
            118.169147,
            30.138396
          ],
          [
            118.169291,
            30.138258
          ],
          [
            118.1694,
            30.138199
          ],
          [
            118.16952,
            30.138099
          ],
          [
            118.169567,
            30.137897
          ],
          [
            118.169689,
            30.137676
          ],
          [
            118.169661,
            30.137593
          ],
          [
            118.169721,
            30.137505
          ],
          [
            118.169665,
            30.137417
          ],
          [
            118.169714,
            30.137357
          ],
          [
            118.169742,
            30.137248
          ],
          [
            118.169796,
            30.137207
          ],
          [
            118.169818,
            30.13712
          ],
          [
            118.169876,
            30.137057
          ],
          [
            118.169966,
            30.13697
          ],
          [
            118.170061,
            30.136925
          ],
          [
            118.170083,
            30.136877
          ],
          [
            118.170081,
            30.1368
          ],
          [
            118.170168,
            30.136742
          ],
          [
            118.170241,
            30.136655
          ],
          [
            118.170406,
            30.13652
          ],
          [
            118.170452,
            30.136451
          ],
          [
            118.170453,
            30.136341
          ],
          [
            118.170485,
            30.136295
          ],
          [
            118.170614,
            30.136184
          ],
          [
            118.170828,
            30.136051
          ],
          [
            118.171118,
            30.135905
          ],
          [
            118.171227,
            30.135811
          ],
          [
            118.171531,
            30.135694
          ],
          [
            118.171577,
            30.135647
          ],
          [
            118.171578,
            30.135572
          ],
          [
            118.171653,
            30.135382
          ],
          [
            118.171745,
            30.135326
          ],
          [
            118.171857,
            30.135213
          ],
          [
            118.17199,
            30.135172
          ],
          [
            118.172048,
            30.135029
          ],
          [
            118.172094,
            30.134971
          ],
          [
            118.172237,
            30.134888
          ],
          [
            118.172369,
            30.134773
          ],
          [
            118.172498,
            30.134629
          ],
          [
            118.172498,
            30.134537
          ],
          [
            118.172537,
            30.134417
          ],
          [
            118.172645,
            30.134223
          ],
          [
            118.172745,
            30.134172
          ],
          [
            118.172835,
            30.134092
          ],
          [
            118.173001,
            30.134014
          ],
          [
            118.173054,
            30.133964
          ],
          [
            118.173186,
            30.133947
          ],
          [
            118.173239,
            30.133919
          ],
          [
            118.173331,
            30.133826
          ],
          [
            118.173352,
            30.133771
          ],
          [
            118.17346,
            30.133728
          ],
          [
            118.173645,
            30.133587
          ],
          [
            118.173718,
            30.133493
          ],
          [
            118.173622,
            30.133423
          ],
          [
            118.173609,
            30.133376
          ],
          [
            118.173628,
            30.13333
          ],
          [
            118.173821,
            30.133212
          ],
          [
            118.173903,
            30.133126
          ],
          [
            118.174078,
            30.133012
          ],
          [
            118.174135,
            30.132947
          ],
          [
            118.174241,
            30.13276
          ],
          [
            118.174622,
            30.132593
          ],
          [
            118.174708,
            30.132587
          ],
          [
            118.174746,
            30.132558
          ],
          [
            118.174757,
            30.132463
          ],
          [
            118.1748,
            30.132421
          ],
          [
            118.174929,
            30.132371
          ],
          [
            118.175063,
            30.13235
          ],
          [
            118.175256,
            30.132261
          ],
          [
            118.175365,
            30.132178
          ],
          [
            118.175471,
            30.13203
          ],
          [
            118.175577,
            30.131968
          ],
          [
            118.175582,
            30.131952
          ],
          [
            118.175534,
            30.131899
          ],
          [
            118.175621,
            30.131782
          ],
          [
            118.175826,
            30.13168
          ],
          [
            118.175875,
            30.131536
          ],
          [
            118.175949,
            30.131477
          ],
          [
            118.175988,
            30.131419
          ],
          [
            118.176001,
            30.13128
          ],
          [
            118.176142,
            30.131171
          ],
          [
            118.176195,
            30.131156
          ],
          [
            118.176346,
            30.131162
          ],
          [
            118.176431,
            30.131135
          ],
          [
            118.176541,
            30.131143
          ],
          [
            118.1766,
            30.131109
          ],
          [
            118.176609,
            30.131066
          ],
          [
            118.176587,
            30.130995
          ],
          [
            118.176598,
            30.130948
          ],
          [
            118.176779,
            30.130657
          ],
          [
            118.176745,
            30.130613
          ],
          [
            118.176555,
            30.130556
          ],
          [
            118.17651,
            30.130502
          ],
          [
            118.176506,
            30.130431
          ],
          [
            118.176563,
            30.130386
          ],
          [
            118.176576,
            30.130326
          ],
          [
            118.17655,
            30.130112
          ],
          [
            118.176576,
            30.130078
          ],
          [
            118.176659,
            30.130052
          ],
          [
            118.176798,
            30.129931
          ],
          [
            118.176991,
            30.12971
          ],
          [
            118.17717,
            30.129639
          ],
          [
            118.177278,
            30.12963
          ],
          [
            118.177362,
            30.129548
          ],
          [
            118.177416,
            30.129538
          ],
          [
            118.177524,
            30.129435
          ],
          [
            118.177804,
            30.129416
          ],
          [
            118.178264,
            30.129298
          ],
          [
            118.17836,
            30.129139
          ],
          [
            118.178365,
            30.129109
          ],
          [
            118.178338,
            30.129076
          ],
          [
            118.178373,
            30.129048
          ],
          [
            118.178562,
            30.128972
          ],
          [
            118.178737,
            30.128953
          ],
          [
            118.17884,
            30.128911
          ],
          [
            118.178935,
            30.128826
          ],
          [
            118.178947,
            30.128663
          ],
          [
            118.179061,
            30.128691
          ],
          [
            118.179115,
            30.128688
          ],
          [
            118.179152,
            30.128652
          ],
          [
            118.179208,
            30.128509
          ],
          [
            118.179265,
            30.128485
          ],
          [
            118.17939,
            30.128472
          ],
          [
            118.179445,
            30.12844
          ],
          [
            118.1795,
            30.128378
          ],
          [
            118.17963,
            30.128353
          ],
          [
            118.179651,
            30.128289
          ],
          [
            118.17958,
            30.128224
          ],
          [
            118.179665,
            30.128207
          ],
          [
            118.179709,
            30.128135
          ],
          [
            118.179779,
            30.128092
          ],
          [
            118.179789,
            30.128059
          ],
          [
            118.17974,
            30.127994
          ],
          [
            118.179919,
            30.127826
          ],
          [
            118.179952,
            30.12777
          ],
          [
            118.179962,
            30.127708
          ],
          [
            118.179864,
            30.127631
          ],
          [
            118.17986,
            30.127593
          ],
          [
            118.179988,
            30.127545
          ],
          [
            118.180061,
            30.127494
          ],
          [
            118.180134,
            30.127392
          ],
          [
            118.180142,
            30.127343
          ],
          [
            118.180313,
            30.127159
          ],
          [
            118.1805,
            30.12712
          ],
          [
            118.180581,
            30.127069
          ],
          [
            118.180608,
            30.127
          ],
          [
            118.180574,
            30.126922
          ],
          [
            118.18058,
            30.126881
          ],
          [
            118.180664,
            30.126718
          ],
          [
            118.180739,
            30.126682
          ],
          [
            118.180957,
            30.126675
          ],
          [
            118.181146,
            30.126566
          ],
          [
            118.181273,
            30.126595
          ],
          [
            118.181402,
            30.12659
          ],
          [
            118.181666,
            30.126487
          ],
          [
            118.181882,
            30.126357
          ],
          [
            118.18207,
            30.126156
          ],
          [
            118.182218,
            30.126078
          ],
          [
            118.182468,
            30.125985
          ],
          [
            118.182633,
            30.125804
          ],
          [
            118.182878,
            30.125659
          ],
          [
            118.183249,
            30.125385
          ],
          [
            118.183376,
            30.125208
          ],
          [
            118.183516,
            30.124968
          ],
          [
            118.183724,
            30.124913
          ],
          [
            118.183952,
            30.124762
          ],
          [
            118.184168,
            30.124695
          ],
          [
            118.184321,
            30.124611
          ],
          [
            118.184378,
            30.124548
          ],
          [
            118.184515,
            30.124452
          ],
          [
            118.184559,
            30.124353
          ],
          [
            118.184517,
            30.124244
          ],
          [
            118.184576,
            30.124126
          ],
          [
            118.184723,
            30.124015
          ],
          [
            118.18474,
            30.123941
          ],
          [
            118.184787,
            30.123906
          ],
          [
            118.184842,
            30.123828
          ],
          [
            118.184854,
            30.123742
          ],
          [
            118.185034,
            30.123617
          ],
          [
            118.185113,
            30.123469
          ],
          [
            118.185265,
            30.123364
          ],
          [
            118.185321,
            30.123256
          ],
          [
            118.185345,
            30.123136
          ],
          [
            118.185399,
            30.123085
          ],
          [
            118.185453,
            30.123063
          ],
          [
            118.185653,
            30.123035
          ],
          [
            118.185799,
            30.122978
          ],
          [
            118.185879,
            30.122973
          ],
          [
            118.186032,
            30.122859
          ],
          [
            118.186106,
            30.12275
          ],
          [
            118.186264,
            30.12272
          ],
          [
            118.186391,
            30.122638
          ],
          [
            118.186489,
            30.122625
          ],
          [
            118.186627,
            30.122507
          ],
          [
            118.186809,
            30.122446
          ],
          [
            118.186926,
            30.122361
          ],
          [
            118.187195,
            30.122217
          ],
          [
            118.187439,
            30.122154
          ],
          [
            118.187548,
            30.122198
          ],
          [
            118.18761,
            30.122192
          ],
          [
            118.187675,
            30.12216
          ],
          [
            118.187706,
            30.12209
          ],
          [
            118.187868,
            30.122088
          ],
          [
            118.187884,
            30.122032
          ],
          [
            118.187874,
            30.121942
          ],
          [
            118.187809,
            30.121796
          ],
          [
            118.187717,
            30.121648
          ],
          [
            118.187683,
            30.121553
          ],
          [
            118.187704,
            30.121508
          ],
          [
            118.187827,
            30.121486
          ],
          [
            118.18789,
            30.121438
          ],
          [
            118.187888,
            30.121391
          ],
          [
            118.187829,
            30.121425
          ],
          [
            118.18776,
            30.121409
          ],
          [
            118.187708,
            30.121331
          ],
          [
            118.1877,
            30.12127
          ],
          [
            118.187741,
            30.121124
          ],
          [
            118.187862,
            30.120963
          ],
          [
            118.187896,
            30.120873
          ],
          [
            118.187874,
            30.120722
          ],
          [
            118.187743,
            30.12046
          ],
          [
            118.187685,
            30.120274
          ],
          [
            118.187687,
            30.119954
          ],
          [
            118.187661,
            30.119803
          ],
          [
            118.187683,
            30.119735
          ],
          [
            118.187672,
            30.119685
          ]
        ]
      }
    }
  ]
}
