<?xml version="1.0" encoding="UTF-8"?>
<gpx version="1.1" creator="霞客示例路书" xmlns="http://www.topografix.com/GPX/1/1">
  <metadata><name>箭扣长城参考轨迹</name></metadata>
  <trk><name>箭扣长城</name><trkseg>
      <trkpt lat="40.45" lon="116.51"><ele>600</ele></trkpt>
      <trkpt lat="40.451429" lon="116.510714"><ele>625</ele></trkpt>
      <trkpt lat="40.452857" lon="116.511429"><ele>650</ele></trkpt>
      <trkpt lat="40.454286" lon="116.512143"><ele>675</ele></trkpt>
      <trkpt lat="40.455714" lon="116.512857"><ele>700</ele></trkpt>
      <trkpt lat="40.457143" lon="116.513571"><ele>725</ele></trkpt>
      <trkpt lat="40.458571" lon="116.514286"><ele>750</ele></trkpt>
      <trkpt lat="40.46" lon="116.515"><ele>775</ele></trkpt>
      <trkpt lat="40.461429" lon="116.515714"><ele>800</ele></trkpt>
      <trkpt lat="40.462857" lon="116.516429"><ele>825</ele></trkpt>
      <trkpt lat="40.464286" lon="116.517143"><ele>850</ele></trkpt>
      <trkpt lat="40.465714" lon="116.517857"><ele>875</ele></trkpt>
      <trkpt lat="40.467143" lon="116.518571"><ele>900</ele></trkpt>
      <trkpt lat="40.468571" lon="116.519286"><ele>925</ele></trkpt>
      <trkpt lat="40.47" lon="116.52"><ele>950</ele></trkpt>
      <trkpt lat="40.47125" lon="116.52125"><ele>956</ele></trkpt>
      <trkpt lat="40.4725" lon="116.5225"><ele>963</ele></trkpt>
      <trkpt lat="40.47375" lon="116.52375"><ele>969</ele></trkpt>
      <trkpt lat="40.475" lon="116.525"><ele>975</ele></trkpt>
      <trkpt lat="40.47625" lon="116.52625"><ele>981</ele></trkpt>
      <trkpt lat="40.4775" lon="116.5275"><ele>988</ele></trkpt>
      <trkpt lat="40.47875" lon="116.52875"><ele>994</ele></trkpt>
      <trkpt lat="40.48" lon="116.53"><ele>1000</ele></trkpt>
      <trkpt lat="40.481" lon="116.531"><ele>990</ele></trkpt>
      <trkpt lat="40.482" lon="116.532"><ele>980</ele></trkpt>
      <trkpt lat="40.483" lon="116.533"><ele>970</ele></trkpt>
      <trkpt lat="40.484" lon="116.534"><ele>960</ele></trkpt>
      <trkpt lat="40.485" lon="116.535"><ele>950</ele></trkpt>
      <trkpt lat="40.486" lon="116.536"><ele>940</ele></trkpt>
      <trkpt lat="40.487" lon="116.537"><ele>930</ele></trkpt>
      <trkpt lat="40.488" lon="116.538"><ele>920</ele></trkpt>
      <trkpt lat="40.489" lon="116.539"><ele>910</ele></trkpt>
      <trkpt lat="40.49" lon="116.54"><ele>900</ele></trkpt>
      <trkpt lat="40.49125" lon="116.54125"><ele>906</ele></trkpt>
      <trkpt lat="40.4925" lon="116.5425"><ele>913</ele></trkpt>
      <trkpt lat="40.49375" lon="116.54375"><ele>919</ele></trkpt>
      <trkpt lat="40.495" lon="116.545"><ele>925</ele></trkpt>
      <trkpt lat="40.49625" lon="116.54625"><ele>931</ele></trkpt>
      <trkpt lat="40.4975" lon="116.5475"><ele>938</ele></trkpt>
      <trkpt lat="40.49875" lon="116.54875"><ele>944</ele></trkpt>
      <trkpt lat="40.5" lon="116.55"><ele>950</ele></trkpt>
      <trkpt lat="40.500625" lon="116.550625"><ele>944</ele></trkpt>
      <trkpt lat="40.50125" lon="116.55125"><ele>938</ele></trkpt>
      <trkpt lat="40.501875" lon="116.551875"><ele>931</ele></trkpt>
      <trkpt lat="40.5025" lon="116.5525"><ele>925</ele></trkpt>
      <trkpt lat="40.503125" lon="116.553125"><ele>919</ele></trkpt>
      <trkpt lat="40.50375" lon="116.55375"><ele>913</ele></trkpt>
      <trkpt lat="40.504375" lon="116.554375"><ele>906</ele></trkpt>
      <trkpt lat="40.505" lon="116.555"><ele>900</ele></trkpt>
      <trkpt lat="40.505625" lon="116.555625"><ele>894</ele></trkpt>
      <trkpt lat="40.50625" lon="116.55625"><ele>888</ele></trkpt>
      <trkpt lat="40.506875" lon="116.556875"><ele>881</ele></trkpt>
      <trkpt lat="40.5075" lon="116.5575"><ele>875</ele></trkpt>
      <trkpt lat="40.508125" lon="116.558125"><ele>869</ele></trkpt>
      <trkpt lat="40.50875" lon="116.55875"><ele>863</ele></trkpt>
      <trkpt lat="40.509375" lon="116.559375"><ele>856</ele></trkpt>
      <trkpt lat="40.51" lon="116.56"><ele>850</ele></trkpt>
    </trkseg></trk>
</gpx>
