{
  "type": "FeatureCollection",
  "features": [
    {
      "type": "Feature",
      "properties": {
        "name": "箭扣长城参考轨迹",
        "type": "hiking",
        "source": "霞客示例路书"
      },
      "geometry": {
        "type": "LineString",
        "coordinates": [
          [
            116.51,
            40.45
          ],
          [
            116.510714,
            40.451429
          ],
          [
            116.511429,
            40.452857
          ],
          [
            116.512143,
            40.454286
          ],
          [
            116.512857,
            40.455714
          ],
          [
            116.513571,
            40.457143
          ],
          [
            116.514286,
            40.458571
          ],
          [
            116.515,
            40.46
          ],
          [
            116.515714,
            40.461429
          ],
          [
            116.516429,
            40.462857
          ],
          [
            116.517143,
            40.464286
          ],
          [
            116.517857,
            40.465714
          ],
          [
            116.518571,
            40.467143
          ],
          [
            116.519286,
            40.468571
          ],
          [
            116.52,
            40.47
          ],
          [
            116.52125,
            40.47125
          ],
          [
            116.5225,
            40.4725
          ],
          [
            116.52375,
            40.47375
          ],
          [
            116.525,
            40.475
          ],
          [
            116.52625,
            40.47625
          ],
          [
            116.5275,
            40.4775
          ],
          [
            116.52875,
            40.47875
          ],
          [
            116.53,
            40.48
          ],
          [
            116.531,
            40.481
          ],
          [
            116.532,
            40.482
          ],
          [
            116.533,
            40.483
          ],
          [
            116.534,
            40.484
          ],
          [
            116.535,
            40.485
          ],
          [
            116.536,
            40.486
          ],
          [
            116.537,
            40.487
          ],
          [
            116.538,
            40.488
          ],
          [
            116.539,
            40.489
          ],
          [
            116.54,
            40.49
          ],
          [
            116.54125,
            40.49125
          ],
          [
            116.5425,
            40.4925
          ],
          [
            116.54375,
            40.49375
          ],
          [
            116.545,
            40.495
          ],
          [
            116.54625,
            40.49625
          ],
          [
            116.5475,
            40.4975
          ],
          [
            116.54875,
            40.49875
          ],
          [
            116.55,
            40.5
          ],
          [
            116.550625,
            40.500625
          ],
          [
            116.55125,
            40.50125
          ],
          [
            116.551875,
            40.501875
          ],
          [
            116.5525,
            40.5025
          ],
          [
            116.553125,
            40.503125
          ],
          [
            116.55375,
            40.50375
          ],
          [
            116.554375,
            40.504375
          ],
          [
            116.555,
            40.505
          ],
          [
            116.555625,
            40.505625
          ],
          [
            116.55625,
            40.50625
          ],
          [
            116.556875,
            40.506875
          ],
          [
            116.5575,
            40.5075
          ],
          [
            116.558125,
            40.508125
          ],
          [
            116.55875,
            40.50875
          ],
          [
            116.559375,
            40.509375
          ],
          [
            116.56,
            40.51
          ]
        ]
      }
    }
  ]
}