<?xml version="1.0" encoding="UTF-8"?>
<gpx version="1.1" creator="霞客示例路书" xmlns="http://www.topografix.com/GPX/1/1">
  <metadata><name>冈仁波齐转山参考轨迹</name></metadata>
  <trk><name>冈仁波齐转山</name><trkseg>
      <trkpt lat="31.07" lon="81.31"><ele>4675</ele></trkpt>
      <trkpt lat="31.069688" lon="81.310938"><ele>4681</ele></trkpt>
      <trkpt lat="31.069375" lon="81.311875"><ele>4687</ele></trkpt>
      <trkpt lat="31.069063" lon="81.312813"><ele>4692</ele></trkpt>
      <trkpt lat="31.06875" lon="81.31375"><ele>4698</ele></trkpt>
      <trkpt lat="31.068438" lon="81.314688"><ele>4704</ele></trkpt>
      <trkpt lat="31.068125" lon="81.315625"><ele>4710</ele></trkpt>
      <trkpt lat="31.067812" lon="81.316563"><ele>4715</ele></trkpt>
      <trkpt lat="31.0675" lon="81.3175"><ele>4721</ele></trkpt>
      <trkpt lat="31.067187" lon="81.318438"><ele>4727</ele></trkpt>
      <trkpt lat="31.066875" lon="81.319375"><ele>4733</ele></trkpt>
      <trkpt lat="31.066562" lon="81.320313"><ele>4739</ele></trkpt>
      <trkpt lat="31.06625" lon="81.32125"><ele>4744</ele></trkpt>
      <trkpt lat="31.065938" lon="81.322187"><ele>4750</ele></trkpt>
      <trkpt lat="31.065625" lon="81.323125"><ele>4756</ele></trkpt>
      <trkpt lat="31.065313" lon="81.324062"><ele>4762</ele></trkpt>
      <trkpt lat="31.065" lon="81.325"><ele>4768</ele></trkpt>
      <trkpt lat="31.064687" lon="81.325938"><ele>4773</ele></trkpt>
      <trkpt lat="31.064375" lon="81.326875"><ele>4779</ele></trkpt>
      <trkpt lat="31.064062" lon="81.327813"><ele>4785</ele></trkpt>
      <trkpt lat="31.06375" lon="81.32875"><ele>4791</ele></trkpt>
      <trkpt lat="31.063437" lon="81.329688"><ele>4796</ele></trkpt>
      <trkpt lat="31.063125" lon="81.330625"><ele>4802</ele></trkpt>
      <trkpt lat="31.062812" lon="81.331563"><ele>4808</ele></trkpt>
      <trkpt lat="31.0625" lon="81.3325"><ele>4814</ele></trkpt>
      <trkpt lat="31.062188" lon="81.333438"><ele>4820</ele></trkpt>
      <trkpt lat="31.061875" lon="81.334375"><ele>4825</ele></trkpt>
      <trkpt lat="31.061562" lon="81.335313"><ele>4831</ele></trkpt>
      <trkpt lat="31.06125" lon="81.33625"><ele>4837</ele></trkpt>
      <trkpt lat="31.060937" lon="81.337187"><ele>4843</ele></trkpt>
      <trkpt lat="31.060625" lon="81.338125"><ele>4848</ele></trkpt>
      <trkpt lat="31.060312" lon="81.339062"><ele>4854</ele></trkpt>
      <trkpt lat="31.06" lon="81.34"><ele>4860</ele></trkpt>
      <trkpt lat="31.059375" lon="81.341667"><ele>4865</ele></trkpt>
      <trkpt lat="31.05875" lon="81.343333"><ele>4869</ele></trkpt>
      <trkpt lat="31.058125" lon="81.345"><ele>4874</ele></trkpt>
      <trkpt lat="31.0575" lon="81.346667"><ele>4878</ele></trkpt>
      <trkpt lat="31.056875" lon="81.348333"><ele>4883</ele></trkpt>
      <trkpt lat="31.05625" lon="81.35"><ele>4888</ele></trkpt>
      <trkpt lat="31.055625" lon="81.351667"><ele>4892</ele></trkpt>
      <trkpt lat="31.055" lon="81.353333"><ele>4897</ele></trkpt>
      <trkpt lat="31.054375" lon="81.355"><ele>4901</ele></trkpt>
      <trkpt lat="31.05375" lon="81.356667"><ele>4906</ele></trkpt>
      <trkpt lat="31.053125" lon="81.358333"><ele>4910</ele></trkpt>
      <trkpt lat="31.0525" lon="81.36"><ele>4915</ele></trkpt>
      <trkpt lat="31.051875" lon="81.361667"><ele>4920</ele></trkpt>
      <trkpt lat="31.05125" lon="81.363333"><ele>4924</ele></trkpt>
      <trkpt lat="31.050625" lon="81.365"><ele>4929</ele></trkpt>
      <trkpt lat="31.05" lon="81.366667"><ele>4933</ele></trkpt>
      <trkpt lat="31.049375" lon="81.368333"><ele>4938</ele></trkpt>
      <trkpt lat="31.04875" lon="81.37"><ele>4943</ele></trkpt>
      <trkpt lat="31.048125" lon="81.371667"><ele>4947</ele></trkpt>
      <trkpt lat="31.0475" lon="81.373333"><ele>4952</ele></trkpt>
      <trkpt lat="31.046875" lon="81.375"><ele>4956</ele></trkpt>
      <trkpt lat="31.04625" lon="81.376667"><ele>4961</ele></trkpt>
      <trkpt lat="31.045625" lon="81.378333"><ele>4965</ele></trkpt>
      <trkpt lat="31.045" lon="81.38"><ele>4970</ele></trkpt>
      <trkpt lat="31.044375" lon="81.381667"><ele>4975</ele></trkpt>
      <trkpt lat="31.04375" lon="81.383333"><ele>4979</ele></trkpt>
      <trkpt lat="31.043125" lon="81.385"><ele>4984</ele></trkpt>
      <trkpt lat="31.0425" lon="81.386667"><ele>4988</ele></trkpt>
      <trkpt lat="31.041875" lon="81.388333"><ele>4993</ele></trkpt>
      <trkpt lat="31.04125" lon="81.39"><ele>4998</ele></trkpt>
      <trkpt lat="31.040625" lon="81.391667"><ele>5002</ele></trkpt>
      <trkpt lat="31.04" lon="81.393333"><ele>5007</ele></trkpt>
      <trkpt lat="31.039375" lon="81.395"><ele>5011</ele></trkpt>
      <trkpt lat="31.03875" lon="81.396667"><ele>5016</ele></trkpt>
      <trkpt lat="31.038125" lon="81.398333"><ele>5020</ele></trkpt>
      <trkpt lat="31.0375" lon="81.4"><ele>5025</ele></trkpt>
      <trkpt lat="31.036875" lon="81.401667"><ele>5030</ele></trkpt>
      <trkpt lat="31.03625" lon="81.403333"><ele>5034</ele></trkpt>
      <trkpt lat="31.035625" lon="81.405"><ele>5039</ele></trkpt>
      <trkpt lat="31.035" lon="81.406667"><ele>5043</ele></trkpt>
      <trkpt lat="31.034375" lon="81.408333"><ele>5048</ele></trkpt>
      <trkpt lat="31.03375" lon="81.41"><ele>5053</ele></trkpt>
      <trkpt lat="31.033125" lon="81.411667"><ele>5057</ele></trkpt>
      <trkpt lat="31.0325" lon="81.413333"><ele>5062</ele></trkpt>
      <trkpt lat="31.031875" lon="81.415"><ele>5066</ele></trkpt>
      <trkpt lat="31.03125" lon="81.416667"><ele>5071</ele></trkpt>
      <trkpt lat="31.030625" lon="81.418333"><ele>5075</ele></trkpt>
      <trkpt lat="31.03" lon="81.42"><ele>5080</ele></trkpt>
      <trkpt lat="31.029375" lon="81.420938"><ele>5097</ele></trkpt>
      <trkpt lat="31.02875" lon="81.421875"><ele>5114</ele></trkpt>
      <trkpt lat="31.028125" lon="81.422813"><ele>5132</ele></trkpt>
      <trkpt lat="31.0275" lon="81.42375"><ele>5149</ele></trkpt>
      <trkpt lat="31.026875" lon="81.424688"><ele>5166</ele></trkpt>
      <trkpt lat="31.02625" lon="81.425625"><ele>5183</ele></trkpt>
      <trkpt lat="31.025625" lon="81.426563"><ele>5200</ele></trkpt>
      <trkpt lat="31.025" lon="81.4275"><ele>5218</ele></trkpt>
      <trkpt lat="31.024375" lon="81.428438"><ele>5235</ele></trkpt>
      <trkpt lat="31.02375" lon="81.429375"><ele>5252</ele></trkpt>
      <trkpt lat="31.023125" lon="81.430312"><ele>5269</ele></trkpt>
      <trkpt lat="31.0225" lon="81.43125"><ele>5286</ele></trkpt>
      <trkpt lat="31.021875" lon="81.432187"><ele>5303</ele></trkpt>
      <trkpt lat="31.02125" lon="81.433125"><ele>5321</ele></trkpt>
      <trkpt lat="31.020625" lon="81.434062"><ele>5338</ele></trkpt>
      <trkpt lat="31.02" lon="81.435"><ele>5355</ele></trkpt>
      <trkpt lat="31.019375" lon="81.435938"><ele>5372</ele></trkpt>
      <trkpt lat="31.01875" lon="81.436875"><ele>5389</ele></trkpt>
      <trkpt lat="31.018125" lon="81.437813"><ele>5407</ele></trkpt>
      <trkpt lat="31.0175" lon="81.43875"><ele>5424</ele></trkpt>
      <trkpt lat="31.016875" lon="81.439688"><ele>5441</ele></trkpt>
      <trkpt lat="31.01625" lon="81.440625"><ele>5458</ele></trkpt>
      <trkpt lat="31.015625" lon="81.441563"><ele>5475</ele></trkpt>
      <trkpt lat="31.015" lon="81.4425"><ele>5493</ele></trkpt>
      <trkpt lat="31.014375" lon="81.443438"><ele>5510</ele></trkpt>
      <trkpt lat="31.01375" lon="81.444375"><ele>5527</ele></trkpt>
      <trkpt lat="31.013125" lon="81.445313"><ele>5544</ele></trkpt>
      <trkpt lat="31.0125" lon="81.44625"><ele>5561</ele></trkpt>
      <trkpt lat="31.011875" lon="81.447187"><ele>5578</ele></trkpt>
      <trkpt lat="31.01125" lon="81.448125"><ele>5596</ele></trkpt>
      <trkpt lat="31.010625" lon="81.449062"><ele>5613</ele></trkpt>
      <trkpt lat="31.01" lon="81.45"><ele>5630</ele></trkpt>
      <trkpt lat="31.010625" lon="81.448542"><ele>5613</ele></trkpt>
      <trkpt lat="31.01125" lon="81.447083"><ele>5595</ele></trkpt>
      <trkpt lat="31.011875" lon="81.445625"><ele>5578</ele></trkpt>
      <trkpt lat="31.0125" lon="81.444167"><ele>5560</ele></trkpt>
      <trkpt lat="31.013125" lon="81.442708"><ele>5543</ele></trkpt>
      <trkpt lat="31.01375" lon="81.44125"><ele>5525</ele></trkpt>
      <trkpt lat="31.014375" lon="81.439792"><ele>5508</ele></trkpt>
      <trkpt lat="31.015" lon="81.438333"><ele>5490</ele></trkpt>
      <trkpt lat="31.015625" lon="81.436875"><ele>5473</ele></trkpt>
      <trkpt lat="31.01625" lon="81.435417"><ele>5455</ele></trkpt>
      <trkpt lat="31.016875" lon="81.433958"><ele>5438</ele></trkpt>
      <trkpt lat="31.0175" lon="81.4325"><ele>5420</ele></trkpt>
      <trkpt lat="31.018125" lon="81.431042"><ele>5403</ele></trkpt>
      <trkpt lat="31.01875" lon="81.429583"><ele>5385</ele></trkpt>
      <trkpt lat="31.019375" lon="81.428125"><ele>5368</ele></trkpt>
      <trkpt lat="31.02" lon="81.426667"><ele>5350</ele></trkpt>
      <trkpt lat="31.020625" lon="81.425208"><ele>5333</ele></trkpt>
      <trkpt lat="31.02125" lon="81.42375"><ele>5315</ele></trkpt>
      <trkpt lat="31.021875" lon="81.422292"><ele>5298</ele></trkpt>
      <trkpt lat="31.0225" lon="81.420833"><ele>5280</ele></trkpt>
      <trkpt lat="31.023125" lon="81.419375"><ele>5263</ele></trkpt>
      <trkpt lat="31.02375" lon="81.417917"><ele>5245</ele></trkpt>
      <trkpt lat="31.024375" lon="81.416458"><ele>5228</ele></trkpt>
      <trkpt lat="31.025" lon="81.415"><ele>5210</ele></trkpt>
      <trkpt lat="31.025625" lon="81.413542"><ele>5193</ele></trkpt>
      <trkpt lat="31.02625" lon="81.412083"><ele>5175</ele></trkpt>
      <trkpt lat="31.026875" lon="81.410625"><ele>5158</ele></trkpt>
      <trkpt lat="31.0275" lon="81.409167"><ele>5140</ele></trkpt>
      <trkpt lat="31.028125" lon="81.407708"><ele>5123</ele></trkpt>
      <trkpt lat="31.02875" lon="81.40625"><ele>5105</ele></trkpt>
      <trkpt lat="31.029375" lon="81.404792"><ele>5088</ele></trkpt>
      <trkpt lat="31.03" lon="81.403333"><ele>5070</ele></trkpt>
      <trkpt lat="31.030625" lon="81.401875"><ele>5053</ele></trkpt>
      <trkpt lat="31.03125" lon="81.400417"><ele>5035</ele></trkpt>
      <trkpt lat="31.031875" lon="81.398958"><ele>5018</ele></trkpt>
      <trkpt lat="31.0325" lon="81.3975"><ele>5000</ele></trkpt>
      <trkpt lat="31.033125" lon="81.396042"><ele>4983</ele></trkpt>
      <trkpt lat="31.03375" lon="81.394583"><ele>4965</ele></trkpt>
      <trkpt lat="31.034375" lon="81.393125"><ele>4948</ele></trkpt>
      <trkpt lat="31.035" lon="81.391667"><ele>4930</ele></trkpt>
      <trkpt lat="31.035625" lon="81.390208"><ele>4913</ele></trkpt>
      <trkpt lat="31.03625" lon="81.38875"><ele>4895</ele></trkpt>
      <trkpt lat="31.036875" lon="81.387292"><ele>4878</ele></trkpt>
      <trkpt lat="31.0375" lon="81.385833"><ele>4860</ele></trkpt>
      <trkpt lat="31.038125" lon="81.384375"><ele>4843</ele></trkpt>
      <trkpt lat="31.03875" lon="81.382917"><ele>4825</ele></trkpt>
      <trkpt lat="31.039375" lon="81.381458"><ele>4808</ele></trkpt>
      <trkpt lat="31.04" lon="81.38"><ele>4790</ele></trkpt>
      <trkpt lat="31.040625" lon="81.378542"><ele>4788</ele></trkpt>
      <trkpt lat="31.04125" lon="81.377083"><ele>4785</ele></trkpt>
      <trkpt lat="31.041875" lon="81.375625"><ele>4783</ele></trkpt>
      <trkpt lat="31.0425" lon="81.374167"><ele>4780</ele></trkpt>
      <trkpt lat="31.043125" lon="81.372708"><ele>4778</ele></trkpt>
      <trkpt lat="31.04375" lon="81.37125"><ele>4776</ele></trkpt>
      <trkpt lat="31.044375" lon="81.369792"><ele>4773</ele></trkpt>
      <trkpt lat="31.045" lon="81.368333"><ele>4771</ele></trkpt>
      <trkpt lat="31.045625" lon="81.366875"><ele>4768</ele></trkpt>
      <trkpt lat="31.04625" lon="81.365417"><ele>4766</ele></trkpt>
      <trkpt lat="31.046875" lon="81.363958"><ele>4764</ele></trkpt>
      <trkpt lat="31.0475" lon="81.3625"><ele>4761</ele></trkpt>
      <trkpt lat="31.048125" lon="81.361042"><ele>4759</ele></trkpt>
      <trkpt lat="31.04875" lon="81.359583"><ele>4756</ele></trkpt>
      <trkpt lat="31.049375" lon="81.358125"><ele>4754</ele></trkpt>
      <trkpt lat="31.05" lon="81.356667"><ele>4752</ele></trkpt>
      <trkpt lat="31.050625" lon="81.355208"><ele>4749</ele></trkpt>
      <trkpt lat="31.05125" lon="81.35375"><ele>4747</ele></trkpt>
      <trkpt lat="31.051875" lon="81.352292"><ele>4744</ele></trkpt>
      <trkpt lat="31.0525" lon="81.350833"><ele>4742</ele></trkpt>
      <trkpt lat="31.053125" lon="81.349375"><ele>4740</ele></trkpt>
      <trkpt lat="31.05375" lon="81.347917"><ele>4737</ele></trkpt>
      <trkpt lat="31.054375" lon="81.346458"><ele>4735</ele></trkpt>
      <trkpt lat="31.055" lon="81.345"><ele>4733</ele></trkpt>
      <trkpt lat="31.055625" lon="81.343542"><ele>4730</ele></trkpt>
      <trkpt lat="31.05625" lon="81.342083"><ele>4728</ele></trkpt>
      <trkpt lat="31.056875" lon="81.340625"><ele>4725</ele></trkpt>
      <trkpt lat="31.0575" lon="81.339167"><ele>4723</ele></trkpt>
      <trkpt lat="31.058125" lon="81.337708"><ele>4721</ele></trkpt>
      <trkpt lat="31.05875" lon="81.33625"><ele>4718</ele></trkpt>
      <trkpt lat="31.059375" lon="81.334792"><ele>4716</ele></trkpt>
      <trkpt lat="31.06" lon="81.333333"><ele>4713</ele></trkpt>
      <trkpt lat="31.060625" lon="81.331875"><ele>4711</ele></trkpt>
      <trkpt lat="31.06125" lon="81.330417"><ele>4709</ele></trkpt>
      <trkpt lat="31.061875" lon="81.328958"><ele>4706</ele></trkpt>
      <trkpt lat="31.0625" lon="81.3275"><ele>4704</ele></trkpt>
      <trkpt lat="31.063125" lon="81.326042"><ele>4701</ele></trkpt>
      <trkpt lat="31.06375" lon="81.324583"><ele>4699</ele></trkpt>
      <trkpt lat="31.064375" lon="81.323125"><ele>4697</ele></trkpt>
      <trkpt lat="31.065" lon="81.321667"><ele>4694</ele></trkpt>
      <trkpt lat="31.065625" lon="81.320208"><ele>4692</ele></trkpt>
      <trkpt lat="31.06625" lon="81.31875"><ele>4689</ele></trkpt>
      <trkpt lat="31.066875" lon="81.317292"><ele>4687</ele></trkpt>
      <trkpt lat="31.0675" lon="81.315833"><ele>4685</ele></trkpt>
      <trkpt lat="31.068125" lon="81.314375"><ele>4682</ele></trkpt>
      <trkpt lat="31.06875" lon="81.312917"><ele>4680</ele></trkpt>
      <trkpt lat="31.069375" lon="81.311458"><ele>4677</ele></trkpt>
      <trkpt lat="31.07" lon="81.31"><ele>4675</ele></trkpt>
    </trkseg></trk>
</gpx>
