{
  "type": "FeatureCollection",
  "features": [
    {
      "type": "Feature",
      "properties": {
        "name": "冈仁波齐转山参考轨迹",
        "type": "hiking",
        "source": "霞客示例路书"
      },
      "geometry": {
        "type": "LineString",
        "coordinates": [
          [
            81.31,
            31.07
          ],
          [
            81.310938,
            31.069688
          ],
          [
            81.311875,
            31.069375
          ],
          [
            81.312813,
            31.069063
          ],
          [
            81.31375,
            31.06875
          ],
          [
            81.314688,
            31.068438
          ],
          [
            81.315625,
            31.068125
          ],
          [
            81.316563,
            31.067812
          ],
          [
            81.3175,
            31.0675
          ],
          [
            81.318438,
            31.067187
          ],
          [
            81.319375,
            31.066875
          ],
          [
            81.320313,
            31.066562
          ],
          [
            81.32125,
            31.06625
          ],
          [
            81.322187,
            31.065938
          ],
          [
            81.323125,
            31.065625
          ],
          [
            81.324062,
            31.065313
          ],
          [
            81.325,
            31.065
          ],
          [
            81.325938,
            31.064687
          ],
          [
            81.326875,
            31.064375
          ],
          [
            81.327813,
            31.064062
          ],
          [
            81.32875,
            31.06375
          ],
          [
            81.329688,
            31.063437
          ],
          [
            81.330625,
            31.063125
          ],
          [
            81.331563,
            31.062812
          ],
          [
            81.3325,
            31.0625
          ],
          [
            81.333438,
            31.062188
          ],
          [
            81.334375,
            31.061875
          ],
          [
            81.335313,
            31.061562
          ],
          [
            81.33625,
            31.06125
          ],
          [
            81.337187,
            31.060937
          ],
          [
            81.338125,
            31.060625
          ],
          [
            81.339062,
            31.060312
          ],
          [
            81.34,
            31.06
          ],
          [
            81.341667,
            31.059375
          ],
          [
            81.343333,
            31.05875
          ],
          [
            81.345,
            31.058125
          ],
          [
            81.346667,
            31.0575
          ],
          [
            81.348333,
            31.056875
          ],
          [
            81.35,
            31.05625
          ],
          [
            81.351667,
            31.055625
          ],
          [
            81.353333,
            31.055
          ],
          [
            81.355,
            31.054375
          ],
          [
            81.356667,
            31.05375
          ],
          [
            81.358333,
            31.053125
          ],
          [
            81.36,
            31.0525
          ],
          [
            81.361667,
            31.051875
          ],
          [
            81.363333,
            31.05125
          ],
          [
            81.365,
            31.050625
          ],
          [
            81.366667,
            31.05
          ],
          [
            81.368333,
            31.049375
          ],
          [
            81.37,
            31.04875
          ],
          [
            81.371667,
            31.048125
          ],
          [
            81.373333,
            31.0475
          ],
          [
            81.375,
            31.046875
          ],
          [
            81.376667,
            31.04625
          ],
          [
            81.378333,
            31.045625
          ],
          [
            81.38,
            31.045
          ],
          [
            81.381667,
            31.044375
          ],
          [
            81.383333,
            31.04375
          ],
          [
            81.385,
            31.043125
          ],
          [
            81.386667,
            31.0425
          ],
          [
            81.388333,
            31.041875
          ],
          [
            81.39,
            31.04125
          ],
          [
            81.391667,
            31.040625
          ],
          [
            81.393333,
            31.04
          ],
          [
            81.395,
            31.039375
          ],
          [
            81.396667,
            31.03875
          ],
          [
            81.398333,
            31.038125
          ],
          [
            81.4,
            31.0375
          ],
          [
            81.401667,
            31.036875
          ],
          [
            81.403333,
            31.03625
          ],
          [
            81.405,
            31.035625
          ],
          [
            81.406667,
            31.035
          ],
          [
            81.408333,
            31.034375
          ],
          [
            81.41,
            31.03375
          ],
          [
            81.411667,
            31.033125
          ],
          [
            81.413333,
            31.0325
          ],
          [
            81.415,
            31.031875
          ],
          [
            81.416667,
            31.03125
          ],
          [
            81.418333,
            31.030625
          ],
          [
            81.42,
            31.03
          ],
          [
            81.420938,
            31.029375
          ],
          [
            81.421875,
            31.02875
          ],
          [
            81.422813,
            31.028125
          ],
          [
            81.42375,
            31.0275
          ],
          [
            81.424688,
            31.026875
          ],
          [
            81.425625,
            31.02625
          ],
          [
            81.426563,
            31.025625
          ],
          [
            81.4275,
            31.025
          ],
          [
            81.428438,
            31.024375
          ],
          [
            81.429375,
            31.02375
          ],
          [
            81.430312,
            31.023125
          ],
          [
            81.43125,
            31.0225
          ],
          [
            81.432187,
            31.021875
          ],
          [
            81.433125,
            31.02125
          ],
          [
            81.434062,
            31.020625
          ],
          [
            81.435,
            31.02
          ],
          [
            81.435938,
            31.019375
          ],
          [
            81.436875,
            31.01875
          ],
          [
            81.437813,
            31.018125
          ],
          [
            81.43875,
            31.0175
          ],
          [
            81.439688,
            31.016875
          ],
          [
            81.440625,
            31.01625
          ],
          [
            81.441563,
            31.015625
          ],
          [
            81.4425,
            31.015
          ],
          [
            81.443438,
            31.014375
          ],
          [
            81.444375,
            31.01375
          ],
          [
            81.445313,
            31.013125
          ],
          [
            81.44625,
            31.0125
          ],
          [
            81.447187,
            31.011875
          ],
          [
            81.448125,
            31.01125
          ],
          [
            81.449062,
            31.010625
          ],
          [
            81.45,
            31.01
          ],
          [
            81.448542,
            31.010625
          ],
          [
            81.447083,
            31.01125
          ],
          [
            81.445625,
            31.011875
          ],
          [
            81.444167,
            31.0125
          ],
          [
            81.442708,
            31.013125
          ],
          [
            81.44125,
            31.01375
          ],
          [
            81.439792,
            31.014375
          ],
          [
            81.438333,
            31.015
          ],
          [
            81.436875,
            31.015625
          ],
          [
            81.435417,
            31.01625
          ],
          [
            81.433958,
            31.016875
          ],
          [
            81.4325,
            31.0175
          ],
          [
            81.431042,
            31.018125
          ],
          [
            81.429583,
            31.01875
          ],
          [
            81.428125,
            31.019375
          ],
          [
            81.426667,
            31.02
          ],
          [
            81.425208,
            31.020625
          ],
          [
            81.42375,
            31.02125
          ],
          [
            81.422292,
            31.021875
          ],
          [
            81.420833,
            31.0225
          ],
          [
            81.419375,
            31.023125
          ],
          [
            81.417917,
            31.02375
          ],
          [
            81.416458,
            31.024375
          ],
          [
            81.415,
            31.025
          ],
          [
            81.413542,
            31.025625
          ],
          [
            81.412083,
            31.02625
          ],
          [
            81.410625,
            31.026875
          ],
          [
            81.409167,
            31.0275
          ],
          [
            81.407708,
            31.028125
          ],
          [
            81.40625,
            31.02875
          ],
          [
            81.404792,
            31.029375
          ],
          [
            81.403333,
            31.03
          ],
          [
            81.401875,
            31.030625
          ],
          [
            81.400417,
            31.03125
          ],
          [
            81.398958,
            31.031875
          ],
          [
            81.3975,
            31.0325
          ],
          [
            81.396042,
            31.033125
          ],
          [
            81.394583,
            31.03375
          ],
          [
            81.393125,
            31.034375
          ],
          [
            81.391667,
            31.035
          ],
          [
            81.390208,
            31.035625
          ],
          [
            81.38875,
            31.03625
          ],
          [
            81.387292,
            31.036875
          ],
          [
            81.385833,
            31.0375
          ],
          [
            81.384375,
            31.038125
          ],
          [
            81.382917,
            31.03875
          ],
          [
            81.381458,
            31.039375
          ],
          [
            81.38,
            31.04
          ],
          [
            81.378542,
            31.040625
          ],
          [
            81.377083,
            31.04125
          ],
          [
            81.375625,
            31.041875
          ],
          [
            81.374167,
            31.0425
          ],
          [
            81.372708,
            31.043125
          ],
          [
            81.37125,
            31.04375
          ],
          [
            81.369792,
            31.044375
          ],
          [
            81.368333,
            31.045
          ],
          [
            81.366875,
            31.045625
          ],
          [
            81.365417,
            31.04625
          ],
          [
            81.363958,
            31.046875
          ],
          [
            81.3625,
            31.0475
          ],
          [
            81.361042,
            31.048125
          ],
          [
            81.359583,
            31.04875
          ],
          [
            81.358125,
            31.049375
          ],
          [
            81.356667,
            31.05
          ],
          [
            81.355208,
            31.050625
          ],
          [
            81.35375,
            31.05125
          ],
          [
            81.352292,
            31.051875
          ],
          [
            81.350833,
            31.0525
          ],
          [
            81.349375,
            31.053125
          ],
          [
            81.347917,
            31.05375
          ],
          [
            81.346458,
            31.054375
          ],
          [
            81.345,
            31.055
          ],
          [
            81.343542,
            31.055625
          ],
          [
            81.342083,
            31.05625
          ],
          [
            81.340625,
            31.056875
          ],
          [
            81.339167,
            31.0575
          ],
          [
            81.337708,
            31.058125
          ],
          [
            81.33625,
            31.05875
          ],
          [
            81.334792,
            31.059375
          ],
          [
            81.333333,
            31.06
          ],
          [
            81.331875,
            31.060625
          ],
          [
            81.330417,
            31.06125
          ],
          [
            81.328958,
            31.061875
          ],
          [
            81.3275,
            31.0625
          ],
          [
            81.326042,
            31.063125
          ],
          [
            81.324583,
            31.06375
          ],
          [
            81.323125,
            31.064375
          ],
          [
            81.321667,
            31.065
          ],
          [
            81.320208,
            31.065625
          ],
          [
            81.31875,
            31.06625
          ],
          [
            81.317292,
            31.066875
          ],
          [
            81.315833,
            31.0675
          ],
          [
            81.314375,
            31.068125
          ],
          [
            81.312917,
            31.06875
          ],
          [
            81.311458,
            31.069375
          ],
          [
            81.31,
            31.07
          ]
        ]
      }
    }
  ]
}