{
  "type": "FeatureCollection",
  "features": [
    {
      "type": "Feature",
      "properties": {
        "name": "库布齐沙漠东线参考轨迹",
        "type": "hiking",
        "source": "两步路用户轨迹",
        "segments": 2
      },
      "geometry": {
        "type": "MultiLineString",
        "coordinates": [
          [
            [
              109.701905,
              40.307017
            ],
            [
              109.701919,
              40.307007
            ],
            [
              109.701911,
              40.30685
            ],
            [
              109.701954,
              40.306328
            ],
            [
              109.701955,
              40.306057
            ],
            [
              109.702004,
              40.305826
            ],
            [
              109.701998,
              40.305386
            ],
            [
              109.702017,
              40.305334
            ],
            [
              109.701965,
              40.305214
            ],
            [
              109.701973,
              40.304883
            ],
            [
              109.702007,
              40.304842
            ],
            [
              109.702114,
              40.304791
            ],
            [
              109.702222,
              40.304713
            ],
            [
              109.702228,
              40.30457
            ],
            [
              109.702254,
              40.304541
            ],
            [
              109.70227,
              40.30446
            ],
            [
              109.702386,
              40.304317
            ],
            [
              109.702409,
              40.304217
            ],
            [
              109.702472,
              40.30411
            ],
            [
              109.702461,
              40.304067
            ],
            [
              109.702514,
              40.30401
            ],
            [
              109.702496,
              40.303967
            ],
            [
              109.702543,
              40.303902
            ],
            [
              109.70253,
              40.303866
            ],
            [
              109.702571,
              40.303706
            ],
            [
              109.702564,
              40.303565
            ],
            [
              109.70262,
              40.303441
            ],
            [
              109.70272,
              40.303319
            ],
            [
              109.702757,
              40.303225
            ],
            [
              109.702814,
              40.303148
            ],
            [
              109.702836,
              40.303145
            ],
            [
              109.702997,
              40.302951
            ],
            [
              109.703082,
              40.302888
            ],
            [
              109.703097,
              40.302838
            ],
            [
              109.703298,
              40.302614
            ],
            [
              109.703335,
              40.302468
            ],
            [
              109.703373,
              40.302408
            ],
            [
              109.703373,
              40.302345
            ],
            [
              109.703413,
              40.302222
            ],
            [
              109.703435,
              40.30197
            ],
            [
              109.703415,
              40.301913
            ],
            [
              109.703477,
              40.301714
            ],
            [
              109.703525,
              40.301657
            ],
            [
              109.703654,
              40.301642
            ],
            [
              109.703717,
              40.301485
            ],
            [
              109.703702,
              40.301457
            ],
            [
              109.703716,
              40.301367
            ],
            [
              109.703686,
              40.301351
            ],
            [
              109.703724,
              40.301184
            ],
            [
              109.703841,
              40.301091
            ],
            [
              109.703938,
              40.300954
            ],
            [
              109.70398,
              40.300943
            ],
            [
              109.704064,
              40.300853
            ],
            [
              109.704033,
              40.30079
            ],
            [
              109.704074,
              40.300666
            ],
            [
              109.704035,
              40.300617
            ],
            [
              109.704055,
              40.300537
            ],
            [
              109.704198,
              40.300401
            ],
            [
              109.704254,
              40.30027
            ],
            [
              109.704236,
              40.300142
            ],
            [
              109.704248,
              40.300056
            ],
            [
              109.704305,
              40.299951
            ],
            [
              109.704368,
              40.299887
            ],
            [
              109.704395,
              40.299789
            ],
            [
              109.704493,
              40.299696
            ],
            [
              109.704545,
              40.299562
            ],
            [
              109.704627,
              40.299491
            ],
            [
              109.70466,
              40.299434
            ],
            [
              109.704718,
              40.299402
            ],
            [
              109.704731,
              40.299378
            ],
            [
              109.704701,
              40.299362
            ],
            [
              109.704707,
              40.299344
            ],
            [
              109.704736,
              40.299356
            ],
            [
              109.704735,
              40.299338
            ],
            [
              109.704757,
              40.299353
            ],
            [
              109.704738,
              40.29935
            ],
            [
              109.704742,
              40.299377
            ],
            [
              109.704684,
              40.299403
            ],
            [
              109.70463,
              40.299391
            ],
            [
              109.704653,
              40.299395
            ],
            [
              109.704702,
              40.299334
            ],
            [
              109.704753,
              40.299336
            ],
            [
              109.704881,
              40.29929
            ],
            [
              109.704892,
              40.299208
            ],
            [
              109.705053,
              40.29911
            ],
            [
              109.705124,
              40.298989
            ],
            [
              109.70519,
              40.298946
            ],
            [
              109.705374,
              40.298915
            ],
            [
              109.705475,
              40.298816
            ],
            [
              109.705504,
              40.298809
            ],
            [
              109.705669,
              40.298607
            ],
            [
              109.705858,
              40.298561
            ],
            [
              109.705982,
              40.298511
            ],
            [
              109.705994,
              40.29852
            ],
            [
              109.706029,
              40.298501
            ],
            [
              109.706075,
              40.298504
            ],
            [
              109.706286,
              40.298456
            ],
            [
              109.706313,
              40.298431
            ],
            [
              109.706383,
              40.298417
            ],
            [
              109.70641,
              40.298361
            ],
            [
              109.706469,
              40.298334
            ],
            [
              109.706616,
              40.298335
            ],
            [
              109.706644,
              40.298321
            ],
            [
              109.706733,
              40.298345
            ],
            [
              109.706789,
              40.298283
            ],
            [
              109.706879,
              40.298238
            ],
            [
              109.70716,
              40.298169
            ],
            [
              109.707175,
              40.298136
            ],
            [
              109.707369,
              40.297995
            ],
            [
              109.707395,
              40.29795
            ],
            [
              109.707386,
              40.297675
            ],
            [
              109.707397,
              40.297485
            ],
            [
              109.707425,
              40.297391
            ],
            [
              109.707398,
              40.297098
            ],
            [
              109.707425,
              40.296769
            ],
            [
              109.707399,
              40.296693
            ],
            [
              109.707426,
              40.296562
            ],
            [
              109.707414,
              40.2962
            ],
            [
              109.707435,
              40.296095
            ],
            [
              109.707416,
              40.295915
            ],
            [
              109.707389,
              40.295855
            ],
            [
              109.707432,
              40.295619
            ],
            [
              109.707426,
              40.295358
            ],
            [
              109.707447,
              40.295254
            ],
            [
              109.707425,
              40.295158
            ],
            [
              109.707437,
              40.295003
            ],
            [
              109.707418,
              40.29496
            ],
            [
              109.707449,
              40.29485
            ],
            [
              109.707444,
              40.294501
            ],
            [
              109.707485,
              40.294017
            ],
            [
              109.707446,
              40.293884
            ],
            [
              109.707472,
              40.293818
            ],
            [
              109.707471,
              40.293696
            ],
            [
              109.707443,
              40.293589
            ],
            [
              109.707468,
              40.293504
            ],
            [
              109.707464,
              40.293293
            ],
            [
              109.707482,
              40.293259
            ],
            [
              109.707481,
              40.293152
            ],
            [
              109.70752,
              40.293102
            ],
            [
              109.707689,
              40.293022
            ],
            [
              109.707689,
              40.292866
            ],
            [
              109.707739,
              40.292826
            ],
            [
              109.707759,
              40.292726
            ],
            [
              109.707745,
              40.292638
            ],
            [
              109.707712,
              40.292586
            ],
            [
              109.707789,
              40.292474
            ],
            [
              109.707799,
              40.292397
            ],
            [
              109.707813,
              40.292377
            ],
            [
              109.708068,
              40.292327
            ],
            [
              109.708176,
              40.292358
            ],
            [
              109.708279,
              40.292336
            ],
            [
              109.708639,
              40.292352
            ],
            [
              109.709353,
              40.292348
            ],
            [
              109.709508,
              40.292289
            ],
            [
              109.709647,
              40.292215
            ],
            [
              109.709756,
              40.292114
            ],
            [
              109.709873,
              40.291699
            ],
            [
              109.709959,
              40.291566
            ],
            [
              109.710004,
              40.291383
            ],
            [
              109.71017,
              40.291152
            ],
            [
              109.710404,
              40.290969
            ],
            [
              109.710582,
              40.290875
            ],
            [
              109.710817,
              40.290832
            ],
            [
              109.710813,
              40.290694
            ],
            [
              109.710755,
              40.290395
            ],
            [
              109.71065,
              40.290118
            ],
            [
              109.710659,
              40.29
            ],
            [
              109.710778,
              40.2897
            ],
            [
              109.711051,
              40.289249
            ],
            [
              109.71111,
              40.2892
            ],
            [
              109.711215,
              40.288924
            ],
            [
              109.711245,
              40.288775
            ],
            [
              109.711236,
              40.288715
            ],
            [
              109.711374,
              40.288235
            ],
            [
              109.711359,
              40.288128
            ],
            [
              109.711373,
              40.288123
            ],
            [
              109.71134,
              40.28802
            ],
            [
              109.711435,
              40.287856
            ],
            [
              109.711517,
              40.287794
            ],
            [
              109.711649,
              40.287742
            ],
            [
              109.711647,
              40.287694
            ],
            [
              109.711691,
              40.28767
            ],
            [
              109.711696,
              40.287636
            ],
            [
              109.711635,
              40.287568
            ],
            [
              109.711645,
              40.287472
            ],
            [
              109.711748,
              40.287314
            ],
            [
              109.711785,
              40.287228
            ],
            [
              109.711785,
              40.287179
            ],
            [
              109.711839,
              40.287169
            ],
            [
              109.711931,
              40.287069
            ],
            [
              109.711948,
              40.287038
            ],
            [
              109.711924,
              40.287011
            ],
            [
              109.711895,
              40.28707
            ],
            [
              109.711855,
              40.287097
            ],
            [
              109.711854,
              40.287076
            ],
            [
              109.711976,
              40.287057
            ],
            [
              109.712069,
              40.287068
            ],
            [
              109.712197,
              40.28704
            ],
            [
              109.712243,
              40.28701
            ],
            [
              109.712299,
              40.287015
            ],
            [
              109.712414,
              40.286987
            ],
            [
              109.712466,
              40.286994
            ],
            [
              109.712579,
              40.286965
            ],
            [
              109.712982,
              40.286964
            ],
            [
              109.71328,
              40.286986
            ],
            [
              109.714149,
              40.286971
            ],
            [
              109.714531,
              40.287003
            ],
            [
              109.715022,
              40.286995
            ],
            [
              109.715084,
              40.287014
            ],
            [
              109.71528,
              40.286983
            ],
            [
              109.715586,
              40.286977
            ],
            [
              109.716209,
              40.287002
            ],
            [
              109.716248,
              40.28699
            ],
            [
              109.716343,
              40.287014
            ],
            [
              109.716399,
              40.287001
            ],
            [
              109.716575,
              40.287008
            ],
            [
              109.716933,
              40.286766
            ],
            [
              109.717039,
              40.286715
            ],
            [
              109.717129,
              40.28671
            ],
            [
              109.717299,
              40.286739
            ],
            [
              109.717437,
              40.286836
            ],
            [
              109.717586,
              40.286821
            ],
            [
              109.717882,
              40.286821
            ],
            [
              109.717939,
              40.286833
            ],
            [
              109.718249,
              40.286813
            ],
            [
              109.71847,
              40.286829
            ],
            [
              109.719086,
              40.286833
            ],
            [
              109.719141,
              40.286842
            ],
            [
              109.719252,
              40.286929
            ],
            [
              109.719747,
              40.28701
            ],
            [
              109.720208,
              40.286995
            ],
            [
              109.720493,
              40.287014
            ],
            [
              109.721069,
              40.287009
            ],
            [
              109.721177,
              40.287022
            ],
            [
              109.721233,
              40.287
            ],
            [
              109.721685,
              40.28703
            ],
            [
              109.722509,
              40.287022
            ],
            [
              109.723123,
              40.287043
            ],
            [
              109.723269,
              40.286976
            ],
            [
              109.723384,
              40.286975
            ],
            [
              109.72349,
              40.286996
            ],
            [
              109.723516,
              40.286966
            ],
            [
              109.723533,
              40.286848
            ],
            [
              109.723616,
              40.286743
            ],
            [
              109.724114,
              40.286584
            ],
            [
              109.724209,
              40.286568
            ],
            [
              109.724273,
              40.286632
            ],
            [
              109.724306,
              40.286756
            ],
            [
              109.724584,
              40.286795
            ],
            [
              109.724845,
              40.286719
            ],
            [
              109.724979,
              40.286705
            ],
            [
              109.725125,
              40.286662
            ],
            [
              109.725375,
              40.286631
            ],
            [
              109.725596,
              40.286742
            ],
            [
              109.726265,
              40.286818
            ],
            [
              109.726291,
              40.28687
            ],
            [
              109.72626,
              40.286904
            ],
            [
              109.726273,
              40.286898
            ],
            [
              109.726277,
              40.286929
            ],
            [
              109.726365,
              40.287007
            ],
            [
              109.726384,
              40.287086
            ],
            [
              109.726464,
              40.287191
            ],
            [
              109.72649,
              40.287264
            ],
            [
              109.726632,
              40.287363
            ],
            [
              109.726775,
              40.287403
            ],
            [
              109.726817,
              40.287433
            ],
            [
              109.726818,
              40.287455
            ],
            [
              109.726889,
              40.287471
            ],
            [
              109.72701,
              40.287537
            ],
            [
              109.727051,
              40.287534
            ],
            [
              109.72711,
              40.287589
            ],
            [
              109.72717,
              40.287695
            ],
            [
              109.727397,
              40.287805
            ],
            [
              109.727412,
              40.287885
            ],
            [
              109.727378,
              40.287938
            ],
            [
              109.727414,
              40.288014
            ],
            [
              109.727421,
              40.288161
            ],
            [
              109.727551,
              40.288331
            ],
            [
              109.727756,
              40.288489
            ],
            [
              109.727876,
              40.28855
            ],
            [
              109.728055,
              40.288574
            ],
            [
              109.728107,
              40.288564
            ],
            [
              109.728279,
              40.288594
            ],
            [
              109.72828,
              40.288573
            ],
            [
              109.728416,
              40.288585
            ],
            [
              109.72857,
              40.28863
            ],
            [
              109.728676,
              40.288752
            ],
            [
              109.728755,
              40.288787
            ],
            [
              109.728799,
              40.28884
            ],
            [
              109.728987,
              40.288964
            ],
            [
              109.729122,
              40.289161
            ],
            [
              109.729488,
              40.289238
            ],
            [
              109.72962,
              40.289305
            ],
            [
              109.729624,
              40.289322
            ],
            [
              109.729608,
              40.289275
            ],
            [
              109.729642,
              40.289187
            ],
            [
              109.729539,
              40.289112
            ],
            [
              109.729513,
              40.28903
            ],
            [
              109.729433,
              40.288986
            ],
            [
              109.729331,
              40.288794
            ],
            [
              109.729328,
              40.288748
            ],
            [
              109.729373,
              40.288686
            ],
            [
              109.729348,
              40.288741
            ],
            [
              109.729394,
              40.288865
            ],
            [
              109.729466,
              40.288928
            ],
            [
              109.729459,
              40.289006
            ],
            [
              109.729501,
              40.289044
            ],
            [
              109.729505,
              40.289083
            ],
            [
              109.729542,
              40.289128
            ],
            [
              109.729575,
              40.28926
            ],
            [
              109.729623,
              40.289293
            ],
            [
              109.729653,
              40.289376
            ],
            [
              109.729643,
              40.289403
            ],
            [
              109.729637,
              40.289323
            ],
            [
              109.729691,
              40.289298
            ],
            [
              109.729755,
              40.289302
            ],
            [
              109.729823,
              40.289329
            ],
            [
              109.730116,
              40.289557
            ],
            [
              109.730201,
              40.289598
            ],
            [
              109.730369,
              40.289626
            ],
            [
              109.730688,
              40.289641
            ],
            [
              109.730798,
              40.289692
            ],
            [
              109.730831,
              40.289737
            ],
            [
              109.730827,
              40.289768
            ],
            [
              109.730796,
              40.28978
            ],
            [
              109.730833,
              40.289799
            ],
            [
              109.730904,
              40.289821
            ],
            [
              109.730999,
              40.289823
            ],
            [
              109.731075,
              40.289855
            ],
            [
              109.731148,
              40.28984
            ],
            [
              109.731271,
              40.289872
            ],
            [
              109.731526,
              40.289996
            ],
            [
              109.731654,
              40.290119
            ],
            [
              109.731718,
              40.29015
            ],
            [
              109.731816,
              40.290169
            ],
            [
              109.731909,
              40.290131
            ],
            [
              109.731992,
              40.290134
            ],
            [
              109.731963,
              40.290113
            ],
            [
              109.732164,
              40.290104
            ],
            [
              109.732188,
              40.290062
            ],
            [
              109.732608,
              40.290156
            ],
            [
              109.732958,
              40.290271
            ],
            [
              109.733224,
              40.290312
            ],
            [
              109.733396,
              40.290265
            ],
            [
              109.733598,
              40.290238
            ],
            [
              109.733624,
              40.290221
            ],
            [
              109.73363,
              40.290158
            ],
            [
              109.733675,
              40.290071
            ],
            [
              109.733913,
              40.290071
            ],
            [
              109.734156,
              40.290034
            ],
            [
              109.734538,
              40.289898
            ],
            [
              109.734701,
              40.28978
            ],
            [
              109.734992,
              40.289718
            ],
            [
              109.73538,
              40.289603
            ],
            [
              109.735437,
              40.289594
            ],
            [
              109.735732,
              40.289617
            ],
            [
              109.735915,
              40.289592
            ],
            [
              109.736023,
              40.289649
            ],
            [
              109.736075,
              40.289725
            ],
            [
              109.73627,
              40.289818
            ],
            [
              109.736335,
              40.289785
            ],
            [
              109.736397,
              40.28971
            ],
            [
              109.736633,
              40.289612
            ],
            [
              109.736748,
              40.289521
            ],
            [
              109.736816,
              40.289508
            ],
            [
              109.73704,
              40.289361
            ],
            [
              109.737083,
              40.289315
            ],
            [
              109.737042,
              40.289308
            ],
            [
              109.737005,
              40.289229
            ],
            [
              109.737126,
              40.289093
            ],
            [
              109.737119,
              40.289072
            ],
            [
              109.7371,
              40.289089
            ],
            [
              109.73713,
              40.28901
            ],
            [
              109.737197,
              40.288958
            ],
            [
              109.737355,
              40.2889
            ],
            [
              109.737973,
              40.288839
            ],
            [
              109.738175,
              40.288762
            ],
            [
              109.738332,
              40.288737
            ],
            [
              109.73843,
              40.288744
            ],
            [
              109.738583,
              40.288802
            ],
            [
              109.73862,
              40.288854
            ],
            [
              109.738809,
              40.288891
            ],
            [
              109.738945,
              40.288958
            ],
            [
              109.73903,
              40.288964
            ],
            [
              109.739238,
              40.288924
            ],
            [
              109.739238,
              40.288935
            ],
            [
              109.739377,
              40.288942
            ],
            [
              109.739687,
              40.28893
            ],
            [
              109.739729,
              40.288907
            ],
            [
              109.739809,
              40.288755
            ],
            [
              109.740008,
              40.288711
            ],
            [
              109.740219,
              40.288716
            ],
            [
              109.740418,
              40.28877
            ],
            [
              109.740807,
              40.288742
            ],
            [
              109.741074,
              40.288777
            ],
            [
              109.741192,
              40.288774
            ],
            [
              109.741298,
              40.288717
            ],
            [
              109.741356,
              40.288735
            ],
            [
              109.741492,
              40.288728
            ],
            [
              109.741675,
              40.288776
            ],
            [
              109.741853,
              40.288798
            ],
            [
              109.742087,
              40.288755
            ],
            [
              109.742204,
              40.288752
            ],
            [
              109.742348,
              40.288711
            ],
            [
              109.742541,
              40.28871
            ],
            [
              109.742701,
              40.288757
            ],
            [
              109.742928,
              40.288772
            ],
            [
              109.743108,
              40.288744
            ],
            [
              109.74315,
              40.288702
            ],
            [
              109.743341,
              40.2886
            ],
            [
              109.743394,
              40.288602
            ],
            [
              109.743519,
              40.28863
            ],
            [
              109.743663,
              40.28871
            ],
            [
              109.743933,
              40.288698
            ],
            [
              109.744224,
              40.288805
            ],
            [
              109.744453,
              40.288869
            ],
            [
              109.744748,
              40.289026
            ],
            [
              109.744779,
              40.289112
            ],
            [
              109.744859,
              40.289152
            ],
            [
              109.744995,
              40.289168
            ],
            [
              109.745122,
              40.289095
            ],
            [
              109.745253,
              40.289051
            ],
            [
              109.745486,
              40.289058
            ],
            [
              109.74566,
              40.289082
            ],
            [
              109.745926,
              40.289029
            ],
            [
              109.74596,
              40.289079
            ],
            [
              109.746055,
              40.289156
            ],
            [
              109.746116,
              40.2892
            ],
            [
              109.746182,
              40.289215
            ],
            [
              109.74643,
              40.289081
            ],
            [
              109.746652,
              40.28902
            ],
            [
              109.746808,
              40.289005
            ],
            [
              109.747034,
              40.288917
            ],
            [
              109.747182,
              40.288893
            ],
            [
              109.747271,
              40.288845
            ],
            [
              109.747369,
              40.288847
            ],
            [
              109.747582,
              40.28877
            ],
            [
              109.74767,
              40.288765
            ],
            [
              109.747706,
              40.288732
            ],
            [
              109.748014,
              40.288658
            ],
            [
              109.74815,
              40.288591
            ],
            [
              109.748391,
              40.288599
            ],
            [
              109.74886,
              40.288563
            ],
            [
              109.74911,
              40.288413
            ],
            [
              109.749257,
              40.288406
            ],
            [
              109.749358,
              40.288356
            ],
            [
              109.749711,
              40.288366
            ],
            [
              109.749935,
              40.288325
            ],
            [
              109.750265,
              40.288362
            ],
            [
              109.750313,
              40.288398
            ],
            [
              109.750315,
              40.288368
            ],
            [
              109.750367,
              40.288341
            ],
            [
              109.750433,
              40.288349
            ],
            [
              109.750515,
              40.288333
            ],
            [
              109.751188,
              40.288554
            ],
            [
              109.751381,
              40.288559
            ],
            [
              109.751463,
              40.288598
            ],
            [
              109.751745,
              40.288626
            ],
            [
              109.75214,
              40.2888
            ],
            [
              109.7522,
              40.28878
            ],
            [
              109.75219,
              40.288791
            ],
            [
              109.752199,
              40.288781
            ],
            [
              109.752228,
              40.288821
            ],
            [
              109.752555,
              40.288873
            ],
            [
              109.752706,
              40.288808
            ],
            [
              109.752896,
              40.288774
            ],
            [
              109.753076,
              40.288634
            ],
            [
              109.753245,
              40.288589
            ],
            [
              109.753243,
              40.288542
            ],
            [
              109.75329,
              40.288491
            ],
            [
              109.753406,
              40.288445
            ],
            [
              109.753987,
              40.288539
            ],
            [
              109.754231,
              40.288531
            ],
            [
              109.754384,
              40.288467
            ],
            [
              109.754501,
              40.288443
            ],
            [
              109.754923,
              40.288427
            ],
            [
              109.75511,
              40.28846
            ],
            [
              109.755317,
              40.288439
            ],
            [
              109.755446,
              40.288398
            ],
            [
              109.755584,
              40.288376
            ],
            [
              109.755768,
              40.288281
            ],
            [
              109.755903,
              40.288271
            ],
            [
              109.756018,
              40.288283
            ],
            [
              109.756082,
              40.288265
            ],
            [
              109.756292,
              40.288302
            ],
            [
              109.756441,
              40.288305
            ],
            [
              109.756491,
              40.288277
            ],
            [
              109.756609,
              40.288323
            ],
            [
              109.756727,
              40.288304
            ],
            [
              109.756952,
              40.288353
            ],
            [
              109.75702,
              40.288331
            ],
            [
              109.757263,
              40.288336
            ],
            [
              109.75749,
              40.288367
            ],
            [
              109.757666,
              40.288426
            ],
            [
              109.757896,
              40.28844
            ],
            [
              109.757958,
              40.288412
            ],
            [
              109.758005,
              40.288442
            ],
            [
              109.758283,
              40.28848
            ],
            [
              109.758354,
              40.288533
            ],
            [
              109.75837,
              40.288599
            ],
            [
              109.758426,
              40.288671
            ],
            [
              109.758583,
              40.288708
            ],
            [
              109.758585,
              40.28874
            ],
            [
              109.758657,
              40.288753
            ],
            [
              109.758743,
              40.288732
            ],
            [
              109.758789,
              40.288746
            ],
            [
              109.758782,
              40.288775
            ],
            [
              109.758774,
              40.288758
            ],
            [
              109.758858,
              40.288772
            ],
            [
              109.75896,
              40.288833
            ],
            [
              109.759039,
              40.288853
            ],
            [
              109.759027,
              40.288838
            ],
            [
              109.759332,
              40.288806
            ],
            [
              109.759429,
              40.288809
            ],
            [
              109.759568,
              40.288858
            ],
            [
              109.759671,
              40.288828
            ],
            [
              109.759997,
              40.288782
            ],
            [
              109.760211,
              40.288725
            ],
            [
              109.760607,
              40.2887
            ],
            [
              109.760736,
              40.288667
            ],
            [
              109.761092,
              40.288651
            ],
            [
              109.761205,
              40.288686
            ],
            [
              109.761406,
              40.288807
            ],
            [
              109.761423,
              40.288835
            ],
            [
              109.76148,
              40.288865
            ],
            [
              109.761531,
              40.288869
            ],
            [
              109.761694,
              40.288969
            ],
            [
              109.761901,
              40.289161
            ],
            [
              109.762064,
              40.289282
            ],
            [
              109.762078,
              40.289322
            ],
            [
              109.762275,
              40.289413
            ],
            [
              109.762403,
              40.289454
            ],
            [
              109.762722,
              40.289435
            ],
            [
              109.762942,
              40.28945
            ],
            [
              109.763033,
              40.289437
            ],
            [
              109.76317,
              40.289443
            ],
            [
              109.763304,
              40.289486
            ],
            [
              109.763517,
              40.289527
            ],
            [
              109.763666,
              40.289631
            ],
            [
              109.763818,
              40.289818
            ],
            [
              109.763845,
              40.289936
            ],
            [
              109.76394,
              40.290046
            ],
            [
              109.763947,
              40.290148
            ],
            [
              109.763899,
              40.29025
            ],
            [
              109.76391,
              40.290323
            ],
            [
              109.763885,
              40.290373
            ],
            [
              109.763924,
              40.290523
            ],
            [
              109.76404,
              40.290633
            ],
            [
              109.764118,
              40.290783
            ],
            [
              109.764197,
              40.29083
            ],
            [
              109.764279,
              40.290949
            ],
            [
              109.764371,
              40.290995
            ],
            [
              109.764381,
              40.291022
            ],
            [
              109.764381,
              40.291113
            ],
            [
              109.764344,
              40.291176
            ],
            [
              109.764349,
              40.29127
            ],
            [
              109.764322,
              40.291403
            ],
            [
              109.764337,
              40.291458
            ],
            [
              109.764544,
              40.291674
            ],
            [
              109.764795,
              40.291796
            ],
            [
              109.764872,
              40.291868
            ],
            [
              109.764972,
              40.291901
            ],
            [
              109.765067,
              40.29196
            ],
            [
              109.765205,
              40.292098
            ],
            [
              109.765433,
              40.292221
            ],
            [
              109.765571,
              40.292649
            ],
            [
              109.765621,
              40.292698
            ],
            [
              109.765705,
              40.292844
            ],
            [
              109.765761,
              40.292875
            ],
            [
              109.765837,
              40.292979
            ],
            [
              109.765895,
              40.293174
            ],
            [
              109.766312,
              40.293349
            ],
            [
              109.766647,
              40.29359
            ],
            [
              109.766887,
              40.293683
            ],
            [
              109.767531,
              40.293813
            ],
            [
              109.767662,
              40.293815
            ],
            [
              109.768059,
              40.293868
            ],
            [
              109.768439,
              40.293981
            ],
            [
              109.768643,
              40.294073
            ],
            [
              109.769173,
              40.2944
            ],
            [
              109.769406,
              40.294491
            ],
            [
              109.769869,
              40.294602
            ],
            [
              109.770225,
              40.294659
            ],
            [
              109.77045,
              40.294729
            ],
            [
              109.770635,
              40.294762
            ],
            [
              109.770689,
              40.294747
            ],
            [
              109.770895,
              40.294643
            ],
            [
              109.771047,
              40.294536
            ],
            [
              109.77116,
              40.294431
            ],
            [
              109.771288,
              40.294343
            ],
            [
              109.771397,
              40.294225
            ],
            [
              109.771425,
              40.294213
            ],
            [
              109.77148,
              40.294229
            ],
            [
              109.771462,
              40.294203
            ],
            [
              109.771685,
              40.294041
            ],
            [
              109.771708,
              40.293994
            ],
            [
              109.771785,
              40.29394
            ],
            [
              109.772494,
              40.293568
            ],
            [
              109.772676,
              40.293429
            ],
            [
              109.772833,
              40.293357
            ],
            [
              109.773077,
              40.293333
            ],
            [
              109.773314,
              40.293366
            ],
            [
              109.773368,
              40.293395
            ],
            [
              109.773327,
              40.293325
            ],
            [
              109.777328,
              40.294274
            ],
            [
              109.777539,
              40.294252
            ],
            [
              109.777631,
              40.294224
            ],
            [
              109.77793,
              40.294213
            ],
            [
              109.778076,
              40.294238
            ],
            [
              109.778468,
              40.294385
            ],
            [
              109.77867,
              40.294417
            ],
            [
              109.77966,
              40.294381
            ],
            [
              109.779952,
              40.29439
            ],
            [
              109.780311,
              40.294357
            ],
            [
              109.780544,
              40.294376
            ],
            [
              109.780721,
              40.294455
            ],
            [
              109.781002,
              40.294649
            ],
            [
              109.781149,
              40.294721
            ],
            [
              109.781417,
              40.2948
            ],
            [
              109.781665,
              40.294828
            ],
            [
              109.782014,
              40.294824
            ],
            [
              109.782291,
              40.294791
            ],
            [
              109.782427,
              40.294796
            ],
            [
              109.782751,
              40.294745
            ],
            [
              109.783031,
              40.294734
            ],
            [
              109.783336,
              40.294842
            ],
            [
              109.783536,
              40.294865
            ],
            [
              109.784027,
              40.294766
            ],
            [
              109.784393,
              40.294781
            ],
            [
              109.784702,
              40.294856
            ],
            [
              109.784827,
              40.294865
            ],
            [
              109.785059,
              40.294843
            ],
            [
              109.785332,
              40.294777
            ],
            [
              109.785556,
              40.294758
            ],
            [
              109.786167,
              40.294798
            ],
            [
              109.786404,
              40.294789
            ],
            [
              109.786591,
              40.294816
            ],
            [
              109.786912,
              40.29489
            ],
            [
              109.786957,
              40.295141
            ],
            [
              109.78707,
              40.29532
            ],
            [
              109.787319,
              40.295455
            ],
            [
              109.787331,
              40.295575
            ],
            [
              109.787383,
              40.295609
            ],
            [
              109.787441,
              40.295721
            ],
            [
              109.787487,
              40.29575
            ],
            [
              109.78753,
              40.295755
            ],
            [
              109.787574,
              40.295795
            ],
            [
              109.78758,
              40.295835
            ],
            [
              109.787642,
              40.295926
            ],
            [
              109.787644,
              40.295973
            ],
            [
              109.787623,
              40.296005
            ],
            [
              109.787504,
              40.296074
            ],
            [
              109.787437,
              40.296148
            ],
            [
              109.787387,
              40.296175
            ]
          ],
          [
            [
              109.787537,
              40.296106
            ],
            [
              109.787661,
              40.296131
            ],
            [
              109.788199,
              40.296067
            ],
            [
              109.788238,
              40.296075
            ],
            [
              109.788352,
              40.296051
            ],
            [
              109.788494,
              40.296058
            ],
            [
              109.78856,
              40.296038
            ],
            [
              109.788814,
              40.296022
            ],
            [
              109.789083,
              40.295967
            ],
            [
              109.789141,
              40.295972
            ],
            [
              109.789434,
              40.295855
            ],
            [
              109.789489,
              40.295847
            ],
            [
              109.789725,
              40.295723
            ],
            [
              109.790086,
              40.295598
            ],
            [
              109.790136,
              40.295562
            ],
            [
              109.790343,
              40.295478
            ],
            [
              109.790489,
              40.295432
            ],
            [
              109.790678,
              40.295404
            ],
            [
              109.790816,
              40.295335
            ],
            [
              109.790931,
              40.295315
            ],
            [
              109.791034,
              40.295263
            ],
            [
              109.791308,
              40.295183
            ],
            [
              109.791445,
              40.295121
            ],
            [
              109.791795,
              40.295028
            ],
            [
              109.792096,
              40.294987
            ],
            [
              109.792322,
              40.294989
            ],
            [
              109.792521,
              40.29497
            ],
            [
              109.792592,
              40.294983
            ],
            [
              109.792682,
              40.294971
            ],
            [
              109.792777,
              40.294987
            ],
            [
              109.792831,
              40.294975
            ],
            [
              109.792965,
              40.294986
            ],
            [
              109.793512,
              40.294932
            ],
            [
              109.793892,
              40.294928
            ],
            [
              109.794038,
              40.294947
            ],
            [
              109.794192,
              40.294943
            ],
            [
              109.794286,
              40.294921
            ],
            [
              109.794344,
              40.294929
            ],
            [
              109.794413,
              40.294902
            ],
            [
              109.794534,
              40.294902
            ],
            [
              109.794655,
              40.294851
            ],
            [
              109.7947,
              40.294851
            ],
            [
              109.794831,
              40.294792
            ],
            [
              109.79489,
              40.294747
            ],
            [
              109.795155,
              40.294641
            ],
            [
              109.795529,
              40.294627
            ],
            [
              109.795873,
              40.294548
            ],
            [
              109.796104,
              40.294526
            ],
            [
              109.796301,
              40.29447
            ],
            [
              109.796457,
              40.294448
            ],
            [
              109.796692,
              40.294438
            ],
            [
              109.796767,
              40.29445
            ],
            [
              109.797093,
              40.294416
            ],
            [
              109.797183,
              40.294345
            ],
            [
              109.797265,
              40.29434
            ],
            [
              109.797346,
              40.294362
            ],
            [
              109.797534,
              40.294374
            ],
            [
              109.797739,
              40.294343
            ],
            [
              109.797882,
              40.294291
            ],
            [
              109.798022,
              40.294154
            ],
            [
              109.798316,
              40.293956
            ],
            [
              109.798593,
              40.293847
            ],
            [
              109.798715,
              40.293767
            ],
            [
              109.798879,
              40.293741
            ],
            [
              109.798981,
              40.293772
            ],
            [
              109.799051,
              40.293826
            ],
            [
              109.799029,
              40.293851
            ],
            [
              109.79914,
              40.293876
            ],
            [
              109.799181,
              40.293869
            ],
            [
              109.799258,
              40.293817
            ],
            [
              109.79939,
              40.29378
            ],
            [
              109.799531,
              40.293916
            ],
            [
              109.799546,
              40.293969
            ],
            [
              109.799611,
              40.294048
            ],
            [
              109.799863,
              40.294283
            ],
            [
              109.800223,
              40.294487
            ],
            [
              109.800248,
              40.294517
            ],
            [
              109.80034,
              40.294564
            ],
            [
              109.800651,
              40.294656
            ],
            [
              109.801569,
              40.295104
            ],
            [
              109.801776,
              40.295105
            ],
            [
              109.801991,
              40.295167
            ],
            [
              109.802288,
              40.295354
            ],
            [
              109.802329,
              40.295396
            ],
            [
              109.802392,
              40.295409
            ],
            [
              109.802431,
              40.295441
            ],
            [
              109.802516,
              40.295461
            ],
            [
              109.802606,
              40.295506
            ],
            [
              109.802636,
              40.295504
            ],
            [
              109.802778,
              40.295569
            ],
            [
              109.802957,
              40.295614
            ],
            [
              109.803266,
              40.295765
            ],
            [
              109.803421,
              40.295747
            ],
            [
              109.803734,
              40.295614
            ],
            [
              109.803817,
              40.295607
            ],
            [
              109.803871,
              40.295569
            ],
            [
              109.803922,
              40.295569
            ],
            [
              109.803967,
              40.295535
            ],
            [
              109.80405,
              40.29552
            ],
            [
              109.804304,
              40.295536
            ],
            [
              109.804393,
              40.29549
            ],
            [
              109.804488,
              40.295526
            ],
            [
              109.80482,
              40.295539
            ],
            [
              109.804853,
              40.295561
            ],
            [
              109.804921,
              40.295556
            ],
            [
              109.805024,
              40.295596
            ],
            [
              109.805131,
              40.295576
            ],
            [
              109.805179,
              40.295591
            ],
            [
              109.805278,
              40.295591
            ],
            [
              109.805352,
              40.295559
            ],
            [
              109.805431,
              40.295549
            ],
            [
              109.805388,
              40.295566
            ],
            [
              109.805417,
              40.295564
            ],
            [
              109.805374,
              40.295546
            ],
            [
              109.805422,
              40.295538
            ],
            [
              109.805388,
              40.295523
            ],
            [
              109.805256,
              40.295593
            ],
            [
              109.805457,
              40.29551
            ],
            [
              109.80555,
              40.295328
            ],
            [
              109.805652,
              40.295207
            ],
            [
              109.805668,
              40.295156
            ],
            [
              109.80566,
              40.295031
            ],
            [
              109.805836,
              40.294735
            ],
            [
              109.806005,
              40.294396
            ],
            [
              109.806067,
              40.29432
            ],
            [
              109.806083,
              40.294265
            ],
            [
              109.806179,
              40.294185
            ],
            [
              109.806499,
              40.294249
            ],
            [
              109.806549,
              40.294283
            ],
            [
              109.806604,
              40.294435
            ],
            [
              109.806664,
              40.294482
            ],
            [
              109.806738,
              40.294512
            ],
            [
              109.806941,
              40.294563
            ],
            [
              109.80728,
              40.294596
            ],
            [
              109.807372,
              40.294512
            ],
            [
              109.807417,
              40.294495
            ],
            [
              109.807552,
              40.294299
            ],
            [
              109.807709,
              40.294288
            ],
            [
              109.807836,
              40.294344
            ],
            [
              109.807919,
              40.294358
            ],
            [
              109.808069,
              40.294344
            ],
            [
              109.808341,
              40.29416
            ],
            [
              109.808694,
              40.293956
            ],
            [
              109.808791,
              40.293923
            ],
            [
              109.808925,
              40.29394
            ],
            [
              109.808978,
              40.293917
            ],
            [
              109.809201,
              40.293697
            ],
            [
              109.809892,
              40.293445
            ],
            [
              109.810088,
              40.293322
            ],
            [
              109.810214,
              40.293278
            ],
            [
              109.810407,
              40.293281
            ],
            [
              109.81064,
              40.293132
            ],
            [
              109.810833,
              40.293115
            ],
            [
              109.810939,
              40.293179
            ],
            [
              109.811025,
              40.293207
            ],
            [
              109.811251,
              40.293182
            ],
            [
              109.811494,
              40.293111
            ],
            [
              109.811783,
              40.293058
            ],
            [
              109.811876,
              40.293006
            ],
            [
              109.811999,
              40.292796
            ],
            [
              109.812116,
              40.292672
            ],
            [
              109.812179,
              40.292632
            ],
            [
              109.812402,
              40.292546
            ],
            [
              109.812602,
              40.292494
            ],
            [
              109.812771,
              40.292519
            ],
            [
              109.812807,
              40.292511
            ],
            [
              109.813016,
              40.292374
            ],
            [
              109.813056,
              40.292366
            ],
            [
              109.813336,
              40.292367
            ],
            [
              109.813472,
              40.292336
            ],
            [
              109.813761,
              40.292372
            ],
            [
              109.813843,
              40.292396
            ],
            [
              109.813886,
              40.292427
            ],
            [
              109.813898,
              40.292499
            ],
            [
              109.81403,
              40.292612
            ],
            [
              109.814222,
              40.292629
            ],
            [
              109.814354,
              40.292667
            ],
            [
              109.814567,
              40.292778
            ],
            [
              109.814615,
              40.29273
            ],
            [
              109.814689,
              40.292721
            ],
            [
              109.81483,
              40.292766
            ],
            [
              109.815034,
              40.292879
            ],
            [
              109.815161,
              40.292975
            ],
            [
              109.815222,
              40.292982
            ],
            [
              109.815393,
              40.292902
            ],
            [
              109.815416,
              40.292866
            ],
            [
              109.815383,
              40.292844
            ],
            [
              109.815365,
              40.29286
            ],
            [
              109.815561,
              40.292723
            ],
            [
              109.816138,
              40.292549
            ],
            [
              109.816322,
              40.292514
            ],
            [
              109.816421,
              40.292535
            ],
            [
              109.816555,
              40.29261
            ],
            [
              109.816724,
              40.292644
            ],
            [
              109.816861,
              40.2926
            ],
            [
              109.817009,
              40.292494
            ],
            [
              109.817113,
              40.292493
            ],
            [
              109.817153,
              40.292475
            ],
            [
              109.817234,
              40.292557
            ],
            [
              109.817265,
              40.292637
            ],
            [
              109.817238,
              40.292765
            ],
            [
              109.817268,
              40.29281
            ],
            [
              109.817239,
              40.292881
            ],
            [
              109.817286,
              40.293005
            ],
            [
              109.817267,
              40.293081
            ],
            [
              109.817216,
              40.293121
            ],
            [
              109.81721,
              40.293153
            ],
            [
              109.817253,
              40.293286
            ],
            [
              109.817308,
              40.293315
            ],
            [
              109.817462,
              40.293306
            ],
            [
              109.817641,
              40.293351
            ],
            [
              109.817693,
              40.293346
            ],
            [
              109.817767,
              40.293304
            ],
            [
              109.817951,
              40.293125
            ],
            [
              109.818015,
              40.293092
            ],
            [
              109.818284,
              40.293033
            ],
            [
              109.818313,
              40.292977
            ],
            [
              109.81833,
              40.292912
            ],
            [
              109.818319,
              40.292876
            ],
            [
              109.818256,
              40.29282
            ],
            [
              109.81825,
              40.292616
            ],
            [
              109.818184,
              40.292477
            ],
            [
              109.81816,
              40.292362
            ],
            [
              109.817938,
              40.292242
            ],
            [
              109.817887,
              40.292198
            ],
            [
              109.817799,
              40.292164
            ],
            [
              109.817749,
              40.292042
            ],
            [
              109.8178,
              40.292001
            ],
            [
              109.817946,
              40.291938
            ],
            [
              109.818028,
              40.291908
            ],
            [
              109.818096,
              40.291924
            ],
            [
              109.818196,
              40.291892
            ],
            [
              109.818233,
              40.29186
            ],
            [
              109.818329,
              40.291736
            ],
            [
              109.818303,
              40.291609
            ],
            [
              109.818355,
              40.291492
            ],
            [
              109.818394,
              40.291457
            ],
            [
              109.818462,
              40.291448
            ],
            [
              109.818502,
              40.291417
            ],
            [
              109.818584,
              40.291398
            ],
            [
              109.81891,
              40.291355
            ],
            [
              109.819105,
              40.291266
            ],
            [
              109.819299,
              40.291231
            ],
            [
              109.819449,
              40.291234
            ],
            [
              109.819591,
              40.291185
            ],
            [
              109.819683,
              40.291133
            ],
            [
              109.819753,
              40.291122
            ],
            [
              109.81978,
              40.291041
            ],
            [
              109.820007,
              40.290891
            ],
            [
              109.820039,
              40.290782
            ],
            [
              109.820202,
              40.290597
            ],
            [
              109.820363,
              40.290564
            ],
            [
              109.820501,
              40.290575
            ],
            [
              109.820666,
              40.29056
            ],
            [
              109.820883,
              40.290575
            ],
            [
              109.821094,
              40.290562
            ],
            [
              109.821149,
              40.29053
            ],
            [
              109.821204,
              40.290422
            ],
            [
              109.821344,
              40.290297
            ],
            [
              109.821408,
              40.290211
            ],
            [
              109.821534,
              40.290115
            ],
            [
              109.821623,
              40.290087
            ],
            [
              109.821703,
              40.289989
            ],
            [
              109.822074,
              40.289824
            ],
            [
              109.822174,
              40.289746
            ],
            [
              109.822235,
              40.28973
            ],
            [
              109.822269,
              40.289686
            ],
            [
              109.8224,
              40.289599
            ],
            [
              109.822451,
              40.289582
            ],
            [
              109.822523,
              40.28959
            ],
            [
              109.822563,
              40.289562
            ],
            [
              109.822675,
              40.289534
            ],
            [
              109.82281,
              40.289473
            ],
            [
              109.822856,
              40.289438
            ],
            [
              109.822949,
              40.28943
            ],
            [
              109.823025,
              40.289394
            ],
            [
              109.823122,
              40.289289
            ],
            [
              109.823224,
              40.28909
            ],
            [
              109.823466,
              40.288978
            ],
            [
              109.823468,
              40.288945
            ],
            [
              109.823491,
              40.288943
            ],
            [
              109.823534,
              40.288852
            ],
            [
              109.823599,
              40.288776
            ],
            [
              109.823684,
              40.28872
            ],
            [
              109.823894,
              40.288651
            ],
            [
              109.823922,
              40.288629
            ],
            [
              109.823954,
              40.288542
            ],
            [
              109.82417,
              40.288372
            ],
            [
              109.824229,
              40.288305
            ],
            [
              109.824326,
              40.288285
            ],
            [
              109.824454,
              40.288298
            ],
            [
              109.824494,
              40.28828
            ],
            [
              109.824821,
              40.288079
            ],
            [
              109.824992,
              40.287825
            ],
            [
              109.825077,
              40.287759
            ],
            [
              109.825232,
              40.2877
            ],
            [
              109.825298,
              40.287646
            ],
            [
              109.825335,
              40.287652
            ],
            [
              109.825409,
              40.28762
            ],
            [
              109.825397,
              40.287571
            ],
            [
              109.825686,
              40.287433
            ],
            [
              109.825984,
              40.287343
            ],
            [
              109.826032,
              40.28729
            ],
            [
              109.826368,
              40.287063
            ],
            [
              109.826828,
              40.286826
            ],
            [
              109.826866,
              40.286775
            ],
            [
              109.827002,
              40.286704
            ],
            [
              109.827102,
              40.286613
            ],
            [
              109.827152,
              40.286627
            ],
            [
              109.827192,
              40.286619
            ],
            [
              109.82722,
              40.286552
            ],
            [
              109.827317,
              40.286493
            ],
            [
              109.827358,
              40.286448
            ],
            [
              109.828069,
              40.286123
            ],
            [
              109.828115,
              40.28612
            ],
            [
              109.828316,
              40.286045
            ],
            [
              109.828329,
              40.285999
            ],
            [
              109.828368,
              40.285959
            ],
            [
              109.828409,
              40.285944
            ],
            [
              109.828452,
              40.28595
            ],
            [
              109.828727,
              40.285808
            ],
            [
              109.828819,
              40.285839
            ],
            [
              109.82894,
              40.285845
            ],
            [
              109.82946,
              40.28561
            ],
            [
              109.829609,
              40.28551
            ],
            [
              109.829889,
              40.285365
            ],
            [
              109.830047,
              40.285326
            ],
            [
              109.830122,
              40.285262
            ],
            [
              109.830212,
              40.285134
            ],
            [
              109.830671,
              40.284862
            ],
            [
              109.830739,
              40.284867
            ],
            [
              109.830887,
              40.284843
            ],
            [
              109.830998,
              40.284894
            ],
            [
              109.831155,
              40.284797
            ],
            [
              109.831186,
              40.284797
            ],
            [
              109.831214,
              40.2848
            ],
            [
              109.831242,
              40.28483
            ],
            [
              109.831307,
              40.28482
            ],
            [
              109.831349,
              40.284832
            ],
            [
              109.831426,
              40.284884
            ],
            [
              109.831491,
              40.284895
            ],
            [
              109.831622,
              40.284882
            ],
            [
              109.831738,
              40.284902
            ],
            [
              109.831982,
              40.284844
            ],
            [
              109.832074,
              40.284802
            ],
            [
              109.832191,
              40.284679
            ],
            [
              109.832243,
              40.284667
            ],
            [
              109.832231,
              40.284694
            ],
            [
              109.832279,
              40.284711
            ],
            [
              109.832353,
              40.284657
            ],
            [
              109.832409,
              40.284686
            ],
            [
              109.832386,
              40.284765
            ],
            [
              109.832415,
              40.284822
            ],
            [
              109.832434,
              40.284763
            ],
            [
              109.832406,
              40.284724
            ],
            [
              109.832416,
              40.284644
            ],
            [
              109.832354,
              40.284597
            ],
            [
              109.832229,
              40.284671
            ],
            [
              109.832242,
              40.284666
            ],
            [
              109.832268,
              40.284717
            ],
            [
              109.832373,
              40.284647
            ],
            [
              109.83241,
              40.28466
            ],
            [
              109.832426,
              40.284745
            ],
            [
              109.832596,
              40.284882
            ],
            [
              109.832637,
              40.284966
            ],
            [
              109.832628,
              40.285085
            ],
            [
              109.832662,
              40.285127
            ],
            [
              109.832632,
              40.285271
            ],
            [
              109.832644,
              40.285319
            ],
            [
              109.832611,
              40.285402
            ],
            [
              109.832482,
              40.285527
            ],
            [
              109.832485,
              40.285567
            ],
            [
              109.832566,
              40.285615
            ],
            [
              109.832587,
              40.285675
            ],
            [
              109.832607,
              40.285767
            ],
            [
              109.832565,
              40.285959
            ],
            [
              109.832571,
              40.285988
            ],
            [
              109.832597,
              40.286003
            ],
            [
              109.832168,
              40.286535
            ],
            [
              109.832044,
              40.286648
            ],
            [
              109.831985,
              40.28668
            ],
            [
              109.831785,
              40.286997
            ],
            [
              109.831547,
              40.287284
            ],
            [
              109.831388,
              40.287418
            ],
            [
              109.831064,
              40.287757
            ],
            [
              109.831137,
              40.287829
            ],
            [
              109.83101,
              40.28795
            ],
            [
              109.83094,
              40.288093
            ],
            [
              109.83099,
              40.28834
            ],
            [
              109.831099,
              40.288647
            ],
            [
              109.831093,
              40.288716
            ],
            [
              109.831129,
              40.288749
            ],
            [
              109.831199,
              40.288783
            ],
            [
              109.831273,
              40.288792
            ],
            [
              109.831375,
              40.288855
            ],
            [
              109.831517,
              40.288845
            ],
            [
              109.831772,
              40.288862
            ],
            [
              109.831917,
              40.288944
            ],
            [
              109.832,
              40.289115
            ],
            [
              109.832054,
              40.289184
            ],
            [
              109.832139,
              40.289214
            ],
            [
              109.832262,
              40.289311
            ],
            [
              109.832309,
              40.28942
            ],
            [
              109.832575,
              40.289655
            ],
            [
              109.83271,
              40.289716
            ],
            [
              109.832993,
              40.289702
            ],
            [
              109.832952,
              40.289805
            ],
            [
              109.832871,
              40.289873
            ],
            [
              109.832857,
              40.289963
            ],
            [
              109.8329,
              40.29023
            ],
            [
              109.833099,
              40.290526
            ],
            [
              109.833185,
              40.290594
            ],
            [
              109.833198,
              40.290622
            ],
            [
              109.833162,
              40.290688
            ],
            [
              109.833372,
              40.290904
            ],
            [
              109.833436,
              40.291005
            ],
            [
              109.83344,
              40.291048
            ],
            [
              109.833706,
              40.291155
            ],
            [
              109.8339,
              40.291254
            ],
            [
              109.834484,
              40.29143
            ],
            [
              109.834548,
              40.291518
            ],
            [
              109.834663,
              40.291605
            ],
            [
              109.834621,
              40.291722
            ],
            [
              109.834664,
              40.291826
            ],
            [
              109.835022,
              40.292088
            ],
            [
              109.835459,
              40.292242
            ],
            [
              109.835892,
              40.292354
            ],
            [
              109.836095,
              40.292454
            ],
            [
              109.836299,
              40.292603
            ],
            [
              109.836527,
              40.29271
            ],
            [
              109.836611,
              40.292842
            ],
            [
              109.836763,
              40.292907
            ],
            [
              109.836814,
              40.292956
            ],
            [
              109.836925,
              40.293111
            ],
            [
              109.836978,
              40.293258
            ],
            [
              109.837209,
              40.293355
            ],
            [
              109.837362,
              40.29358
            ],
            [
              109.837685,
              40.293767
            ],
            [
              109.837722,
              40.293814
            ],
            [
              109.838017,
              40.294006
            ],
            [
              109.837997,
              40.294039
            ],
            [
              109.838048,
              40.294069
            ],
            [
              109.838273,
              40.294309
            ],
            [
              109.838369,
              40.294377
            ],
            [
              109.83839,
              40.294434
            ],
            [
              109.838458,
              40.294499
            ],
            [
              109.838497,
              40.294602
            ],
            [
              109.838857,
              40.294684
            ],
            [
              109.838929,
              40.294729
            ],
            [
              109.839063,
              40.294957
            ],
            [
              109.839142,
              40.29499
            ],
            [
              109.83931,
              40.295118
            ],
            [
              109.839364,
              40.295183
            ],
            [
              109.839364,
              40.295314
            ],
            [
              109.839393,
              40.295387
            ],
            [
              109.839491,
              40.295573
            ],
            [
              109.839584,
              40.295691
            ],
            [
              109.839586,
              40.295733
            ],
            [
              109.839613,
              40.295751
            ],
            [
              109.839664,
              40.29586
            ],
            [
              109.840079,
              40.296212
            ],
            [
              109.840206,
              40.296341
            ],
            [
              109.840271,
              40.296372
            ],
            [
              109.840322,
              40.296441
            ],
            [
              109.840428,
              40.296525
            ],
            [
              109.84056,
              40.296598
            ],
            [
              109.840647,
              40.296686
            ],
            [
              109.840624,
              40.296706
            ],
            [
              109.840703,
              40.29674
            ],
            [
              109.840866,
              40.296858
            ],
            [
              109.841069,
              40.297102
            ],
            [
              109.841144,
              40.29712
            ],
            [
              109.841368,
              40.297253
            ],
            [
              109.841466,
              40.29737
            ],
            [
              109.841622,
              40.297469
            ],
            [
              109.841651,
              40.297514
            ],
            [
              109.841726,
              40.297559
            ],
            [
              109.841746,
              40.297611
            ],
            [
              109.84202,
              40.297775
            ],
            [
              109.842065,
              40.297829
            ],
            [
              109.842044,
              40.297845
            ],
            [
              109.842069,
              40.297845
            ],
            [
              109.842204,
              40.29794
            ],
            [
              109.842406,
              40.298047
            ],
            [
              109.842655,
              40.298263
            ],
            [
              109.842837,
              40.298378
            ],
            [
              109.8429,
              40.29844
            ],
            [
              109.842956,
              40.298523
            ],
            [
              109.843104,
              40.298913
            ],
            [
              109.843292,
              40.299934
            ],
            [
              109.843385,
              40.30017
            ],
            [
              109.843497,
              40.300649
            ],
            [
              109.843531,
              40.300736
            ],
            [
              109.843611,
              40.300821
            ],
            [
              109.843637,
              40.300957
            ],
            [
              109.843627,
              40.301089
            ],
            [
              109.843688,
              40.301479
            ],
            [
              109.843681,
              40.30163
            ],
            [
              109.843808,
              40.30208
            ],
            [
              109.843837,
              40.302299
            ],
            [
              109.843922,
              40.302667
            ],
            [
              109.843999,
              40.302868
            ],
            [
              109.844027,
              40.303073
            ],
            [
              109.844031,
              40.303323
            ],
            [
              109.844056,
              40.30344
            ],
            [
              109.844161,
              40.303699
            ],
            [
              109.844472,
              40.304184
            ],
            [
              109.844586,
              40.304274
            ],
            [
              109.844679,
              40.304268
            ],
            [
              109.845158,
              40.304219
            ],
            [
              109.846057,
              40.304076
            ],
            [
              109.846148,
              40.304162
            ],
            [
              109.846173,
              40.304226
            ],
            [
              109.846227,
              40.304597
            ],
            [
              109.84628,
              40.304724
            ],
            [
              109.846401,
              40.304801
            ],
            [
              109.846424,
              40.3048
            ],
            [
              109.846522,
              40.304721
            ],
            [
              109.846635,
              40.304466
            ],
            [
              109.846733,
              40.304331
            ],
            [
              109.846902,
              40.304155
            ],
            [
              109.847089,
              40.304051
            ],
            [
              109.847288,
              40.303973
            ],
            [
              109.847973,
              40.303764
            ],
            [
              109.848384,
              40.303674
            ],
            [
              109.848698,
              40.30362
            ],
            [
              109.848822,
              40.303614
            ],
            [
              109.849205,
              40.303524
            ],
            [
              109.849542,
              40.303488
            ],
            [
              109.849782,
              40.303437
            ],
            [
              109.850066,
              40.303401
            ],
            [
              109.850266,
              40.303393
            ],
            [
              109.850376,
              40.303362
            ],
            [
              109.851214,
              40.303233
            ],
            [
              109.851235,
              40.303235
            ],
            [
              109.851224,
              40.303295
            ],
            [
              109.851467,
              40.303483
            ],
            [
              109.851559,
              40.303584
            ],
            [
              109.851902,
              40.303562
            ],
            [
              109.852517,
              40.303585
            ],
            [
              109.852704,
              40.30364
            ],
            [
              109.852836,
              40.30372
            ],
            [
              109.852885,
              40.303774
            ],
            [
              109.852898,
              40.303899
            ],
            [
              109.852812,
              40.304
            ],
            [
              109.852706,
              40.304077
            ],
            [
              109.852623,
              40.304122
            ],
            [
              109.852317,
              40.304201
            ],
            [
              109.852145,
              40.304162
            ]
          ]
        ]
      }
    }
  ]
}
