{
  "type": "FeatureCollection",
  "features": [
    {
      "type": "Feature",
      "properties": {
        "name": "库拉岗日参考轨迹",
        "type": "hiking",
        "source": "两步路用户轨迹",
        "segments": 1
      },
      "geometry": {
        "type": "LineString",
        "coordinates": [
          [
            90.756072,
            28.256985
          ],
          [
            90.75609,
            28.25701
          ],
          [
            90.756027,
            28.257082
          ],
          [
            90.755513,
            28.257258
          ],
          [
            90.755225,
            28.257398
          ],
          [
            90.755097,
            28.257608
          ],
          [
            90.754798,
            28.257947
          ],
          [
            90.75443,
            28.258133
          ],
          [
            90.75418,
            28.25835
          ],
          [
            90.754077,
            28.258507
          ],
          [
            90.754035,
            28.258502
          ],
          [
            90.754005,
            28.25842
          ],
          [
            90.75392,
            28.258388
          ],
          [
            90.753772,
            28.258398
          ],
          [
            90.753878,
            28.258557
          ],
          [
            90.753727,
            28.258617
          ],
          [
            90.753733,
            28.258702
          ],
          [
            90.753607,
            28.258858
          ],
          [
            90.753347,
            28.258973
          ],
          [
            90.75334,
            28.259087
          ],
          [
            90.753258,
            28.259278
          ],
          [
            90.753185,
            28.259407
          ],
          [
            90.753102,
            28.25947
          ],
          [
            90.753138,
            28.25955
          ],
          [
            90.753315,
            28.259737
          ],
          [
            90.753415,
            28.260003
          ],
          [
            90.753385,
            28.260048
          ],
          [
            90.753333,
            28.260055
          ],
          [
            90.753372,
            28.260133
          ],
          [
            90.753338,
            28.260197
          ],
          [
            90.753178,
            28.260248
          ],
          [
            90.753108,
            28.260228
          ],
          [
            90.753028,
            28.260338
          ],
          [
            90.753013,
            28.260378
          ],
          [
            90.753093,
            28.260487
          ],
          [
            90.752883,
            28.260625
          ],
          [
            90.752865,
            28.260667
          ],
          [
            90.752567,
            28.260768
          ],
          [
            90.752397,
            28.260893
          ],
          [
            90.75218,
            28.260995
          ],
          [
            90.752207,
            28.261052
          ],
          [
            90.752117,
            28.261112
          ],
          [
            90.7517,
            28.261197
          ],
          [
            90.751405,
            28.261358
          ],
          [
            90.750968,
            28.261728
          ],
          [
            90.75083,
            28.26179
          ],
          [
            90.750483,
            28.26212
          ],
          [
            90.750213,
            28.262272
          ],
          [
            90.750115,
            28.262438
          ],
          [
            90.750097,
            28.262408
          ],
          [
            90.750165,
            28.262418
          ],
          [
            90.750305,
            28.26235
          ],
          [
            90.750312,
            28.262307
          ],
          [
            90.750258,
            28.26224
          ],
          [
            90.75015,
            28.262312
          ],
          [
            90.750242,
            28.262262
          ],
          [
            90.750288,
            28.262315
          ],
          [
            90.750245,
            28.262292
          ],
          [
            90.750257,
            28.262393
          ],
          [
            90.750048,
            28.262567
          ],
          [
            90.74968,
            28.263123
          ],
          [
            90.749557,
            28.263232
          ],
          [
            90.749298,
            28.26367
          ],
          [
            90.749148,
            28.263798
          ],
          [
            90.749007,
            28.264075
          ],
          [
            90.748877,
            28.264158
          ],
          [
            90.74881,
            28.264258
          ],
          [
            90.748503,
            28.264438
          ],
          [
            90.748527,
            28.2645
          ],
          [
            90.748473,
            28.264497
          ],
          [
            90.748527,
            28.264503
          ],
          [
            90.748558,
            28.26467
          ],
          [
            90.748632,
            28.264672
          ],
          [
            90.748653,
            28.264717
          ],
          [
            90.748593,
            28.264927
          ],
          [
            90.74867,
            28.26517
          ],
          [
            90.74866,
            28.265322
          ],
          [
            90.74872,
            28.265352
          ],
          [
            90.748785,
            28.265327
          ],
          [
            90.749002,
            28.265158
          ],
          [
            90.748947,
            28.265515
          ],
          [
            90.74866,
            28.265642
          ],
          [
            90.748448,
            28.265843
          ],
          [
            90.748122,
            28.26608
          ],
          [
            90.747513,
            28.266308
          ],
          [
            90.747168,
            28.266558
          ],
          [
            90.747128,
            28.266678
          ],
          [
            90.747158,
            28.266928
          ],
          [
            90.747098,
            28.267165
          ],
          [
            90.747098,
            28.267375
          ],
          [
            90.746955,
            28.26766
          ],
          [
            90.746562,
            28.268105
          ],
          [
            90.746508,
            28.268212
          ],
          [
            90.746127,
            28.2685
          ],
          [
            90.746062,
            28.268618
          ],
          [
            90.745948,
            28.268687
          ],
          [
            90.745927,
            28.268793
          ],
          [
            90.745808,
            28.268905
          ],
          [
            90.745753,
            28.269078
          ],
          [
            90.745432,
            28.269442
          ],
          [
            90.745312,
            28.269688
          ],
          [
            90.745207,
            28.269763
          ],
          [
            90.744983,
            28.270208
          ],
          [
            90.74472,
            28.2706
          ],
          [
            90.74458,
            28.27074
          ],
          [
            90.74445,
            28.271018
          ],
          [
            90.744268,
            28.27123
          ],
          [
            90.743837,
            28.271987
          ],
          [
            90.74357,
            28.272333
          ],
          [
            90.743503,
            28.272543
          ],
          [
            90.743325,
            28.2727
          ],
          [
            90.743165,
            28.272902
          ],
          [
            90.743,
            28.272965
          ],
          [
            90.74286,
            28.273068
          ],
          [
            90.742707,
            28.273107
          ],
          [
            90.742552,
            28.27327
          ],
          [
            90.742303,
            28.273438
          ],
          [
            90.74178,
            28.274053
          ],
          [
            90.741557,
            28.274492
          ],
          [
            90.741317,
            28.27479
          ],
          [
            90.741228,
            28.275092
          ],
          [
            90.741118,
            28.275192
          ],
          [
            90.740945,
            28.27551
          ],
          [
            90.740852,
            28.275745
          ],
          [
            90.740775,
            28.275842
          ],
          [
            90.740712,
            28.276077
          ],
          [
            90.740585,
            28.2762
          ],
          [
            90.740465,
            28.276658
          ],
          [
            90.740405,
            28.27674
          ],
          [
            90.740123,
            28.276908
          ],
          [
            90.740032,
            28.277173
          ],
          [
            90.739648,
            28.277687
          ],
          [
            90.739332,
            28.277973
          ],
          [
            90.739257,
            28.278005
          ],
          [
            90.739073,
            28.278243
          ],
          [
            90.738893,
            28.278372
          ],
          [
            90.73873,
            28.278437
          ],
          [
            90.738623,
            28.27855
          ],
          [
            90.738557,
            28.278683
          ],
          [
            90.738388,
            28.278818
          ],
          [
            90.738357,
            28.278885
          ],
          [
            90.7377,
            28.279435
          ],
          [
            90.737572,
            28.27959
          ],
          [
            90.737517,
            28.279772
          ],
          [
            90.737153,
            28.280108
          ],
          [
            90.737047,
            28.280285
          ],
          [
            90.73679,
            28.280568
          ],
          [
            90.736712,
            28.280712
          ],
          [
            90.736682,
            28.280862
          ],
          [
            90.73649,
            28.280995
          ],
          [
            90.736433,
            28.281145
          ],
          [
            90.736287,
            28.281252
          ],
          [
            90.735988,
            28.281713
          ],
          [
            90.73563,
            28.281913
          ],
          [
            90.73537,
            28.282012
          ],
          [
            90.735242,
            28.282218
          ],
          [
            90.735038,
            28.282257
          ],
          [
            90.73469,
            28.282478
          ],
          [
            90.734528,
            28.282632
          ],
          [
            90.734303,
            28.282698
          ],
          [
            90.73413,
            28.282802
          ],
          [
            90.733687,
            28.283173
          ],
          [
            90.733633,
            28.283303
          ],
          [
            90.73301,
            28.2836
          ],
          [
            90.732658,
            28.284105
          ],
          [
            90.732395,
            28.284198
          ],
          [
            90.732235,
            28.284362
          ],
          [
            90.732098,
            28.284448
          ],
          [
            90.731942,
            28.284712
          ],
          [
            90.731797,
            28.284782
          ],
          [
            90.731642,
            28.285098
          ],
          [
            90.731412,
            28.2852
          ],
          [
            90.731288,
            28.285333
          ],
          [
            90.731045,
            28.285342
          ],
          [
            90.730843,
            28.285252
          ],
          [
            90.730598,
            28.285222
          ],
          [
            90.730555,
            28.28517
          ],
          [
            90.730418,
            28.285112
          ],
          [
            90.730072,
            28.285033
          ],
          [
            90.729927,
            28.285073
          ],
          [
            90.72976,
            28.28506
          ],
          [
            90.72962,
            28.284997
          ],
          [
            90.72944,
            28.285028
          ],
          [
            90.729003,
            28.285002
          ],
          [
            90.728355,
            28.285038
          ],
          [
            90.72819,
            28.284925
          ],
          [
            90.728023,
            28.28492
          ],
          [
            90.727915,
            28.284867
          ],
          [
            90.72783,
            28.284877
          ],
          [
            90.727628,
            28.284807
          ],
          [
            90.727387,
            28.28467
          ],
          [
            90.727387,
            28.284595
          ],
          [
            90.72731,
            28.284505
          ],
          [
            90.726873,
            28.284245
          ],
          [
            90.726693,
            28.284247
          ],
          [
            90.726462,
            28.284168
          ],
          [
            90.726295,
            28.284165
          ],
          [
            90.726143,
            28.284248
          ],
          [
            90.726038,
            28.284242
          ],
          [
            90.725958,
            28.28434
          ],
          [
            90.726045,
            28.284232
          ],
          [
            90.726165,
            28.284212
          ],
          [
            90.726038,
            28.284257
          ],
          [
            90.725938,
            28.284355
          ],
          [
            90.725708,
            28.284423
          ],
          [
            90.725585,
            28.284502
          ],
          [
            90.725533,
            28.2846
          ],
          [
            90.725437,
            28.284677
          ],
          [
            90.725287,
            28.28447
          ],
          [
            90.725155,
            28.284517
          ],
          [
            90.725013,
            28.28447
          ],
          [
            90.724885,
            28.284343
          ],
          [
            90.724752,
            28.284445
          ],
          [
            90.724382,
            28.284567
          ],
          [
            90.724198,
            28.284422
          ],
          [
            90.72404,
            28.284162
          ],
          [
            90.723853,
            28.283997
          ],
          [
            90.72364,
            28.283967
          ],
          [
            90.723523,
            28.284013
          ],
          [
            90.723303,
            28.284012
          ],
          [
            90.722672,
            28.283815
          ],
          [
            90.722497,
            28.283818
          ],
          [
            90.722362,
            28.28371
          ],
          [
            90.722037,
            28.283648
          ],
          [
            90.721897,
            28.283478
          ],
          [
            90.721338,
            28.28318
          ],
          [
            90.721285,
            28.282958
          ],
          [
            90.721333,
            28.282937
          ],
          [
            90.721528,
            28.282618
          ],
          [
            90.721457,
            28.282407
          ],
          [
            90.721462,
            28.282278
          ],
          [
            90.721252,
            28.281752
          ],
          [
            90.72125,
            28.281665
          ],
          [
            90.721323,
            28.281465
          ],
          [
            90.721688,
            28.280942
          ],
          [
            90.721845,
            28.280793
          ],
          [
            90.721883,
            28.280592
          ],
          [
            90.721975,
            28.28046
          ],
          [
            90.721948,
            28.280427
          ],
          [
            90.721973,
            28.280363
          ],
          [
            90.72214,
            28.280343
          ],
          [
            90.722258,
            28.280387
          ],
          [
            90.722587,
            28.28041
          ],
          [
            90.72265,
            28.28036
          ],
          [
            90.722685,
            28.280193
          ],
          [
            90.723055,
            28.280033
          ],
          [
            90.723175,
            28.28002
          ],
          [
            90.723292,
            28.279965
          ],
          [
            90.72363,
            28.280008
          ],
          [
            90.723847,
            28.279972
          ],
          [
            90.724163,
            28.279758
          ],
          [
            90.724217,
            28.279665
          ],
          [
            90.72451,
            28.279467
          ],
          [
            90.725198,
            28.279217
          ],
          [
            90.725523,
            28.278968
          ],
          [
            90.725802,
            28.278842
          ],
          [
            90.726217,
            28.278322
          ],
          [
            90.726262,
            28.278153
          ],
          [
            90.726333,
            28.27805
          ],
          [
            90.726348,
            28.277705
          ],
          [
            90.726417,
            28.277698
          ],
          [
            90.726502,
            28.277558
          ],
          [
            90.726602,
            28.277512
          ],
          [
            90.726703,
            28.277373
          ],
          [
            90.72685,
            28.277287
          ],
          [
            90.72682,
            28.277203
          ],
          [
            90.726933,
            28.2771
          ],
          [
            90.727225,
            28.277052
          ],
          [
            90.72736,
            28.276978
          ],
          [
            90.727523,
            28.276752
          ],
          [
            90.727545,
            28.276633
          ],
          [
            90.727627,
            28.276517
          ],
          [
            90.727827,
            28.276372
          ],
          [
            90.727895,
            28.276077
          ],
          [
            90.727997,
            28.276048
          ],
          [
            90.728133,
            28.27594
          ],
          [
            90.728197,
            28.275823
          ],
          [
            90.72825,
            28.275852
          ],
          [
            90.728333,
            28.275828
          ],
          [
            90.728382,
            28.275952
          ],
          [
            90.72845,
            28.2759
          ],
          [
            90.7285,
            28.275777
          ],
          [
            90.728775,
            28.275608
          ],
          [
            90.72888,
            28.27547
          ],
          [
            90.729118,
            28.27529
          ],
          [
            90.729527,
            28.274865
          ],
          [
            90.729763,
            28.274718
          ],
          [
            90.729888,
            28.274528
          ],
          [
            90.730207,
            28.274317
          ],
          [
            90.730625,
            28.273798
          ],
          [
            90.730737,
            28.27373
          ],
          [
            90.730805,
            28.273613
          ],
          [
            90.731033,
            28.273378
          ],
          [
            90.731513,
            28.273092
          ],
          [
            90.731717,
            28.272925
          ],
          [
            90.731845,
            28.272753
          ],
          [
            90.731738,
            28.272547
          ],
          [
            90.731787,
            28.272467
          ],
          [
            90.731865,
            28.272435
          ],
          [
            90.731993,
            28.272462
          ],
          [
            90.732093,
            28.272427
          ],
          [
            90.732373,
            28.272487
          ],
          [
            90.732565,
            28.272398
          ],
          [
            90.732647,
            28.272245
          ],
          [
            90.732787,
            28.27211
          ],
          [
            90.732803,
            28.27201
          ],
          [
            90.732902,
            28.271908
          ],
          [
            90.732833,
            28.271767
          ],
          [
            90.73282,
            28.271583
          ],
          [
            90.733497,
            28.270922
          ],
          [
            90.733425,
            28.27078
          ],
          [
            90.733472,
            28.270662
          ],
          [
            90.733443,
            28.270565
          ],
          [
            90.73335,
            28.270578
          ],
          [
            90.733313,
            28.270523
          ],
          [
            90.733387,
            28.270365
          ],
          [
            90.73348,
            28.269978
          ],
          [
            90.733848,
            28.26942
          ],
          [
            90.733967,
            28.26934
          ],
          [
            90.734288,
            28.268858
          ],
          [
            90.734557,
            28.2686
          ],
          [
            90.734615,
            28.268473
          ],
          [
            90.734833,
            28.268218
          ],
          [
            90.734993,
            28.267923
          ],
          [
            90.735317,
            28.26747
          ],
          [
            90.735442,
            28.267347
          ],
          [
            90.735845,
            28.266605
          ],
          [
            90.735927,
            28.266358
          ],
          [
            90.736048,
            28.266177
          ],
          [
            90.736083,
            28.266035
          ],
          [
            90.73623,
            28.265808
          ],
          [
            90.7363,
            28.26556
          ],
          [
            90.73636,
            28.26548
          ],
          [
            90.73636,
            28.265398
          ],
          [
            90.7366,
            28.265172
          ],
          [
            90.73679,
            28.265062
          ],
          [
            90.737123,
            28.264735
          ],
          [
            90.738042,
            28.264138
          ],
          [
            90.738215,
            28.26391
          ],
          [
            90.738297,
            28.263845
          ],
          [
            90.738485,
            28.263773
          ],
          [
            90.739045,
            28.26331
          ],
          [
            90.739248,
            28.263025
          ],
          [
            90.739747,
            28.262705
          ],
          [
            90.740163,
            28.262303
          ],
          [
            90.740267,
            28.262153
          ],
          [
            90.740565,
            28.261988
          ],
          [
            90.74066,
            28.261883
          ],
          [
            90.741005,
            28.261632
          ],
          [
            90.74117,
            28.261595
          ],
          [
            90.741973,
            28.260957
          ],
          [
            90.742347,
            28.260765
          ],
          [
            90.74257,
            28.26061
          ],
          [
            90.742812,
            28.260398
          ],
          [
            90.742883,
            28.260273
          ],
          [
            90.74289,
            28.260157
          ],
          [
            90.742995,
            28.26005
          ],
          [
            90.74449,
            28.259377
          ],
          [
            90.745437,
            28.25884
          ],
          [
            90.745695,
            28.258783
          ],
          [
            90.74589,
            28.258648
          ],
          [
            90.746065,
            28.258457
          ],
          [
            90.746168,
            28.258423
          ],
          [
            90.746395,
            28.258167
          ],
          [
            90.746467,
            28.25818
          ],
          [
            90.746843,
            28.25804
          ],
          [
            90.74722,
            28.257795
          ],
          [
            90.747272,
            28.257725
          ],
          [
            90.747583,
            28.257613
          ],
          [
            90.74779,
            28.257603
          ],
          [
            90.747962,
            28.257638
          ],
          [
            90.74812,
            28.25762
          ],
          [
            90.748242,
            28.257535
          ],
          [
            90.748723,
            28.257477
          ],
          [
            90.749312,
            28.257082
          ],
          [
            90.749622,
            28.257003
          ],
          [
            90.749717,
            28.256938
          ],
          [
            90.749775,
            28.256938
          ],
          [
            90.749743,
            28.257067
          ],
          [
            90.749812,
            28.257047
          ],
          [
            90.749762,
            28.257172
          ],
          [
            90.749952,
            28.257155
          ],
          [
            90.749955,
            28.25737
          ],
          [
            90.750118,
            28.257497
          ],
          [
            90.750622,
            28.25751
          ],
          [
            90.750758,
            28.257552
          ],
          [
            90.750927,
            28.257497
          ],
          [
            90.751022,
            28.25756
          ],
          [
            90.751173,
            28.257568
          ],
          [
            90.751423,
            28.257482
          ],
          [
            90.751553,
            28.257548
          ],
          [
            90.75171,
            28.257572
          ],
          [
            90.751908,
            28.257687
          ],
          [
            90.752142,
            28.257955
          ],
          [
            90.752445,
            28.258168
          ],
          [
            90.752888,
            28.25819
          ],
          [
            90.753,
            28.258232
          ],
          [
            90.753328,
            28.258255
          ],
          [
            90.753688,
            28.258352
          ],
          [
            90.753963,
            28.258372
          ],
          [
            90.754278,
            28.258253
          ],
          [
            90.754495,
            28.258043
          ],
          [
            90.754755,
            28.257945
          ],
          [
            90.754987,
            28.257712
          ],
          [
            90.755292,
            28.257328
          ],
          [
            90.75583,
            28.257095
          ],
          [
            90.755948,
            28.256882
          ],
          [
            90.756017,
            28.256902
          ],
          [
            90.755335,
            28.257205
          ],
          [
            90.755203,
            28.257318
          ],
          [
            90.754855,
            28.257773
          ],
          [
            90.75478,
            28.257815
          ],
          [
            90.75474,
            28.25779
          ],
          [
            90.754735,
            28.257693
          ],
          [
            90.754905,
            28.256908
          ],
          [
            90.754835,
            28.256815
          ],
          [
            90.754372,
            28.256707
          ],
          [
            90.754235,
            28.256645
          ],
          [
            90.753932,
            28.2562
          ],
          [
            90.753703,
            28.256033
          ],
          [
            90.753578,
            28.255995
          ],
          [
            90.753463,
            28.255892
          ],
          [
            90.753392,
            28.255762
          ],
          [
            90.753098,
            28.255657
          ],
          [
            90.75297,
            28.255538
          ],
          [
            90.752723,
            28.255495
          ],
          [
            90.752393,
            28.255527
          ],
          [
            90.752162,
            28.255595
          ],
          [
            90.751982,
            28.255497
          ],
          [
            90.751952,
            28.2554
          ],
          [
            90.751847,
            28.2553
          ],
          [
            90.751778,
            28.25492
          ],
          [
            90.751622,
            28.254817
          ],
          [
            90.751453,
            28.254765
          ],
          [
            90.751495,
            28.25464
          ],
          [
            90.75148,
            28.254562
          ],
          [
            90.751668,
            28.254323
          ],
          [
            90.751625,
            28.254235
          ],
          [
            90.751713,
            28.253997
          ],
          [
            90.751658,
            28.253852
          ],
          [
            90.751493,
            28.253773
          ],
          [
            90.751048,
            28.253742
          ],
          [
            90.750857,
            28.25367
          ],
          [
            90.750785,
            28.253562
          ],
          [
            90.750485,
            28.253443
          ],
          [
            90.750415,
            28.253163
          ],
          [
            90.750287,
            28.253102
          ],
          [
            90.750292,
            28.25297
          ],
          [
            90.75021,
            28.252805
          ],
          [
            90.750238,
            28.252777
          ],
          [
            90.750113,
            28.252648
          ],
          [
            90.750165,
            28.252593
          ],
          [
            90.750163,
            28.252387
          ],
          [
            90.750623,
            28.252055
          ],
          [
            90.75088,
            28.251777
          ],
          [
            90.751152,
            28.251392
          ],
          [
            90.750897,
            28.250863
          ],
          [
            90.750938,
            28.250767
          ],
          [
            90.75067,
            28.250453
          ],
          [
            90.750238,
            28.250387
          ],
          [
            90.750022,
            28.250315
          ],
          [
            90.749928,
            28.250243
          ],
          [
            90.749748,
            28.250258
          ],
          [
            90.749688,
            28.250128
          ],
          [
            90.749693,
            28.250043
          ],
          [
            90.749607,
            28.249918
          ],
          [
            90.749403,
            28.249768
          ],
          [
            90.749077,
            28.24945
          ],
          [
            90.749025,
            28.249307
          ],
          [
            90.748942,
            28.249302
          ],
          [
            90.74901,
            28.249332
          ],
          [
            90.74888,
            28.249308
          ],
          [
            90.748973,
            28.249327
          ],
          [
            90.748922,
            28.249285
          ],
          [
            90.749007,
            28.24932
          ],
          [
            90.748877,
            28.249292
          ],
          [
            90.748918,
            28.249317
          ],
          [
            90.748917,
            28.249293
          ],
          [
            90.748828,
            28.24927
          ],
          [
            90.74881,
            28.249192
          ],
          [
            90.7487,
            28.249178
          ],
          [
            90.748668,
            28.249073
          ],
          [
            90.748528,
            28.249082
          ],
          [
            90.748437,
            28.249032
          ],
          [
            90.74829,
            28.249037
          ],
          [
            90.748047,
            28.248957
          ],
          [
            90.748025,
            28.248922
          ],
          [
            90.748058,
            28.248852
          ],
          [
            90.74801,
            28.248842
          ],
          [
            90.748028,
            28.24875
          ],
          [
            90.747862,
            28.248717
          ],
          [
            90.747715,
            28.248755
          ],
          [
            90.747182,
            28.248743
          ],
          [
            90.747017,
            28.248655
          ],
          [
            90.746657,
            28.248575
          ],
          [
            90.746385,
            28.248375
          ],
          [
            90.746265,
            28.248345
          ],
          [
            90.746155,
            28.248193
          ],
          [
            90.746053,
            28.248162
          ],
          [
            90.745595,
            28.247827
          ],
          [
            90.745593,
            28.247673
          ],
          [
            90.74579,
            28.247602
          ],
          [
            90.745767,
            28.247472
          ],
          [
            90.745488,
            28.247115
          ],
          [
            90.745075,
            28.246968
          ],
          [
            90.745078,
            28.246537
          ],
          [
            90.744798,
            28.246685
          ],
          [
            90.744722,
            28.246688
          ],
          [
            90.744467,
            28.246485
          ],
          [
            90.744297,
            28.24641
          ],
          [
            90.744085,
            28.246207
          ],
          [
            90.743722,
            28.2461
          ],
          [
            90.743493,
            28.245805
          ],
          [
            90.743308,
            28.245772
          ],
          [
            90.743197,
            28.245708
          ],
          [
            90.743037,
            28.24576
          ],
          [
            90.74267,
            28.245728
          ],
          [
            90.742415,
            28.245623
          ],
          [
            90.741713,
            28.245523
          ],
          [
            90.741307,
            28.245422
          ],
          [
            90.741037,
            28.245278
          ],
          [
            90.740932,
            28.245255
          ],
          [
            90.74089,
            28.245185
          ],
          [
            90.740713,
            28.245137
          ],
          [
            90.740647,
            28.245077
          ],
          [
            90.740637,
            28.244972
          ],
          [
            90.740473,
            28.244763
          ],
          [
            90.740182,
            28.244488
          ],
          [
            90.740132,
            28.244388
          ],
          [
            90.739923,
            28.24421
          ],
          [
            90.739898,
            28.244042
          ],
          [
            90.739863,
            28.244008
          ],
          [
            90.739603,
            28.243948
          ],
          [
            90.73932,
            28.243815
          ],
          [
            90.73893,
            28.243785
          ],
          [
            90.738785,
            28.243702
          ],
          [
            90.73874,
            28.243598
          ],
          [
            90.738787,
            28.243392
          ],
          [
            90.738767,
            28.243355
          ],
          [
            90.738662,
            28.243315
          ],
          [
            90.738668,
            28.243373
          ],
          [
            90.738728,
            28.243395
          ],
          [
            90.738887,
            28.24337
          ],
          [
            90.739045,
            28.243283
          ],
          [
            90.739205,
            28.243293
          ],
          [
            90.73945,
            28.243248
          ],
          [
            90.739693,
            28.24332
          ],
          [
            90.739775,
            28.243315
          ],
          [
            90.739862,
            28.243263
          ],
          [
            90.739925,
            28.24309
          ],
          [
            90.739875,
            28.242968
          ],
          [
            90.739918,
            28.242833
          ],
          [
            90.740093,
            28.24285
          ],
          [
            90.740193,
            28.242908
          ],
          [
            90.740293,
            28.242898
          ],
          [
            90.740338,
            28.242875
          ],
          [
            90.740347,
            28.242808
          ],
          [
            90.740422,
            28.242713
          ],
          [
            90.740507,
            28.242695
          ],
          [
            90.740775,
            28.24249
          ],
          [
            90.74091,
            28.242468
          ],
          [
            90.741012,
            28.242478
          ],
          [
            90.741378,
            28.242628
          ],
          [
            90.741677,
            28.242892
          ],
          [
            90.741867,
            28.242937
          ],
          [
            90.741997,
            28.242927
          ],
          [
            90.742063,
            28.242992
          ],
          [
            90.742127,
            28.24299
          ],
          [
            90.742158,
            28.243047
          ],
          [
            90.742455,
            28.243155
          ],
          [
            90.742647,
            28.243283
          ],
          [
            90.742847,
            28.243277
          ],
          [
            90.743407,
            28.243447
          ],
          [
            90.744055,
            28.243492
          ],
          [
            90.744397,
            28.243577
          ],
          [
            90.744823,
            28.24377
          ],
          [
            90.744847,
            28.24383
          ],
          [
            90.745092,
            28.24392
          ],
          [
            90.745192,
            28.24403
          ],
          [
            90.745468,
            28.244227
          ],
          [
            90.745525,
            28.244158
          ],
          [
            90.746177,
            28.24405
          ],
          [
            90.745952,
            28.243833
          ],
          [
            90.745925,
            28.243688
          ],
          [
            90.74586,
            28.243623
          ],
          [
            90.745858,
            28.243572
          ],
          [
            90.745793,
            28.243502
          ],
          [
            90.74573,
            28.243488
          ],
          [
            90.74562,
            28.243332
          ],
          [
            90.745467,
            28.243227
          ],
          [
            90.745363,
            28.243002
          ],
          [
            90.745183,
            28.242827
          ],
          [
            90.745223,
            28.242693
          ],
          [
            90.745143,
            28.24247
          ],
          [
            90.745175,
            28.242393
          ],
          [
            90.745292,
            28.242318
          ],
          [
            90.745245,
            28.242202
          ],
          [
            90.745155,
            28.242097
          ],
          [
            90.745055,
            28.242045
          ],
          [
            90.745048,
            28.241962
          ],
          [
            90.744778,
            28.241652
          ],
          [
            90.744763,
            28.241543
          ],
          [
            90.744133,
            28.241177
          ],
          [
            90.743938,
            28.240905
          ],
          [
            90.74379,
            28.240887
          ],
          [
            90.743522,
            28.240782
          ],
          [
            90.743233,
            28.240623
          ],
          [
            90.743132,
            28.240515
          ],
          [
            90.743005,
            28.240483
          ],
          [
            90.742828,
            28.240342
          ],
          [
            90.742705,
            28.240313
          ],
          [
            90.742612,
            28.24025
          ],
          [
            90.742417,
            28.240217
          ],
          [
            90.742218,
            28.240092
          ],
          [
            90.742148,
            28.240003
          ],
          [
            90.741872,
            28.239797
          ],
          [
            90.74078,
            28.239368
          ],
          [
            90.740742,
            28.23926
          ],
          [
            90.740647,
            28.239183
          ],
          [
            90.740555,
            28.239157
          ],
          [
            90.740518,
            28.239033
          ],
          [
            90.740482,
            28.239035
          ],
          [
            90.740448,
            28.239093
          ],
          [
            90.740525,
            28.239107
          ],
          [
            90.740632,
            28.239237
          ],
          [
            90.740715,
            28.239255
          ],
          [
            90.740825,
            28.239362
          ],
          [
            90.740943,
            28.239402
          ],
          [
            90.741032,
            28.239483
          ],
          [
            90.74156,
            28.239693
          ],
          [
            90.741733,
            28.239733
          ],
          [
            90.741948,
            28.239865
          ],
          [
            90.742097,
            28.239915
          ],
          [
            90.742218,
            28.24004
          ],
          [
            90.742532,
            28.240197
          ],
          [
            90.742648,
            28.240302
          ],
          [
            90.74283,
            28.240367
          ],
          [
            90.743395,
            28.24074
          ],
          [
            90.743843,
            28.240897
          ],
          [
            90.744042,
            28.241007
          ],
          [
            90.744307,
            28.241277
          ],
          [
            90.744655,
            28.241478
          ],
          [
            90.744773,
            28.24168
          ],
          [
            90.745042,
            28.241895
          ],
          [
            90.745167,
            28.242167
          ],
          [
            90.745405,
            28.242433
          ],
          [
            90.745408,
            28.242522
          ],
          [
            90.745642,
            28.24274
          ],
          [
            90.745975,
            28.242917
          ],
          [
            90.746102,
            28.24309
          ],
          [
            90.746125,
            28.243223
          ],
          [
            90.746293,
            28.24341
          ],
          [
            90.746332,
            28.243535
          ],
          [
            90.746438,
            28.243607
          ],
          [
            90.746515,
            28.243778
          ],
          [
            90.74644,
            28.243892
          ],
          [
            90.74644,
            28.244023
          ],
          [
            90.746518,
            28.244168
          ],
          [
            90.74638,
            28.24421
          ],
          [
            90.746397,
            28.244295
          ],
          [
            90.746313,
            28.244417
          ],
          [
            90.746327,
            28.244525
          ],
          [
            90.746275,
            28.24473
          ],
          [
            90.746298,
            28.24482
          ],
          [
            90.746263,
            28.244893
          ],
          [
            90.746358,
            28.244997
          ],
          [
            90.746332,
            28.245077
          ],
          [
            90.74641,
            28.245165
          ],
          [
            90.746425,
            28.245318
          ],
          [
            90.746495,
            28.245443
          ],
          [
            90.746475,
            28.245497
          ],
          [
            90.746537,
            28.245535
          ],
          [
            90.746588,
            28.245692
          ],
          [
            90.746422,
            28.245927
          ],
          [
            90.74614,
            28.246195
          ],
          [
            90.746055,
            28.246468
          ],
          [
            90.745922,
            28.24665
          ],
          [
            90.745897,
            28.246828
          ],
          [
            90.745863,
            28.24686
          ],
          [
            90.745868,
            28.246973
          ],
          [
            90.745927,
            28.2471
          ],
          [
            90.745885,
            28.247173
          ],
          [
            90.745975,
            28.247303
          ],
          [
            90.745982,
            28.247402
          ],
          [
            90.74587,
            28.247465
          ],
          [
            90.745848,
            28.247547
          ],
          [
            90.745632,
            28.247723
          ],
          [
            90.745595,
            28.247805
          ],
          [
            90.745613,
            28.247858
          ],
          [
            90.74591,
            28.248065
          ],
          [
            90.74604,
            28.2482
          ],
          [
            90.746133,
            28.248233
          ],
          [
            90.746252,
            28.248367
          ],
          [
            90.746387,
            28.248408
          ],
          [
            90.746585,
            28.248567
          ],
          [
            90.746845,
            28.248682
          ],
          [
            90.747052,
            28.2487
          ],
          [
            90.747165,
            28.248775
          ],
          [
            90.747303,
            28.248788
          ],
          [
            90.747438,
            28.248753
          ],
          [
            90.747698,
            28.248782
          ],
          [
            90.74793,
            28.248708
          ],
          [
            90.748148,
            28.248758
          ],
          [
            90.749068,
            28.248813
          ],
          [
            90.749745,
            28.248722
          ],
          [
            90.749925,
            28.248752
          ],
          [
            90.750213,
            28.248723
          ],
          [
            90.750395,
            28.248673
          ],
          [
            90.750508,
            28.248695
          ],
          [
            90.750595,
            28.248803
          ],
          [
            90.750483,
            28.248802
          ],
          [
            90.750283,
            28.248873
          ],
          [
            90.750615,
            28.248797
          ],
          [
            90.750613,
            28.248902
          ],
          [
            90.750588,
            28.248778
          ],
          [
            90.75061,
            28.248997
          ],
          [
            90.750653,
            28.249035
          ],
          [
            90.750985,
            28.249093
          ],
          [
            90.751073,
            28.249145
          ],
          [
            90.75122,
            28.249143
          ],
          [
            90.751273,
            28.249638
          ],
          [
            90.751205,
            28.249775
          ],
          [
            90.7512,
            28.24987
          ],
          [
            90.751368,
            28.2503
          ],
          [
            90.751395,
            28.250812
          ],
          [
            90.751525,
            28.251105
          ],
          [
            90.751745,
            28.25133
          ],
          [
            90.751827,
            28.251607
          ],
          [
            90.751807,
            28.252025
          ],
          [
            90.751772,
            28.252068
          ],
          [
            90.751693,
            28.252082
          ],
          [
            90.751422,
            28.252622
          ],
          [
            90.751293,
            28.252732
          ],
          [
            90.751272,
            28.253153
          ],
          [
            90.751388,
            28.253325
          ],
          [
            90.751488,
            28.25357
          ],
          [
            90.752003,
            28.253758
          ],
          [
            90.752198,
            28.253977
          ],
          [
            90.752245,
            28.254235
          ],
          [
            90.752133,
            28.254608
          ],
          [
            90.752065,
            28.254715
          ],
          [
            90.75208,
            28.254817
          ],
          [
            90.75216,
            28.25491
          ],
          [
            90.752328,
            28.255003
          ],
          [
            90.752672,
            28.255092
          ],
          [
            90.753035,
            28.255242
          ],
          [
            90.753128,
            28.255357
          ],
          [
            90.753417,
            28.255505
          ],
          [
            90.75338,
            28.255617
          ],
          [
            90.75326,
            28.255743
          ],
          [
            90.753378,
            28.255798
          ],
          [
            90.753437,
            28.255907
          ],
          [
            90.753692,
            28.256058
          ],
          [
            90.753755,
            28.256145
          ],
          [
            90.753842,
            28.256172
          ],
          [
            90.754202,
            28.25666
          ],
          [
            90.754413,
            28.256752
          ],
          [
            90.754492,
            28.256825
          ],
          [
            90.754655,
            28.257022
          ],
          [
            90.754803,
            28.257277
          ],
          [
            90.754757,
            28.257658
          ],
          [
            90.75468,
            28.25773
          ],
          [
            90.754637,
            28.257863
          ],
          [
            90.75461,
            28.257857
          ],
          [
            90.75448,
            28.25806
          ],
          [
            90.754397,
            28.25812
          ],
          [
            90.754367,
            28.258305
          ],
          [
            90.75429,
            28.258385
          ],
          [
            90.754307,
            28.258428
          ],
          [
            90.754407,
            28.258485
          ],
          [
            90.754417,
            28.258547
          ],
          [
            90.75424,
            28.25876
          ],
          [
            90.754272,
            28.258952
          ],
          [
            90.754418,
            28.259058
          ],
          [
            90.754383,
            28.259477
          ],
          [
            90.754323,
            28.259578
          ],
          [
            90.754412,
            28.259708
          ],
          [
            90.754483,
            28.259732
          ],
          [
            90.754403,
            28.25982
          ],
          [
            90.754502,
            28.259917
          ],
          [
            90.754518,
            28.260035
          ],
          [
            90.7546,
            28.26014
          ],
          [
            90.754558,
            28.260295
          ],
          [
            90.7546,
            28.260423
          ],
          [
            90.75445,
            28.260563
          ],
          [
            90.754188,
            28.260992
          ],
          [
            90.75404,
            28.261105
          ],
          [
            90.754085,
            28.261222
          ],
          [
            90.753907,
            28.261392
          ],
          [
            90.75368,
            28.261472
          ],
          [
            90.753577,
            28.261582
          ],
          [
            90.753482,
            28.261605
          ],
          [
            90.753378,
            28.261683
          ],
          [
            90.7533,
            28.261798
          ],
          [
            90.753285,
            28.261928
          ],
          [
            90.753188,
            28.262128
          ],
          [
            90.752975,
            28.262312
          ],
          [
            90.752955,
            28.262432
          ],
          [
            90.752817,
            28.262675
          ],
          [
            90.752847,
            28.262773
          ],
          [
            90.752798,
            28.263098
          ],
          [
            90.752752,
            28.263212
          ],
          [
            90.752672,
            28.263275
          ],
          [
            90.752708,
            28.263393
          ],
          [
            90.752617,
            28.263513
          ],
          [
            90.752585,
            28.263688
          ],
          [
            90.7524,
            28.264162
          ],
          [
            90.752253,
            28.26434
          ],
          [
            90.752125,
            28.264672
          ],
          [
            90.752,
            28.264803
          ],
          [
            90.752055,
            28.26498
          ],
          [
            90.752003,
            28.265202
          ],
          [
            90.75204,
            28.265383
          ],
          [
            90.751993,
            28.265465
          ],
          [
            90.75203,
            28.265585
          ],
          [
            90.751988,
            28.265707
          ],
          [
            90.752027,
            28.265782
          ],
          [
            90.75199,
            28.26613
          ],
          [
            90.752057,
            28.266263
          ],
          [
            90.75214,
            28.266598
          ],
          [
            90.752103,
            28.266738
          ],
          [
            90.752145,
            28.26692
          ],
          [
            90.75209,
            28.267095
          ],
          [
            90.752152,
            28.267343
          ],
          [
            90.752155,
            28.267552
          ],
          [
            90.752207,
            28.267628
          ],
          [
            90.752195,
            28.267735
          ],
          [
            90.752078,
            28.267912
          ],
          [
            90.752142,
            28.268043
          ],
          [
            90.752077,
            28.268112
          ],
          [
            90.752087,
            28.268232
          ],
          [
            90.752035,
            28.268272
          ],
          [
            90.752018,
            28.268527
          ],
          [
            90.752098,
            28.268698
          ],
          [
            90.752168,
            28.268732
          ],
          [
            90.752082,
            28.269233
          ],
          [
            90.752163,
            28.269298
          ],
          [
            90.752262,
            28.2695
          ],
          [
            90.752203,
            28.269568
          ],
          [
            90.752213,
            28.269605
          ],
          [
            90.752337,
            28.269717
          ],
          [
            90.752323,
            28.269922
          ],
          [
            90.752353,
            28.270027
          ],
          [
            90.75223,
            28.270317
          ],
          [
            90.752268,
            28.270402
          ],
          [
            90.752262,
            28.270508
          ],
          [
            90.752315,
            28.270587
          ],
          [
            90.75232,
            28.270767
          ],
          [
            90.752188,
            28.27094
          ],
          [
            90.752173,
            28.271153
          ],
          [
            90.752052,
            28.271333
          ],
          [
            90.751933,
            28.271672
          ],
          [
            90.751997,
            28.271835
          ],
          [
            90.751902,
            28.271955
          ],
          [
            90.751823,
            28.272225
          ],
          [
            90.751852,
            28.272383
          ],
          [
            90.751968,
            28.272548
          ],
          [
            90.752,
            28.272907
          ],
          [
            90.752068,
            28.273108
          ],
          [
            90.752027,
            28.273313
          ],
          [
            90.751958,
            28.273435
          ],
          [
            90.751985,
            28.273668
          ],
          [
            90.752052,
            28.273782
          ],
          [
            90.752153,
            28.27385
          ],
          [
            90.752318,
            28.274227
          ],
          [
            90.752245,
            28.274503
          ],
          [
            90.752253,
            28.274698
          ],
          [
            90.7522,
            28.27493
          ],
          [
            90.752275,
            28.275185
          ],
          [
            90.752333,
            28.275247
          ],
          [
            90.752453,
            28.275577
          ],
          [
            90.7526,
            28.27571
          ],
          [
            90.75262,
            28.275802
          ],
          [
            90.75253,
            28.275878
          ],
          [
            90.752507,
            28.275942
          ],
          [
            90.752583,
            28.276005
          ],
          [
            90.752588,
            28.276088
          ],
          [
            90.752642,
            28.27613
          ],
          [
            90.752685,
            28.276277
          ],
          [
            90.752673,
            28.276355
          ],
          [
            90.752512,
            28.27656
          ],
          [
            90.752453,
            28.276725
          ],
          [
            90.752433,
            28.277012
          ],
          [
            90.75248,
            28.27716
          ],
          [
            90.752408,
            28.277383
          ],
          [
            90.752497,
            28.2775
          ],
          [
            90.752353,
            28.27815
          ],
          [
            90.752367,
            28.278253
          ],
          [
            90.752453,
            28.278378
          ],
          [
            90.752453,
            28.27854
          ],
          [
            90.752543,
            28.278752
          ],
          [
            90.752558,
            28.279293
          ],
          [
            90.752458,
            28.279523
          ],
          [
            90.752348,
            28.279593
          ],
          [
            90.75235,
            28.279728
          ],
          [
            90.752237,
            28.279802
          ],
          [
            90.75213,
            28.279982
          ],
          [
            90.752088,
            28.280282
          ],
          [
            90.752118,
            28.280365
          ],
          [
            90.75202,
            28.280443
          ],
          [
            90.752015,
            28.280483
          ],
          [
            90.752028,
            28.28055
          ],
          [
            90.752223,
            28.280605
          ],
          [
            90.752237,
            28.280803
          ],
          [
            90.752163,
            28.280965
          ],
          [
            90.752077,
            28.281048
          ],
          [
            90.752092,
            28.281183
          ],
          [
            90.75204,
            28.281287
          ],
          [
            90.75208,
            28.281655
          ],
          [
            90.752423,
            28.282057
          ],
          [
            90.752387,
            28.282377
          ],
          [
            90.752568,
            28.282385
          ],
          [
            90.752608,
            28.282493
          ],
          [
            90.752775,
            28.28272
          ],
          [
            90.752808,
            28.283073
          ],
          [
            90.752765,
            28.283232
          ],
          [
            90.752795,
            28.283432
          ],
          [
            90.752872,
            28.283508
          ],
          [
            90.752855,
            28.283675
          ],
          [
            90.752907,
            28.283885
          ],
          [
            90.752852,
            28.28402
          ],
          [
            90.752982,
            28.28422
          ],
          [
            90.753007,
            28.284318
          ],
          [
            90.752968,
            28.28449
          ],
          [
            90.752975,
            28.284683
          ],
          [
            90.75284,
            28.285062
          ],
          [
            90.752865,
            28.285587
          ],
          [
            90.752903,
            28.28563
          ],
          [
            90.752822,
            28.285872
          ],
          [
            90.752852,
            28.286328
          ],
          [
            90.752798,
            28.28649
          ],
          [
            90.752812,
            28.286538
          ],
          [
            90.75277,
            28.286593
          ],
          [
            90.752723,
            28.286915
          ],
          [
            90.75268,
            28.286965
          ],
          [
            90.752765,
            28.287167
          ],
          [
            90.752752,
            28.287438
          ],
          [
            90.752803,
            28.28751
          ],
          [
            90.752753,
            28.287582
          ],
          [
            90.75278,
            28.287625
          ],
          [
            90.752763,
            28.287722
          ],
          [
            90.752633,
            28.287995
          ],
          [
            90.75264,
            28.288213
          ],
          [
            90.752503,
            28.288637
          ],
          [
            90.752563,
            28.288758
          ],
          [
            90.752548,
            28.288848
          ],
          [
            90.752667,
            28.289218
          ],
          [
            90.752667,
            28.289353
          ],
          [
            90.752358,
            28.289745
          ],
          [
            90.75237,
            28.289963
          ],
          [
            90.752292,
            28.290103
          ],
          [
            90.75237,
            28.290457
          ],
          [
            90.752313,
            28.290988
          ],
          [
            90.752255,
            28.291122
          ],
          [
            90.752287,
            28.291273
          ],
          [
            90.752228,
            28.291413
          ],
          [
            90.752227,
            28.291622
          ],
          [
            90.752167,
            28.291708
          ],
          [
            90.752185,
            28.291787
          ],
          [
            90.752152,
            28.291948
          ],
          [
            90.75207,
            28.292143
          ],
          [
            90.752087,
            28.292237
          ],
          [
            90.751942,
            28.292395
          ],
          [
            90.75186,
            28.292617
          ],
          [
            90.751865,
            28.29274
          ],
          [
            90.751788,
            28.292973
          ],
          [
            90.751825,
            28.293125
          ],
          [
            90.751753,
            28.293572
          ],
          [
            90.75174,
            28.293925
          ],
          [
            90.751773,
            28.294188
          ],
          [
            90.751732,
            28.294438
          ],
          [
            90.751685,
            28.294582
          ],
          [
            90.751502,
            28.294755
          ],
          [
            90.751505,
            28.295112
          ],
          [
            90.751537,
            28.29514
          ],
          [
            90.751465,
            28.29523
          ],
          [
            90.751425,
            28.295558
          ],
          [
            90.751277,
            28.295778
          ],
          [
            90.751315,
            28.2959
          ],
          [
            90.751272,
            28.296042
          ],
          [
            90.751325,
            28.296218
          ],
          [
            90.751285,
            28.296445
          ],
          [
            90.751425,
            28.296823
          ],
          [
            90.751683,
            28.29705
          ],
          [
            90.751857,
            28.297157
          ],
          [
            90.751903,
            28.297273
          ],
          [
            90.751773,
            28.297658
          ],
          [
            90.751797,
            28.297845
          ],
          [
            90.751852,
            28.297883
          ],
          [
            90.75192,
            28.29806
          ],
          [
            90.752022,
            28.298655
          ],
          [
            90.751978,
            28.298743
          ],
          [
            90.752012,
            28.298863
          ],
          [
            90.751998,
            28.299003
          ],
          [
            90.751925,
            28.29913
          ],
          [
            90.751922,
            28.299333
          ],
          [
            90.751972,
            28.29945
          ],
          [
            90.751913,
            28.299675
          ],
          [
            90.751952,
            28.299873
          ],
          [
            90.75183,
            28.30018
          ],
          [
            90.751845,
            28.300282
          ],
          [
            90.752048,
            28.300448
          ],
          [
            90.752102,
            28.300632
          ],
          [
            90.75233,
            28.300793
          ],
          [
            90.75243,
            28.300795
          ],
          [
            90.752535,
            28.300853
          ],
          [
            90.752468,
            28.301335
          ],
          [
            90.75254,
            28.301432
          ],
          [
            90.752563,
            28.30156
          ],
          [
            90.752647,
            28.301687
          ],
          [
            90.7527,
            28.301855
          ],
          [
            90.75295,
            28.30213
          ],
          [
            90.75306,
            28.302507
          ],
          [
            90.752992,
            28.302608
          ],
          [
            90.75273,
            28.302757
          ],
          [
            90.752668,
            28.302983
          ],
          [
            90.752582,
            28.303105
          ],
          [
            90.752578,
            28.303183
          ],
          [
            90.752253,
            28.303333
          ],
          [
            90.752218,
            28.303493
          ],
          [
            90.752138,
            28.303505
          ],
          [
            90.752095,
            28.303607
          ],
          [
            90.75202,
            28.30366
          ],
          [
            90.751923,
            28.30365
          ],
          [
            90.751843,
            28.303688
          ],
          [
            90.751832,
            28.303782
          ],
          [
            90.751665,
            28.303895
          ],
          [
            90.751603,
            28.304145
          ],
          [
            90.751538,
            28.304247
          ],
          [
            90.75153,
            28.3045
          ],
          [
            90.751398,
            28.304595
          ],
          [
            90.751397,
            28.304668
          ],
          [
            90.751317,
            28.304745
          ],
          [
            90.751317,
            28.304803
          ],
          [
            90.75111,
            28.305038
          ],
          [
            90.751053,
            28.305182
          ],
          [
            90.751067,
            28.305262
          ],
          [
            90.751093,
            28.305262
          ],
          [
            90.751132,
            28.305085
          ],
          [
            90.751253,
            28.304943
          ],
          [
            90.751255,
            28.304833
          ],
          [
            90.751327,
            28.304815
          ],
          [
            90.751448,
            28.304663
          ],
          [
            90.751428,
            28.304607
          ],
          [
            90.751463,
            28.304473
          ],
          [
            90.751602,
            28.304375
          ],
          [
            90.751533,
            28.304203
          ],
          [
            90.75161,
            28.304158
          ],
          [
            90.751765,
            28.303802
          ],
          [
            90.75189,
            28.30373
          ],
          [
            90.751898,
            28.303635
          ],
          [
            90.752085,
            28.303357
          ],
          [
            90.752062,
            28.303202
          ],
          [
            90.752177,
            28.303133
          ],
          [
            90.752552,
            28.303118
          ],
          [
            90.752673,
            28.303047
          ],
          [
            90.752812,
            28.302808
          ],
          [
            90.752772,
            28.302737
          ],
          [
            90.752812,
            28.302648
          ],
          [
            90.752705,
            28.302568
          ],
          [
            90.752703,
            28.302475
          ],
          [
            90.752523,
            28.302272
          ],
          [
            90.752455,
            28.30212
          ],
          [
            90.752475,
            28.302057
          ],
          [
            90.752622,
            28.301965
          ],
          [
            90.752708,
            28.301863
          ],
          [
            90.75273,
            28.301768
          ],
          [
            90.752507,
            28.301202
          ],
          [
            90.752523,
            28.300963
          ],
          [
            90.752567,
            28.300863
          ],
          [
            90.752553,
            28.300732
          ],
          [
            90.75244,
            28.300653
          ],
          [
            90.752258,
            28.300412
          ],
          [
            90.752277,
            28.300303
          ],
          [
            90.752085,
            28.299868
          ],
          [
            90.751953,
            28.299805
          ],
          [
            90.751955,
            28.299453
          ],
          [
            90.751998,
            28.299368
          ],
          [
            90.751937,
            28.29925
          ],
          [
            90.752042,
            28.298822
          ],
          [
            90.752013,
            28.298665
          ],
          [
            90.752038,
            28.298488
          ],
          [
            90.751948,
            28.29819
          ],
          [
            90.751935,
            28.297995
          ],
          [
            90.751787,
            28.29775
          ],
          [
            90.751762,
            28.297592
          ],
          [
            90.751912,
            28.297227
          ],
          [
            90.751852,
            28.297115
          ],
          [
            90.75144,
            28.296797
          ],
          [
            90.751387,
            28.296578
          ],
          [
            90.751333,
            28.296512
          ],
          [
            90.751323,
            28.296358
          ],
          [
            90.75137,
            28.296253
          ],
          [
            90.751292,
            28.296037
          ],
          [
            90.751323,
            28.295737
          ],
          [
            90.751473,
            28.295547
          ],
          [
            90.751503,
            28.295223
          ],
          [
            90.751577,
            28.29512
          ],
          [
            90.75154,
            28.295053
          ],
          [
            90.751565,
            28.294753
          ],
          [
            90.751728,
            28.294595
          ],
          [
            90.751758,
            28.294477
          ],
          [
            90.751815,
            28.294067
          ],
          [
            90.751777,
            28.29395
          ],
          [
            90.751785,
            28.293582
          ],
          [
            90.751852,
            28.293328
          ],
          [
            90.751828,
            28.293003
          ],
          [
            90.751923,
            28.292635
          ],
          [
            90.752127,
            28.292248
          ],
          [
            90.752105,
            28.292092
          ],
          [
            90.75218,
            28.291947
          ],
          [
            90.75221,
            28.291682
          ],
          [
            90.752288,
            28.291572
          ],
          [
            90.752275,
            28.291388
          ],
          [
            90.752347,
            28.29128
          ],
          [
            90.752315,
            28.291153
          ],
          [
            90.752397,
            28.290762
          ],
          [
            90.752397,
            28.290573
          ],
          [
            90.752382,
            28.29026
          ],
          [
            90.75233,
            28.290063
          ],
          [
            90.752402,
            28.289923
          ],
          [
            90.752383,
            28.289813
          ],
          [
            90.752428,
            28.289707
          ],
          [
            90.752688,
            28.289348
          ],
          [
            90.752707,
            28.28925
          ],
          [
            90.752595,
            28.288858
          ],
          [
            90.752558,
            28.288562
          ],
          [
            90.752648,
            28.288333
          ],
          [
            90.752657,
            28.288015
          ],
          [
            90.7528,
            28.287593
          ],
          [
            90.752787,
            28.287125
          ],
          [
            90.752727,
            28.286943
          ],
          [
            90.752773,
            28.286652
          ],
          [
            90.752877,
            28.28633
          ],
          [
            90.752833,
            28.286078
          ],
          [
            90.75288,
            28.28593
          ],
          [
            90.752862,
            28.2858
          ],
          [
            90.752913,
            28.285688
          ],
          [
            90.75288,
            28.285012
          ],
          [
            90.752992,
            28.284617
          ],
          [
            90.752942,
            28.284463
          ],
          [
            90.753035,
            28.284277
          ],
          [
            90.753025,
            28.28418
          ],
          [
            90.752885,
            28.283963
          ],
          [
            90.752927,
            28.283855
          ],
          [
            90.75288,
            28.283587
          ],
          [
            90.752917,
            28.283508
          ],
          [
            90.752828,
            28.283357
          ],
          [
            90.752787,
            28.28269
          ],
          [
            90.752622,
            28.282455
          ],
          [
            90.752415,
            28.281987
          ],
          [
            90.752078,
            28.281525
          ],
          [
            90.752113,
            28.281007
          ],
          [
            90.752205,
            28.280935
          ],
          [
            90.752267,
            28.280783
          ],
          [
            90.75223,
            28.280533
          ],
          [
            90.752065,
            28.280487
          ],
          [
            90.752077,
            28.280398
          ],
          [
            90.752148,
            28.28032
          ],
          [
            90.752173,
            28.279943
          ],
          [
            90.752308,
            28.279828
          ],
          [
            90.752495,
            28.279518
          ],
          [
            90.752608,
            28.279148
          ],
          [
            90.752578,
            28.278708
          ],
          [
            90.752477,
            28.278482
          ],
          [
            90.752492,
            28.278375
          ],
          [
            90.752413,
            28.278218
          ],
          [
            90.752413,
            28.278043
          ],
          [
            90.752355,
            28.277863
          ],
          [
            90.752403,
            28.277712
          ],
          [
            90.752497,
            28.277667
          ],
          [
            90.75255,
            28.277413
          ],
          [
            90.752485,
            28.277228
          ],
          [
            90.752498,
            28.276643
          ],
          [
            90.752702,
            28.276318
          ],
          [
            90.752732,
            28.27614
          ],
          [
            90.752723,
            28.276092
          ],
          [
            90.75264,
            28.276032
          ],
          [
            90.752618,
            28.275955
          ],
          [
            90.752552,
            28.275902
          ],
          [
            90.752532,
            28.275788
          ],
          [
            90.752482,
            28.2757
          ],
          [
            90.752403,
            28.27565
          ],
          [
            90.752355,
            28.275533
          ],
          [
            90.752418,
            28.275333
          ],
          [
            90.752365,
            28.275193
          ],
          [
            90.752303,
            28.275132
          ],
          [
            90.752247,
            28.274867
          ],
          [
            90.752273,
            28.274475
          ],
          [
            90.75234,
            28.27418
          ],
          [
            90.752135,
            28.273705
          ],
          [
            90.752117,
            28.273585
          ],
          [
            90.752193,
            28.27337
          ],
          [
            90.752177,
            28.273213
          ],
          [
            90.752038,
            28.272957
          ],
          [
            90.751977,
            28.272458
          ],
          [
            90.751917,
            28.27236
          ],
          [
            90.75192,
            28.271985
          ],
          [
            90.75213,
            28.27157
          ],
          [
            90.752148,
            28.27141
          ],
          [
            90.752112,
            28.271248
          ],
          [
            90.752163,
            28.271017
          ],
          [
            90.752352,
            28.27073
          ],
          [
            90.752343,
            28.27056
          ],
          [
            90.752297,
            28.270458
          ],
          [
            90.752387,
            28.27003
          ],
          [
            90.752368,
            28.269663
          ],
          [
            90.752263,
            28.269567
          ],
          [
            90.752228,
            28.269318
          ],
          [
            90.75213,
            28.269132
          ],
          [
            90.752193,
            28.268707
          ],
          [
            90.752115,
            28.26864
          ],
          [
            90.752055,
            28.268482
          ],
          [
            90.752118,
            28.268082
          ],
          [
            90.752167,
            28.268032
          ],
          [
            90.752135,
            28.267945
          ],
          [
            90.752157,
            28.267837
          ],
          [
            90.752238,
            28.267603
          ],
          [
            90.752157,
            28.267138
          ],
          [
            90.752043,
            28.267007
          ],
          [
            90.752005,
            28.266798
          ],
          [
            90.752002,
            28.266752
          ],
          [
            90.752157,
            28.266615
          ],
          [
            90.752178,
            28.266552
          ],
          [
            90.752065,
            28.266063
          ],
          [
            90.752093,
            28.265458
          ],
          [
            90.752063,
            28.265393
          ],
          [
            90.75208,
            28.26524
          ],
          [
            90.75203,
            28.265122
          ],
          [
            90.752092,
            28.265037
          ],
          [
            90.752155,
            28.2647
          ],
          [
            90.75223,
            28.264605
          ],
          [
            90.75225,
            28.264432
          ],
          [
            90.752475,
            28.26414
          ],
          [
            90.752555,
            28.263982
          ],
          [
            90.752578,
            28.26385
          ],
          [
            90.752645,
            28.263753
          ],
          [
            90.75267,
            28.263512
          ],
          [
            90.752762,
            28.263342
          ],
          [
            90.752743,
            28.263232
          ],
          [
            90.752857,
            28.263092
          ],
          [
            90.752875,
            28.262652
          ],
          [
            90.753003,
            28.262437
          ],
          [
            90.753025,
            28.262315
          ],
          [
            90.753238,
            28.262102
          ],
          [
            90.753378,
            28.261743
          ],
          [
            90.753545,
            28.261595
          ],
          [
            90.75355,
            28.26152
          ],
          [
            90.753678,
            28.261485
          ],
          [
            90.753735,
            28.261408
          ],
          [
            90.753908,
            28.261293
          ],
          [
            90.753905,
            28.261203
          ],
          [
            90.754068,
            28.261008
          ],
          [
            90.754317,
            28.260892
          ],
          [
            90.754513,
            28.260535
          ],
          [
            90.754662,
            28.260397
          ],
          [
            90.75467,
            28.26029
          ],
          [
            90.754742,
            28.260243
          ],
          [
            90.754705,
            28.260195
          ],
          [
            90.754617,
            28.260172
          ],
          [
            90.754653,
            28.26007
          ],
          [
            90.754613,
            28.260032
          ],
          [
            90.754558,
            28.25984
          ],
          [
            90.75448,
            28.259767
          ],
          [
            90.754522,
            28.25975
          ],
          [
            90.754527,
            28.259692
          ],
          [
            90.75445,
            28.259653
          ],
          [
            90.754375,
            28.259553
          ],
          [
            90.75438,
            28.259487
          ],
          [
            90.754437,
            28.25944
          ],
          [
            90.754435,
            28.259138
          ],
          [
            90.75448,
            28.258888
          ],
          [
            90.754388,
            28.258837
          ],
          [
            90.754297,
            28.25873
          ],
          [
            90.754455,
            28.258512
          ],
          [
            90.75445,
            28.258428
          ],
          [
            90.754363,
            28.258418
          ],
          [
            90.754365,
            28.25828
          ],
          [
            90.754502,
            28.258043
          ],
          [
            90.75479,
            28.257873
          ],
          [
            90.755315,
            28.2573
          ],
          [
            90.755448,
            28.257208
          ],
          [
            90.756043,
            28.256937
          ]
        ]
      }
    }
  ]
}
