{
  "type": "FeatureCollection",
  "features": [
    {
      "type": "Feature",
      "properties": {
        "name": "六盘山参考轨迹",
        "type": "hiking",
        "source": "两步路用户轨迹",
        "segments": 1
      },
      "geometry": {
        "type": "LineString",
        "coordinates": [
          [
            106.24337,
            35.608685
          ],
          [
            106.243034,
            35.60849
          ],
          [
            106.24285,
            35.60829
          ],
          [
            106.24227,
            35.607597
          ],
          [
            106.24209,
            35.60736
          ],
          [
            106.24182,
            35.606964
          ],
          [
            106.24165,
            35.606567
          ],
          [
            106.24155,
            35.606094
          ],
          [
            106.24155,
            35.605766
          ],
          [
            106.241646,
            35.605354
          ],
          [
            106.24163,
            35.605133
          ],
          [
            106.24163,
            35.604904
          ],
          [
            106.24156,
            35.604664
          ],
          [
            106.24147,
            35.604507
          ],
          [
            106.24138,
            35.604362
          ],
          [
            106.24127,
            35.604267
          ],
          [
            106.241325,
            35.60397
          ],
          [
            106.24133,
            35.603825
          ],
          [
            106.24122,
            35.60358
          ],
          [
            106.241165,
            35.60341
          ],
          [
            106.24111,
            35.60322
          ],
          [
            106.24105,
            35.60299
          ],
          [
            106.24089,
            35.60263
          ],
          [
            106.24079,
            35.60239
          ],
          [
            106.24066,
            35.60197
          ],
          [
            106.24065,
            35.6016
          ],
          [
            106.2407,
            35.601143
          ],
          [
            106.2407,
            35.600983
          ],
          [
            106.2406,
            35.600864
          ],
          [
            106.2405,
            35.60067
          ],
          [
            106.24029,
            35.600494
          ],
          [
            106.24015,
            35.60017
          ],
          [
            106.23996,
            35.599922
          ],
          [
            106.239655,
            35.599483
          ],
          [
            106.23952,
            35.59913
          ],
          [
            106.239365,
            35.598904
          ],
          [
            106.239136,
            35.598694
          ],
          [
            106.2389,
            35.598446
          ],
          [
            106.23875,
            35.59825
          ],
          [
            106.23846,
            35.597767
          ],
          [
            106.23833,
            35.597504
          ],
          [
            106.238205,
            35.59733
          ],
          [
            106.23811,
            35.597115
          ],
          [
            106.23812,
            35.59692
          ],
          [
            106.23817,
            35.596706
          ],
          [
            106.23809,
            35.59643
          ],
          [
            106.238014,
            35.596233
          ],
          [
            106.238045,
            35.596092
          ],
          [
            106.23795,
            35.595676
          ],
          [
            106.23793,
            35.595524
          ],
          [
            106.23782,
            35.59537
          ],
          [
            106.23768,
            35.595158
          ],
          [
            106.2377,
            35.594948
          ],
          [
            106.237755,
            35.594837
          ],
          [
            106.23765,
            35.594643
          ],
          [
            106.23763,
            35.594513
          ],
          [
            106.23765,
            35.594334
          ],
          [
            106.237465,
            35.594128
          ],
          [
            106.23736,
            35.59402
          ],
          [
            106.23722,
            35.5939
          ],
          [
            106.23694,
            35.593597
          ],
          [
            106.23687,
            35.593414
          ],
          [
            106.236885,
            35.59316
          ],
          [
            106.23683,
            35.592945
          ],
          [
            106.23678,
            35.592747
          ],
          [
            106.23676,
            35.592606
          ],
          [
            106.23685,
            35.592297
          ],
          [
            106.23707,
            35.592247
          ],
          [
            106.237305,
            35.592327
          ],
          [
            106.23753,
            35.59246
          ],
          [
            106.237686,
            35.592316
          ],
          [
            106.23781,
            35.592113
          ],
          [
            106.237915,
            35.59192
          ],
          [
            106.23802,
            35.591427
          ],
          [
            106.238144,
            35.590996
          ],
          [
            106.23815,
            35.590878
          ],
          [
            106.238014,
            35.590794
          ],
          [
            106.23793,
            35.59074
          ],
          [
            106.237946,
            35.590595
          ],
          [
            106.23807,
            35.59035
          ],
          [
            106.23824,
            35.590195
          ],
          [
            106.23841,
            35.590168
          ],
          [
            106.23863,
            35.590126
          ],
          [
            106.2387,
            35.589993
          ],
          [
            106.23876,
            35.58981
          ],
          [
            106.238914,
            35.589596
          ],
          [
            106.23884,
            35.58943
          ],
          [
            106.23882,
            35.589283
          ],
          [
            106.23864,
            35.589108
          ],
          [
            106.23865,
            35.58886
          ],
          [
            106.23877,
            35.588676
          ],
          [
            106.238815,
            35.588535
          ],
          [
            106.238914,
            35.588036
          ],
          [
            106.23893,
            35.587887
          ],
          [
            106.238815,
            35.58774
          ],
          [
            106.23869,
            35.58766
          ],
          [
            106.23864,
            35.587467
          ],
          [
            106.23874,
            35.586937
          ],
          [
            106.23879,
            35.586567
          ],
          [
            106.23888,
            35.586346
          ],
          [
            106.23902,
            35.58566
          ],
          [
            106.23915,
            35.58524
          ],
          [
            106.23914,
            35.585007
          ],
          [
            106.2392,
            35.584785
          ],
          [
            106.23935,
            35.584522
          ],
          [
            106.239365,
            35.584404
          ],
          [
            106.23933,
            35.58419
          ],
          [
            106.23926,
            35.584007
          ],
          [
            106.23918,
            35.583927
          ],
          [
            106.23913,
            35.58385
          ],
          [
            106.23913,
            35.583706
          ],
          [
            106.23905,
            35.58357
          ],
          [
            106.239,
            35.583412
          ],
          [
            106.23893,
            35.583305
          ],
          [
            106.238914,
            35.583214
          ],
          [
            106.23886,
            35.583057
          ],
          [
            106.23896,
            35.58271
          ],
          [
            106.23911,
            35.582294
          ],
          [
            106.239235,
            35.581882
          ],
          [
            106.23921,
            35.581726
          ],
          [
            106.239395,
            35.58127
          ],
          [
            106.23943,
            35.581005
          ],
          [
            106.23953,
            35.580723
          ],
          [
            106.23962,
            35.580517
          ],
          [
            106.239845,
            35.57999
          ],
          [
            106.23997,
            35.579712
          ],
          [
            106.24033,
            35.57937
          ],
          [
            106.240486,
            35.57921
          ],
          [
            106.240585,
            35.578857
          ],
          [
            106.240685,
            35.57857
          ],
          [
            106.2408,
            35.578342
          ],
          [
            106.24086,
            35.578133
          ],
          [
            106.24094,
            35.577858
          ],
          [
            106.241,
            35.577545
          ],
          [
            106.24111,
            35.57717
          ],
          [
            106.24108,
            35.576996
          ],
          [
            106.2412,
            35.576763
          ],
          [
            106.24119,
            35.57656
          ],
          [
            106.24108,
            35.576374
          ],
          [
            106.24091,
            35.576134
          ],
          [
            106.24082,
            35.575905
          ],
          [
            106.24073,
            35.575718
          ],
          [
            106.24065,
            35.575497
          ],
          [
            106.2406,
            35.575325
          ],
          [
            106.24052,
            35.575085
          ],
          [
            106.24027,
            35.57502
          ],
          [
            106.240135,
            35.575108
          ],
          [
            106.24011,
            35.57536
          ],
          [
            106.24021,
            35.575768
          ],
          [
            106.24017,
            35.576176
          ],
          [
            106.24007,
            35.57639
          ],
          [
            106.23992,
            35.576736
          ],
          [
            106.23975,
            35.57693
          ],
          [
            106.23958,
            35.576942
          ],
          [
            106.23955,
            35.57676
          ],
          [
            106.23962,
            35.57659
          ],
          [
            106.23949,
            35.576637
          ],
          [
            106.23932,
            35.57673
          ],
          [
            106.23924,
            35.57668
          ],
          [
            106.23924,
            35.576553
          ],
          [
            106.23905,
            35.576576
          ],
          [
            106.23874,
            35.5767
          ],
          [
            106.23869,
            35.57672
          ],
          [
            106.23865,
            35.576527
          ],
          [
            106.23869,
            35.57641
          ],
          [
            106.2386,
            35.576427
          ],
          [
            106.238335,
            35.576485
          ],
          [
            106.238106,
            35.57662
          ],
          [
            106.237915,
            35.576874
          ],
          [
            106.23771,
            35.577087
          ],
          [
            106.237526,
            35.57725
          ],
          [
            106.237366,
            35.57737
          ],
          [
            106.23725,
            35.577564
          ],
          [
            106.23715,
            35.577766
          ],
          [
            106.237045,
            35.57795
          ],
          [
            106.23675,
            35.57791
          ],
          [
            106.23658,
            35.577747
          ],
          [
            106.23649,
            35.57747
          ],
          [
            106.23641,
            35.57727
          ],
          [
            106.23637,
            35.577026
          ],
          [
            106.23629,
            35.576763
          ],
          [
            106.23615,
            35.57659
          ],
          [
            106.23609,
            35.576454
          ],
          [
            106.23617,
            35.576157
          ],
          [
            106.23608,
            35.5761
          ],
          [
            106.23589,
            35.57607
          ],
          [
            106.23577,
            35.575966
          ],
          [
            106.23549,
            35.575718
          ],
          [
            106.23536,
            35.57553
          ],
          [
            106.23534,
            35.57526
          ],
          [
            106.23536,
            35.57515
          ],
          [
            106.23534,
            35.574646
          ],
          [
            106.235344,
            35.57411
          ],
          [
            106.23531,
            35.57383
          ],
          [
            106.23522,
            35.57351
          ],
          [
            106.235115,
            35.57329
          ],
          [
            106.23518,
            35.572994
          ],
          [
            106.23499,
            35.57275
          ],
          [
            106.23474,
            35.57247
          ],
          [
            106.234695,
            35.572227
          ],
          [
            106.23501,
            35.572094
          ],
          [
            106.2352,
            35.57196
          ],
          [
            106.23531,
            35.5718
          ],
          [
            106.23542,
            35.571484
          ],
          [
            106.23539,
            35.57143
          ],
          [
            106.23524,
            35.57136
          ],
          [
            106.23499,
            35.571255
          ],
          [
            106.234665,
            35.571136
          ],
          [
            106.2344,
            35.570976
          ],
          [
            106.23412,
            35.570847
          ],
          [
            106.23392,
            35.570816
          ],
          [
            106.23402,
            35.571056
          ],
          [
            106.234055,
            35.57127
          ],
          [
            106.23371,
            35.571213
          ],
          [
            106.2335,
            35.571045
          ],
          [
            106.23348,
            35.570915
          ],
          [
            106.2333,
            35.5712
          ],
          [
            106.23294,
            35.571453
          ],
          [
            106.23264,
            35.571644
          ],
          [
            106.232544,
            35.57199
          ],
          [
            106.23248,
            35.57235
          ],
          [
            106.23225,
            35.57294
          ],
          [
            106.23211,
            35.57321
          ],
          [
            106.232025,
            35.573475
          ],
          [
            106.23192,
            35.573654
          ],
          [
            106.23176,
            35.573975
          ],
          [
            106.23168,
            35.57427
          ],
          [
            106.231575,
            35.57459
          ],
          [
            106.231415,
            35.574623
          ],
          [
            106.23128,
            35.574497
          ],
          [
            106.23114,
            35.574413
          ],
          [
            106.23112,
            35.574
          ],
          [
            106.23107,
            35.573772
          ],
          [
            106.2311,
            35.57316
          ],
          [
            106.23101,
            35.57274
          ],
          [
            106.23089,
            35.572456
          ],
          [
            106.2309,
            35.57214
          ],
          [
            106.230896,
            35.57186
          ],
          [
            106.23099,
            35.57148
          ],
          [
            106.23113,
            35.571243
          ],
          [
            106.231224,
            35.570934
          ],
          [
            106.23134,
            35.570683
          ],
          [
            106.231544,
            35.57041
          ],
          [
            106.23162,
            35.570255
          ],
          [
            106.23151,
            35.56996
          ],
          [
            106.23143,
            35.5698
          ],
          [
            106.231415,
            35.56948
          ],
          [
            106.23158,
            35.56926
          ],
          [
            106.23174,
            35.56918
          ],
          [
            106.23193,
            35.569008
          ],
          [
            106.232056,
            35.568752
          ],
          [
            106.23217,
            35.568443
          ],
          [
            106.23224,
            35.5681
          ],
          [
            106.232285,
            35.56768
          ],
          [
            106.23243,
            35.567528
          ],
          [
            106.232475,
            35.56702
          ],
          [
            106.232544,
            35.566544
          ],
          [
            106.23266,
            35.566048
          ],
          [
            106.23278,
            35.565804
          ],
          [
            106.23296,
            35.56523
          ],
          [
            106.233246,
            35.564842
          ],
          [
            106.2333,
            35.56452
          ],
          [
            106.23338,
            35.56421
          ],
          [
            106.23375,
            35.563923
          ],
          [
            106.23412,
            35.56347
          ],
          [
            106.23457,
            35.563244
          ],
          [
            106.23465,
            35.562763
          ],
          [
            106.23509,
            35.56241
          ],
          [
            106.23618,
            35.56184
          ],
          [
            106.236465,
            35.561687
          ],
          [
            106.236755,
            35.561325
          ],
          [
            106.23705,
            35.561012
          ],
          [
            106.237335,
            35.560787
          ],
          [
            106.23723,
            35.560165
          ],
          [
            106.23716,
            35.559586
          ],
          [
            106.23719,
            35.559326
          ],
          [
            106.23713,
            35.558964
          ],
          [
            106.23694,
            35.558643
          ],
          [
            106.236626,
            35.558384
          ],
          [
            106.23671,
            35.558018
          ],
          [
            106.23665,
            35.55773
          ],
          [
            106.23637,
            35.557602
          ],
          [
            106.23576,
            35.557655
          ],
          [
            106.23523,
            35.557568
          ],
          [
            106.234856,
            35.557278
          ],
          [
            106.23436,
            35.557217
          ],
          [
            106.234085,
            35.5572
          ],
          [
            106.23409,
            35.55708
          ],
          [
            106.23403,
            35.55699
          ],
          [
            106.233955,
            35.556805
          ],
          [
            106.23392,
            35.556618
          ],
          [
            106.23382,
            35.556377
          ],
          [
            106.233925,
            35.556087
          ],
          [
            106.23397,
            35.55572
          ],
          [
            106.23407,
            35.555496
          ],
          [
            106.2342,
            35.55527
          ],
          [
            106.23426,
            35.555138
          ],
          [
            106.234276,
            35.554813
          ],
          [
            106.23426,
            35.554733
          ],
          [
            106.234184,
            35.55459
          ],
          [
            106.23407,
            35.55398
          ],
          [
            106.23396,
            35.553722
          ],
          [
            106.234,
            35.553528
          ],
          [
            106.23412,
            35.55338
          ],
          [
            106.23422,
            35.553246
          ],
          [
            106.23424,
            35.553024
          ],
          [
            106.23422,
            35.552773
          ],
          [
            106.23424,
            35.552666
          ],
          [
            106.234344,
            35.55252
          ],
          [
            106.23435,
            35.55234
          ],
          [
            106.23431,
            35.552135
          ],
          [
            106.23472,
            35.55148
          ],
          [
            106.23483,
            35.551304
          ],
          [
            106.23507,
            35.551186
          ],
          [
            106.23538,
            35.551003
          ],
          [
            106.23551,
            35.55082
          ],
          [
            106.23571,
            35.550674
          ],
          [
            106.23547,
            35.550243
          ],
          [
            106.23539,
            35.54996
          ],
          [
            106.23533,
            35.549713
          ],
          [
            106.235306,
            35.549286
          ],
          [
            106.23538,
            35.54896
          ],
          [
            106.23539,
            35.548855
          ],
          [
            106.23531,
            35.54878
          ],
          [
            106.235374,
            35.548603
          ],
          [
            106.2354,
            35.54842
          ],
          [
            106.23529,
            35.548286
          ],
          [
            106.23533,
            35.54793
          ],
          [
            106.235306,
            35.54781
          ],
          [
            106.23537,
            35.54759
          ],
          [
            106.23541,
            35.54739
          ],
          [
            106.23556,
            35.547215
          ],
          [
            106.23578,
            35.547096
          ],
          [
            106.23585,
            35.546955
          ],
          [
            106.23589,
            35.546707
          ],
          [
            106.235985,
            35.54657
          ],
          [
            106.23597,
            35.54628
          ],
          [
            106.23613,
            35.54611
          ],
          [
            106.23621,
            35.545925
          ],
          [
            106.236305,
            35.545788
          ],
          [
            106.23643,
            35.545643
          ],
          [
            106.23663,
            35.545525
          ],
          [
            106.23677,
            35.54538
          ],
          [
            106.23694,
            35.5453
          ],
          [
            106.23708,
            35.544983
          ],
          [
            106.23724,
            35.544815
          ],
          [
            106.23733,
            35.544735
          ],
          [
            106.23745,
            35.544758
          ],
          [
            106.2375,
            35.54458
          ],
          [
            106.237404,
            35.544548
          ],
          [
            106.23757,
            35.544422
          ],
          [
            106.237755,
            35.544365
          ],
          [
            106.2378,
            35.544235
          ],
          [
            106.23789,
            35.544155
          ],
          [
            106.238014,
            35.54413
          ],
          [
            106.2382,
            35.544197
          ],
          [
            106.23833,
            35.544277
          ],
          [
            106.23849,
            35.544273
          ],
          [
            106.238525,
            35.544353
          ],
          [
            106.238686,
            35.54435
          ],
          [
            106.238815,
            35.544254
          ],
          [
            106.23894,
            35.54424
          ],
          [
            106.23901,
            35.544315
          ],
          [
            106.2391,
            35.544373
          ],
          [
            106.239136,
            35.544544
          ],
          [
            106.2391,
            35.544632
          ],
          [
            106.239174,
            35.544777
          ],
          [
            106.2392,
            35.544884
          ],
          [
            106.239204,
            35.54496
          ],
          [
            106.2392,
            35.545177
          ],
          [
            106.23924,
            35.545227
          ],
          [
            106.23925,
            35.54537
          ],
          [
            106.23937,
            35.545452
          ],
          [
            106.239525,
            35.54553
          ],
          [
            106.239624,
            35.545574
          ],
          [
            106.23972,
            35.54572
          ],
          [
            106.23981,
            35.54577
          ],
          [
            106.240036,
            35.54574
          ],
          [
            106.24011,
            35.54573
          ],
          [
            106.240364,
            35.54563
          ],
          [
            106.240616,
            35.54553
          ],
          [
            106.24078,
            35.54556
          ],
          [
            106.241005,
            35.545513
          ],
          [
            106.2411,
            35.54543
          ],
          [
            106.24116,
            35.54525
          ],
          [
            106.24126,
            35.545223
          ],
          [
            106.24136,
            35.54524
          ],
          [
            106.24141,
            35.54516
          ],
          [
            106.24125,
            35.54509
          ],
          [
            106.24133,
            35.54498
          ],
          [
            106.24152,
            35.54491
          ],
          [
            106.24165,
            35.544865
          ],
          [
            106.24185,
            35.54476
          ],
          [
            106.24178,
            35.54458
          ],
          [
            106.24177,
            35.544285
          ],
          [
            106.24172,
            35.544174
          ],
          [
            106.241615,
            35.54395
          ],
          [
            106.241486,
            35.543728
          ],
          [
            106.24129,
            35.543575
          ],
          [
            106.24122,
            35.543472
          ],
          [
            106.24121,
            35.543404
          ],
          [
            106.24107,
            35.54328
          ],
          [
            106.240944,
            35.543114
          ],
          [
            106.24087,
            35.542942
          ],
          [
            106.240845,
            35.54259
          ],
          [
            106.24081,
            35.5425
          ],
          [
            106.24091,
            35.542328
          ],
          [
            106.24114,
            35.542408
          ],
          [
            106.24137,
            35.542435
          ],
          [
            106.24151,
            35.542484
          ],
          [
            106.24175,
            35.542442
          ],
          [
            106.24205,
            35.542408
          ],
          [
            106.242165,
            35.542336
          ],
          [
            106.242256,
            35.542046
          ],
          [
            106.242256,
            35.54189
          ],
          [
            106.24218,
            35.54177
          ],
          [
            106.242165,
            35.541683
          ],
          [
            106.242546,
            35.541573
          ],
          [
            106.2428,
            35.541477
          ],
          [
            106.24309,
            35.541344
          ],
          [
            106.24346,
            35.5412
          ],
          [
            106.243515,
            35.541092
          ],
          [
            106.243385,
            35.541042
          ],
          [
            106.243225,
            35.54095
          ],
          [
            106.24308,
            35.54083
          ],
          [
            106.24289,
            35.540707
          ],
          [
            106.24293,
            35.5406
          ],
          [
            106.24315,
            35.540318
          ],
          [
            106.24326,
            35.540207
          ],
          [
            106.243385,
            35.539837
          ],
          [
            106.243416,
            35.539734
          ],
          [
            106.24337,
            35.539593
          ],
          [
            106.24329,
            35.539433
          ],
          [
            106.2434,
            35.53914
          ],
          [
            106.24354,
            35.53881
          ],
          [
            106.24337,
            35.538605
          ],
          [
            106.24304,
            35.538506
          ],
          [
            106.24275,
            35.538403
          ],
          [
            106.24258,
            35.538223
          ],
          [
            106.2426,
            35.538025
          ],
          [
            106.24276,
            35.537834
          ],
          [
            106.24291,
            35.537567
          ],
          [
            106.242775,
            35.537445
          ],
          [
            106.242645,
            35.537354
          ],
          [
            106.242676,
            35.537113
          ],
          [
            106.2427,
            35.53701
          ],
          [
            106.24254,
            35.53686
          ],
          [
            106.24247,
            35.536575
          ],
          [
            106.24236,
            35.53644
          ],
          [
            106.242096,
            35.53633
          ],
          [
            106.24196,
            35.53623
          ],
          [
            106.24178,
            35.53616
          ],
          [
            106.24174,
            35.535915
          ],
          [
            106.24174,
            35.5357
          ],
          [
            106.24183,
            35.53546
          ],
          [
            106.24197,
            35.535217
          ],
          [
            106.24205,
            35.535023
          ],
          [
            106.242096,
            35.5347
          ],
          [
            106.24209,
            35.534542
          ],
          [
            106.242226,
            35.53443
          ],
          [
            106.24229,
            35.53435
          ],
          [
            106.24213,
            35.534218
          ],
          [
            106.24205,
            35.534138
          ],
          [
            106.2422,
            35.533863
          ],
          [
            106.24261,
            35.533733
          ],
          [
            106.24277,
            35.533638
          ],
          [
            106.242836,
            35.533466
          ],
          [
            106.24304,
            35.533276
          ],
          [
            106.24334,
            35.53315
          ],
          [
            106.243355,
            35.532597
          ],
          [
            106.24344,
            35.532352
          ],
          [
            106.24364,
            35.532227
          ],
          [
            106.24371,
            35.53206
          ],
          [
            106.24378,
            35.531754
          ],
          [
            106.24389,
            35.531666
          ],
          [
            106.243965,
            35.531464
          ],
          [
            106.2438,
            35.53127
          ],
          [
            106.2438,
            35.53114
          ],
          [
            106.24388,
            35.530926
          ],
          [
            106.24408,
            35.530907
          ],
          [
            106.244125,
            35.53074
          ],
          [
            106.244026,
            35.530556
          ],
          [
            106.24398,
            35.530285
          ],
          [
            106.24403,
            35.52996
          ],
          [
            106.2445,
            35.52965
          ],
          [
            106.244705,
            35.529633
          ],
          [
            106.24478,
            35.529446
          ],
          [
            106.24486,
            35.52926
          ],
          [
            106.2452,
            35.529125
          ],
          [
            106.24556,
            35.52895
          ],
          [
            106.24574,
            35.52883
          ],
          [
            106.24599,
            35.52853
          ],
          [
            106.24614,
            35.528297
          ],
          [
            106.24653,
            35.52795
          ],
          [
            106.24687,
            35.527363
          ],
          [
            106.24715,
            35.52693
          ],
          [
            106.24727,
            35.526566
          ],
          [
            106.24717,
            35.526436
          ],
          [
            106.2472,
            35.52624
          ],
          [
            106.24733,
            35.52611
          ],
          [
            106.24749,
            35.526
          ],
          [
            106.247505,
            35.52587
          ],
          [
            106.24747,
            35.525738
          ],
          [
            106.247536,
            35.52563
          ],
          [
            106.24767,
            35.5255
          ],
          [
            106.2478,
            35.52529
          ],
          [
            106.247765,
            35.525146
          ],
          [
            106.24763,
            35.52504
          ],
          [
            106.24767,
            35.52469
          ],
          [
            106.24775,
            35.52449
          ],
          [
            106.24783,
            35.524284
          ],
          [
            106.247925,
            35.524162
          ],
          [
            106.24802,
            35.52418
          ],
          [
            106.24812,
            35.524006
          ],
          [
            106.24824,
            35.523884
          ],
          [
            106.24836,
            35.523834
          ],
          [
            106.24856,
            35.523666
          ],
          [
            106.24871,
            35.523567
          ],
          [
            106.248856,
            35.523254
          ],
          [
            106.249016,
            35.5231
          ],
          [
            106.24906,
            35.522976
          ],
          [
            106.2492,
            35.52282
          ],
          [
            106.24943,
            35.522736
          ],
          [
            106.24955,
            35.52258
          ],
          [
            106.24968,
            35.52251
          ],
          [
            106.250145,
            35.522152
          ],
          [
            106.25036,
            35.52198
          ],
          [
            106.2504,
            35.521774
          ],
          [
            106.2505,
            35.52165
          ],
          [
            106.25046,
            35.52144
          ],
          [
            106.25049,
            35.521267
          ],
          [
            106.250565,
            35.520943
          ],
          [
            106.25051,
            35.520752
          ],
          [
            106.25067,
            35.520615
          ],
          [
            106.25078,
            35.520332
          ],
          [
            106.25086,
            35.520126
          ],
          [
            106.25097,
            35.519943
          ],
          [
            106.25114,
            35.519627
          ],
          [
            106.2512,
            35.519405
          ],
          [
            106.25133,
            35.51911
          ],
          [
            106.25134,
            35.518967
          ],
          [
            106.25134,
            35.51876
          ],
          [
            106.25129,
            35.51861
          ],
          [
            106.251236,
            35.51845
          ],
          [
            106.251236,
            35.51806
          ],
          [
            106.251175,
            35.517883
          ],
          [
            106.25113,
            35.517593
          ],
          [
            106.25113,
            35.517395
          ],
          [
            106.25115,
            35.517017
          ],
          [
            106.251076,
            35.51679
          ],
          [
            106.250916,
            35.5166
          ],
          [
            106.25075,
            35.51653
          ],
          [
            106.25065,
            35.51638
          ],
          [
            106.25067,
            35.51623
          ],
          [
            106.251,
            35.515915
          ],
          [
            106.25108,
            35.5157
          ],
          [
            106.25101,
            35.515488
          ],
          [
            106.250946,
            35.515255
          ],
          [
            106.25096,
            35.51506
          ],
          [
            106.25096,
            35.5149
          ],
          [
            106.251144,
            35.514713
          ],
          [
            106.25121,
            35.514496
          ],
          [
            106.25102,
            35.514366
          ],
          [
            106.2508,
            35.514236
          ],
          [
            106.25043,
            35.514046
          ],
          [
            106.25025,
            35.513798
          ],
          [
            106.25037,
            35.513504
          ],
          [
            106.25044,
            35.51329
          ],
          [
            106.25051,
            35.5132
          ],
          [
            106.2506,
            35.513103
          ],
          [
            106.25068,
            35.51286
          ],
          [
            106.25082,
            35.512604
          ],
          [
            106.251015,
            35.51239
          ],
          [
            106.25121,
            35.5122
          ],
          [
            106.25122,
            35.51203
          ],
          [
            106.25165,
            35.511547
          ],
          [
            106.25203,
            35.511227
          ],
          [
            106.25228,
            35.51099
          ],
          [
            106.25255,
            35.510708
          ],
          [
            106.25278,
            35.51051
          ],
          [
            106.25301,
            35.510296
          ],
          [
            106.253136,
            35.510014
          ],
          [
            106.253365,
            35.509617
          ],
          [
            106.2538,
            35.509052
          ],
          [
            106.25409,
            35.508602
          ],
          [
            106.25417,
            35.50843
          ],
          [
            106.254265,
            35.508156
          ],
          [
            106.25437,
            35.507816
          ],
          [
            106.254486,
            35.507618
          ],
          [
            106.25481,
            35.506687
          ],
          [
            106.25517,
            35.50566
          ],
          [
            106.25546,
            35.505096
          ],
          [
            106.25552,
            35.504833
          ],
          [
            106.255585,
            35.504547
          ],
          [
            106.25566,
            35.503857
          ],
          [
            106.255806,
            35.50356
          ],
          [
            106.256134,
            35.503162
          ],
          [
            106.25636,
            35.50278
          ],
          [
            106.25649,
            35.502506
          ],
          [
            106.25657,
            35.50195
          ],
          [
            106.256584,
            35.501545
          ],
          [
            106.25655,
            35.501244
          ],
          [
            106.25643,
            35.500996
          ],
          [
            106.25641,
            35.50075
          ],
          [
            106.25622,
            35.500156
          ],
          [
            106.25627,
            35.499866
          ],
          [
            106.256355,
            35.499554
          ],
          [
            106.256386,
            35.49851
          ],
          [
            106.2564,
            35.49819
          ],
          [
            106.25639,
            35.49788
          ],
          [
            106.256386,
            35.497562
          ],
          [
            106.25638,
            35.496284
          ],
          [
            106.25639,
            35.49592
          ],
          [
            106.25637,
            35.4957
          ],
          [
            106.25639,
            35.495518
          ],
          [
            106.2564,
            35.495323
          ],
          [
            106.25643,
            35.495056
          ],
          [
            106.25658,
            35.494804
          ],
          [
            106.2567,
            35.494595
          ],
          [
            106.25677,
            35.49453
          ],
          [
            106.25677,
            35.49453
          ]
        ]
      }
    }
  ]
}
