<?xml version="1.0" encoding="UTF-8"?>
<gpx version="1.1" creator="霞客 · 两步路轨迹" xmlns="http://www.topografix.com/GPX/1/1">
  <metadata><name>六盘山参考轨迹</name></metadata>
  <trk><name>六盘山</name><trkseg>
      <trkpt lat="35.608685" lon="106.24337"><ele>2170</ele></trkpt>
      <trkpt lat="35.60849" lon="106.243034"><ele>2170</ele></trkpt>
      <trkpt lat="35.60829" lon="106.24285"><ele>2169</ele></trkpt>
      <trkpt lat="35.607597" lon="106.24227"><ele>2173</ele></trkpt>
      <trkpt lat="35.60736" lon="106.24209"><ele>2176</ele></trkpt>
      <trkpt lat="35.606964" lon="106.24182"><ele>2181</ele></trkpt>
      <trkpt lat="35.606567" lon="106.24165"><ele>2186</ele></trkpt>
      <trkpt lat="35.606094" lon="106.24155"><ele>2190</ele></trkpt>
      <trkpt lat="35.605766" lon="106.24155"><ele>2193</ele></trkpt>
      <trkpt lat="35.605354" lon="106.241646"><ele>2197</ele></trkpt>
      <trkpt lat="35.605133" lon="106.24163"><ele>2199</ele></trkpt>
      <trkpt lat="35.604904" lon="106.24163"><ele>2200</ele></trkpt>
      <trkpt lat="35.604664" lon="106.24156"><ele>2202</ele></trkpt>
      <trkpt lat="35.604507" lon="106.24147"><ele>2201</ele></trkpt>
      <trkpt lat="35.604362" lon="106.24138"><ele>2201</ele></trkpt>
      <trkpt lat="35.604267" lon="106.24127"><ele>2200</ele></trkpt>
      <trkpt lat="35.60397" lon="106.241325"><ele>2203</ele></trkpt>
      <trkpt lat="35.603825" lon="106.24133"><ele>2204</ele></trkpt>
      <trkpt lat="35.60358" lon="106.24122"><ele>2204</ele></trkpt>
      <trkpt lat="35.60341" lon="106.241165"><ele>2206</ele></trkpt>
      <trkpt lat="35.60322" lon="106.24111"><ele>2209</ele></trkpt>
      <trkpt lat="35.60299" lon="106.24105"><ele>2210</ele></trkpt>
      <trkpt lat="35.60263" lon="106.24089"><ele>2216</ele></trkpt>
      <trkpt lat="35.60239" lon="106.24079"><ele>2217</ele></trkpt>
      <trkpt lat="35.60197" lon="106.24066"><ele>2217</ele></trkpt>
      <trkpt lat="35.6016" lon="106.24065"><ele>2219</ele></trkpt>
      <trkpt lat="35.601143" lon="106.2407"><ele>2225</ele></trkpt>
      <trkpt lat="35.600983" lon="106.2407"><ele>2227</ele></trkpt>
      <trkpt lat="35.600864" lon="106.2406"><ele>2227</ele></trkpt>
      <trkpt lat="35.60067" lon="106.2405"><ele>2229</ele></trkpt>
      <trkpt lat="35.600494" lon="106.24029"><ele>2231</ele></trkpt>
      <trkpt lat="35.60017" lon="106.24015"><ele>2230</ele></trkpt>
      <trkpt lat="35.599922" lon="106.23996"><ele>2230</ele></trkpt>
      <trkpt lat="35.599483" lon="106.239655"><ele>2232</ele></trkpt>
      <trkpt lat="35.59913" lon="106.23952"><ele>2236</ele></trkpt>
      <trkpt lat="35.598904" lon="106.239365"><ele>2238</ele></trkpt>
      <trkpt lat="35.598694" lon="106.239136"><ele>2239</ele></trkpt>
      <trkpt lat="35.598446" lon="106.2389"><ele>2246</ele></trkpt>
      <trkpt lat="35.59825" lon="106.23875"><ele>2248</ele></trkpt>
      <trkpt lat="35.597767" lon="106.23846"><ele>2252</ele></trkpt>
      <trkpt lat="35.597504" lon="106.23833"><ele>2257</ele></trkpt>
      <trkpt lat="35.59733" lon="106.238205"><ele>2261</ele></trkpt>
      <trkpt lat="35.597115" lon="106.23811"><ele>2266</ele></trkpt>
      <trkpt lat="35.59692" lon="106.23812"><ele>2265</ele></trkpt>
      <trkpt lat="35.596706" lon="106.23817"><ele>2265</ele></trkpt>
      <trkpt lat="35.59643" lon="106.23809"><ele>2269</ele></trkpt>
      <trkpt lat="35.596233" lon="106.238014"><ele>2269</ele></trkpt>
      <trkpt lat="35.596092" lon="106.238045"><ele>2270</ele></trkpt>
      <trkpt lat="35.595676" lon="106.23795"><ele>2271</ele></trkpt>
      <trkpt lat="35.595524" lon="106.23793"><ele>2271</ele></trkpt>
      <trkpt lat="35.59537" lon="106.23782"><ele>2268</ele></trkpt>
      <trkpt lat="35.595158" lon="106.23768"><ele>2268</ele></trkpt>
      <trkpt lat="35.594948" lon="106.2377"><ele>2268</ele></trkpt>
      <trkpt lat="35.594837" lon="106.237755"><ele>2270</ele></trkpt>
      <trkpt lat="35.594643" lon="106.23765"><ele>2273</ele></trkpt>
      <trkpt lat="35.594513" lon="106.23763"><ele>2275</ele></trkpt>
      <trkpt lat="35.594334" lon="106.23765"><ele>2278</ele></trkpt>
      <trkpt lat="35.594128" lon="106.237465"><ele>2280</ele></trkpt>
      <trkpt lat="35.59402" lon="106.23736"><ele>2280</ele></trkpt>
      <trkpt lat="35.5939" lon="106.23722"><ele>2280</ele></trkpt>
      <trkpt lat="35.593597" lon="106.23694"><ele>2284</ele></trkpt>
      <trkpt lat="35.593414" lon="106.23687"><ele>2286</ele></trkpt>
      <trkpt lat="35.59316" lon="106.236885"><ele>2288</ele></trkpt>
      <trkpt lat="35.592945" lon="106.23683"><ele>2291</ele></trkpt>
      <trkpt lat="35.592747" lon="106.23678"><ele>2297</ele></trkpt>
      <trkpt lat="35.592606" lon="106.23676"><ele>2301</ele></trkpt>
      <trkpt lat="35.592297" lon="106.23685"><ele>2305</ele></trkpt>
      <trkpt lat="35.592247" lon="106.23707"><ele>2304</ele></trkpt>
      <trkpt lat="35.592327" lon="106.237305"><ele>2303</ele></trkpt>
      <trkpt lat="35.59246" lon="106.23753"><ele>2304</ele></trkpt>
      <trkpt lat="35.592316" lon="106.237686"><ele>2305</ele></trkpt>
      <trkpt lat="35.592113" lon="106.23781"><ele>2309</ele></trkpt>
      <trkpt lat="35.59192" lon="106.237915"><ele>2316</ele></trkpt>
      <trkpt lat="35.591427" lon="106.23802"><ele>2326</ele></trkpt>
      <trkpt lat="35.590996" lon="106.238144"><ele>2333</ele></trkpt>
      <trkpt lat="35.590878" lon="106.23815"><ele>2335</ele></trkpt>
      <trkpt lat="35.590794" lon="106.238014"><ele>2336</ele></trkpt>
      <trkpt lat="35.59074" lon="106.23793"><ele>2337</ele></trkpt>
      <trkpt lat="35.590595" lon="106.237946"><ele>2342</ele></trkpt>
      <trkpt lat="35.59035" lon="106.23807"><ele>2346</ele></trkpt>
      <trkpt lat="35.590195" lon="106.23824"><ele>2344</ele></trkpt>
      <trkpt lat="35.590168" lon="106.23841"><ele>2341</ele></trkpt>
      <trkpt lat="35.590126" lon="106.23863"><ele>2344</ele></trkpt>
      <trkpt lat="35.589993" lon="106.2387"><ele>2346</ele></trkpt>
      <trkpt lat="35.58981" lon="106.23876"><ele>2349</ele></trkpt>
      <trkpt lat="35.589596" lon="106.238914"><ele>2348</ele></trkpt>
      <trkpt lat="35.58943" lon="106.23884"><ele>2348</ele></trkpt>
      <trkpt lat="35.589283" lon="106.23882"><ele>2349</ele></trkpt>
      <trkpt lat="35.589108" lon="106.23864"><ele>2349</ele></trkpt>
      <trkpt lat="35.58886" lon="106.23865"><ele>2351</ele></trkpt>
      <trkpt lat="35.588676" lon="106.23877"><ele>2352</ele></trkpt>
      <trkpt lat="35.588535" lon="106.238815"><ele>2353</ele></trkpt>
      <trkpt lat="35.588036" lon="106.238914"><ele>2357</ele></trkpt>
      <trkpt lat="35.587887" lon="106.23893"><ele>2357</ele></trkpt>
      <trkpt lat="35.58774" lon="106.238815"><ele>2357</ele></trkpt>
      <trkpt lat="35.58766" lon="106.23869"><ele>2356</ele></trkpt>
      <trkpt lat="35.587467" lon="106.23864"><ele>2356</ele></trkpt>
      <trkpt lat="35.586937" lon="106.23874"><ele>2361</ele></trkpt>
      <trkpt lat="35.586567" lon="106.23879"><ele>2363</ele></trkpt>
      <trkpt lat="35.586346" lon="106.23888"><ele>2364</ele></trkpt>
      <trkpt lat="35.58566" lon="106.23902"><ele>2368</ele></trkpt>
      <trkpt lat="35.58524" lon="106.23915"><ele>2370</ele></trkpt>
      <trkpt lat="35.585007" lon="106.23914"><ele>2374</ele></trkpt>
      <trkpt lat="35.584785" lon="106.2392"><ele>2376</ele></trkpt>
      <trkpt lat="35.584522" lon="106.23935"><ele>2380</ele></trkpt>
      <trkpt lat="35.584404" lon="106.239365"><ele>2381</ele></trkpt>
      <trkpt lat="35.58419" lon="106.23933"><ele>2384</ele></trkpt>
      <trkpt lat="35.584007" lon="106.23926"><ele>2386</ele></trkpt>
      <trkpt lat="35.583927" lon="106.23918"><ele>2387</ele></trkpt>
      <trkpt lat="35.58385" lon="106.23913"><ele>2389</ele></trkpt>
      <trkpt lat="35.583706" lon="106.23913"><ele>2390</ele></trkpt>
      <trkpt lat="35.58357" lon="106.23905"><ele>2393</ele></trkpt>
      <trkpt lat="35.583412" lon="106.239"><ele>2396</ele></trkpt>
      <trkpt lat="35.583305" lon="106.23893"><ele>2399</ele></trkpt>
      <trkpt lat="35.583214" lon="106.238914"><ele>2400</ele></trkpt>
      <trkpt lat="35.583057" lon="106.23886"><ele>2403</ele></trkpt>
      <trkpt lat="35.58271" lon="106.23896"><ele>2403</ele></trkpt>
      <trkpt lat="35.582294" lon="106.23911"><ele>2403</ele></trkpt>
      <trkpt lat="35.581882" lon="106.239235"><ele>2405</ele></trkpt>
      <trkpt lat="35.581726" lon="106.23921"><ele>2407</ele></trkpt>
      <trkpt lat="35.58127" lon="106.239395"><ele>2410</ele></trkpt>
      <trkpt lat="35.581005" lon="106.23943"><ele>2414</ele></trkpt>
      <trkpt lat="35.580723" lon="106.23953"><ele>2417</ele></trkpt>
      <trkpt lat="35.580517" lon="106.23962"><ele>2421</ele></trkpt>
      <trkpt lat="35.57999" lon="106.239845"><ele>2424</ele></trkpt>
      <trkpt lat="35.579712" lon="106.23997"><ele>2429</ele></trkpt>
      <trkpt lat="35.57937" lon="106.24033"><ele>2432</ele></trkpt>
      <trkpt lat="35.57921" lon="106.240486"><ele>2431</ele></trkpt>
      <trkpt lat="35.578857" lon="106.240585"><ele>2437</ele></trkpt>
      <trkpt lat="35.57857" lon="106.240685"><ele>2442</ele></trkpt>
      <trkpt lat="35.578342" lon="106.2408"><ele>2448</ele></trkpt>
      <trkpt lat="35.578133" lon="106.24086"><ele>2454</ele></trkpt>
      <trkpt lat="35.577858" lon="106.24094"><ele>2457</ele></trkpt>
      <trkpt lat="35.577545" lon="106.241"><ele>2467</ele></trkpt>
      <trkpt lat="35.57717" lon="106.24111"><ele>2471</ele></trkpt>
      <trkpt lat="35.576996" lon="106.24108"><ele>2476</ele></trkpt>
      <trkpt lat="35.576763" lon="106.2412"><ele>2476</ele></trkpt>
      <trkpt lat="35.57656" lon="106.24119"><ele>2481</ele></trkpt>
      <trkpt lat="35.576374" lon="106.24108"><ele>2486</ele></trkpt>
      <trkpt lat="35.576134" lon="106.24091"><ele>2493</ele></trkpt>
      <trkpt lat="35.575905" lon="106.24082"><ele>2497</ele></trkpt>
      <trkpt lat="35.575718" lon="106.24073"><ele>2500</ele></trkpt>
      <trkpt lat="35.575497" lon="106.24065"><ele>2500</ele></trkpt>
      <trkpt lat="35.575325" lon="106.2406"><ele>2500</ele></trkpt>
      <trkpt lat="35.575085" lon="106.24052"><ele>2500</ele></trkpt>
      <trkpt lat="35.57502" lon="106.24027"><ele>2505</ele></trkpt>
      <trkpt lat="35.575108" lon="106.240135"><ele>2510</ele></trkpt>
      <trkpt lat="35.57536" lon="106.24011"><ele>2513</ele></trkpt>
      <trkpt lat="35.575768" lon="106.24021"><ele>2516</ele></trkpt>
      <trkpt lat="35.576176" lon="106.24017"><ele>2516</ele></trkpt>
      <trkpt lat="35.57639" lon="106.24007"><ele>2519</ele></trkpt>
      <trkpt lat="35.576736" lon="106.23992"><ele>2517</ele></trkpt>
      <trkpt lat="35.57693" lon="106.23975"><ele>2517</ele></trkpt>
      <trkpt lat="35.576942" lon="106.23958"><ele>2522</ele></trkpt>
      <trkpt lat="35.57676" lon="106.23955"><ele>2527</ele></trkpt>
      <trkpt lat="35.57659" lon="106.23962"><ele>2530</ele></trkpt>
      <trkpt lat="35.576637" lon="106.23949"><ele>2532</ele></trkpt>
      <trkpt lat="35.57673" lon="106.23932"><ele>2535</ele></trkpt>
      <trkpt lat="35.57668" lon="106.23924"><ele>2538</ele></trkpt>
      <trkpt lat="35.576553" lon="106.23924"><ele>2541</ele></trkpt>
      <trkpt lat="35.576576" lon="106.23905"><ele>2546</ele></trkpt>
      <trkpt lat="35.5767" lon="106.23874"><ele>2553</ele></trkpt>
      <trkpt lat="35.57672" lon="106.23869"><ele>2554</ele></trkpt>
      <trkpt lat="35.576527" lon="106.23865"><ele>2559</ele></trkpt>
      <trkpt lat="35.57641" lon="106.23869"><ele>2559</ele></trkpt>
      <trkpt lat="35.576427" lon="106.2386"><ele>2562</ele></trkpt>
      <trkpt lat="35.576485" lon="106.238335"><ele>2569</ele></trkpt>
      <trkpt lat="35.57662" lon="106.238106"><ele>2573</ele></trkpt>
      <trkpt lat="35.576874" lon="106.237915"><ele>2574</ele></trkpt>
      <trkpt lat="35.577087" lon="106.23771"><ele>2575</ele></trkpt>
      <trkpt lat="35.57725" lon="106.237526"><ele>2576</ele></trkpt>
      <trkpt lat="35.57737" lon="106.237366"><ele>2576</ele></trkpt>
      <trkpt lat="35.577564" lon="106.23725"><ele>2574</ele></trkpt>
      <trkpt lat="35.577766" lon="106.23715"><ele>2573</ele></trkpt>
      <trkpt lat="35.57795" lon="106.237045"><ele>2570</ele></trkpt>
      <trkpt lat="35.57791" lon="106.23675"><ele>2572</ele></trkpt>
      <trkpt lat="35.577747" lon="106.23658"><ele>2577</ele></trkpt>
      <trkpt lat="35.57747" lon="106.23649"><ele>2582</ele></trkpt>
      <trkpt lat="35.57727" lon="106.23641"><ele>2586</ele></trkpt>
      <trkpt lat="35.577026" lon="106.23637"><ele>2590</ele></trkpt>
      <trkpt lat="35.576763" lon="106.23629"><ele>2593</ele></trkpt>
      <trkpt lat="35.57659" lon="106.23615"><ele>2596</ele></trkpt>
      <trkpt lat="35.576454" lon="106.23609"><ele>2598</ele></trkpt>
      <trkpt lat="35.576157" lon="106.23617"><ele>2600</ele></trkpt>
      <trkpt lat="35.5761" lon="106.23608"><ele>2601</ele></trkpt>
      <trkpt lat="35.57607" lon="106.23589"><ele>2602</ele></trkpt>
      <trkpt lat="35.575966" lon="106.23577"><ele>2604</ele></trkpt>
      <trkpt lat="35.575718" lon="106.23549"><ele>2614</ele></trkpt>
      <trkpt lat="35.57553" lon="106.23536"><ele>2618</ele></trkpt>
      <trkpt lat="35.57526" lon="106.23534"><ele>2619</ele></trkpt>
      <trkpt lat="35.57515" lon="106.23536"><ele>2619</ele></trkpt>
      <trkpt lat="35.574646" lon="106.23534"><ele>2618</ele></trkpt>
      <trkpt lat="35.57411" lon="106.235344"><ele>2616</ele></trkpt>
      <trkpt lat="35.57383" lon="106.23531"><ele>2617</ele></trkpt>
      <trkpt lat="35.57351" lon="106.23522"><ele>2620</ele></trkpt>
      <trkpt lat="35.57329" lon="106.235115"><ele>2624</ele></trkpt>
      <trkpt lat="35.572994" lon="106.23518"><ele>2624</ele></trkpt>
      <trkpt lat="35.57275" lon="106.23499"><ele>2632</ele></trkpt>
      <trkpt lat="35.57247" lon="106.23474"><ele>2644</ele></trkpt>
      <trkpt lat="35.572227" lon="106.234695"><ele>2649</ele></trkpt>
      <trkpt lat="35.572094" lon="106.23501"><ele>2643</ele></trkpt>
      <trkpt lat="35.57196" lon="106.2352"><ele>2641</ele></trkpt>
      <trkpt lat="35.5718" lon="106.23531"><ele>2641</ele></trkpt>
      <trkpt lat="35.571484" lon="106.23542"><ele>2643</ele></trkpt>
      <trkpt lat="35.57143" lon="106.23539"><ele>2645</ele></trkpt>
      <trkpt lat="35.57136" lon="106.23524"><ele>2651</ele></trkpt>
      <trkpt lat="35.571255" lon="106.23499"><ele>2660</ele></trkpt>
      <trkpt lat="35.571136" lon="106.234665"><ele>2670</ele></trkpt>
      <trkpt lat="35.570976" lon="106.2344"><ele>2679</ele></trkpt>
      <trkpt lat="35.570847" lon="106.23412"><ele>2693</ele></trkpt>
      <trkpt lat="35.570816" lon="106.23392"><ele>2701</ele></trkpt>
      <trkpt lat="35.571056" lon="106.23402"><ele>2691</ele></trkpt>
      <trkpt lat="35.57127" lon="106.234055"><ele>2687</ele></trkpt>
      <trkpt lat="35.571213" lon="106.23371"><ele>2699</ele></trkpt>
      <trkpt lat="35.571045" lon="106.2335"><ele>2711</ele></trkpt>
      <trkpt lat="35.570915" lon="106.23348"><ele>2715</ele></trkpt>
      <trkpt lat="35.5712" lon="106.2333"><ele>2718</ele></trkpt>
      <trkpt lat="35.571453" lon="106.23294"><ele>2729</ele></trkpt>
      <trkpt lat="35.571644" lon="106.23264"><ele>2740</ele></trkpt>
      <trkpt lat="35.57199" lon="106.232544"><ele>2741</ele></trkpt>
      <trkpt lat="35.57235" lon="106.23248"><ele>2743</ele></trkpt>
      <trkpt lat="35.57294" lon="106.23225"><ele>2751</ele></trkpt>
      <trkpt lat="35.57321" lon="106.23211"><ele>2755</ele></trkpt>
      <trkpt lat="35.573475" lon="106.232025"><ele>2758</ele></trkpt>
      <trkpt lat="35.573654" lon="106.23192"><ele>2762</ele></trkpt>
      <trkpt lat="35.573975" lon="106.23176"><ele>2769</ele></trkpt>
      <trkpt lat="35.57427" lon="106.23168"><ele>2771</ele></trkpt>
      <trkpt lat="35.57459" lon="106.231575"><ele>2775</ele></trkpt>
      <trkpt lat="35.574623" lon="106.231415"><ele>2778</ele></trkpt>
      <trkpt lat="35.574497" lon="106.23128"><ele>2780</ele></trkpt>
      <trkpt lat="35.574413" lon="106.23114"><ele>2783</ele></trkpt>
      <trkpt lat="35.574" lon="106.23112"><ele>2789</ele></trkpt>
      <trkpt lat="35.573772" lon="106.23107"><ele>2792</ele></trkpt>
      <trkpt lat="35.57316" lon="106.2311"><ele>2798</ele></trkpt>
      <trkpt lat="35.57274" lon="106.23101"><ele>2803</ele></trkpt>
      <trkpt lat="35.572456" lon="106.23089"><ele>2806</ele></trkpt>
      <trkpt lat="35.57214" lon="106.2309"><ele>2806</ele></trkpt>
      <trkpt lat="35.57186" lon="106.230896"><ele>2807</ele></trkpt>
      <trkpt lat="35.57148" lon="106.23099"><ele>2805</ele></trkpt>
      <trkpt lat="35.571243" lon="106.23113"><ele>2800</ele></trkpt>
      <trkpt lat="35.570934" lon="106.231224"><ele>2800</ele></trkpt>
      <trkpt lat="35.570683" lon="106.23134"><ele>2798</ele></trkpt>
      <trkpt lat="35.57041" lon="106.231544"><ele>2802</ele></trkpt>
      <trkpt lat="35.570255" lon="106.23162"><ele>2804</ele></trkpt>
      <trkpt lat="35.56996" lon="106.23151"><ele>2804</ele></trkpt>
      <trkpt lat="35.5698" lon="106.23143"><ele>2803</ele></trkpt>
      <trkpt lat="35.56948" lon="106.231415"><ele>2802</ele></trkpt>
      <trkpt lat="35.56926" lon="106.23158"><ele>2806</ele></trkpt>
      <trkpt lat="35.56918" lon="106.23174"><ele>2804</ele></trkpt>
      <trkpt lat="35.569008" lon="106.23193"><ele>2804</ele></trkpt>
      <trkpt lat="35.568752" lon="106.232056"><ele>2800</ele></trkpt>
      <trkpt lat="35.568443" lon="106.23217"><ele>2798</ele></trkpt>
      <trkpt lat="35.5681" lon="106.23224"><ele>2796</ele></trkpt>
      <trkpt lat="35.56768" lon="106.232285"><ele>2796</ele></trkpt>
      <trkpt lat="35.567528" lon="106.23243"><ele>2794</ele></trkpt>
      <trkpt lat="35.56702" lon="106.232475"><ele>2789</ele></trkpt>
      <trkpt lat="35.566544" lon="106.232544"><ele>2787</ele></trkpt>
      <trkpt lat="35.566048" lon="106.23266"><ele>2787</ele></trkpt>
      <trkpt lat="35.565804" lon="106.23278"><ele>2788</ele></trkpt>
      <trkpt lat="35.56523" lon="106.23296"><ele>2794</ele></trkpt>
      <trkpt lat="35.564842" lon="106.233246"><ele>2794</ele></trkpt>
      <trkpt lat="35.56452" lon="106.2333"><ele>2792</ele></trkpt>
      <trkpt lat="35.56421" lon="106.23338"><ele>2793</ele></trkpt>
      <trkpt lat="35.563923" lon="106.23375"><ele>2792</ele></trkpt>
      <trkpt lat="35.56347" lon="106.23412"><ele>2787</ele></trkpt>
      <trkpt lat="35.563244" lon="106.23457"><ele>2786</ele></trkpt>
      <trkpt lat="35.562763" lon="106.23465"><ele>2789</ele></trkpt>
      <trkpt lat="35.56241" lon="106.23509"><ele>2803</ele></trkpt>
      <trkpt lat="35.56184" lon="106.23618"><ele>2844</ele></trkpt>
      <trkpt lat="35.561687" lon="106.236465"><ele>2858</ele></trkpt>
      <trkpt lat="35.561325" lon="106.236755"><ele>2870</ele></trkpt>
      <trkpt lat="35.561012" lon="106.23705"><ele>2880</ele></trkpt>
      <trkpt lat="35.560787" lon="106.237335"><ele>2883</ele></trkpt>
      <trkpt lat="35.560165" lon="106.23723"><ele>2884</ele></trkpt>
      <trkpt lat="35.559586" lon="106.23716"><ele>2893</ele></trkpt>
      <trkpt lat="35.559326" lon="106.23719"><ele>2898</ele></trkpt>
      <trkpt lat="35.558964" lon="106.23713"><ele>2898</ele></trkpt>
      <trkpt lat="35.558643" lon="106.23694"><ele>2897</ele></trkpt>
      <trkpt lat="35.558384" lon="106.236626"><ele>2889</ele></trkpt>
      <trkpt lat="35.558018" lon="106.23671"><ele>2875</ele></trkpt>
      <trkpt lat="35.55773" lon="106.23665"><ele>2858</ele></trkpt>
      <trkpt lat="35.557602" lon="106.23637"><ele>2852</ele></trkpt>
      <trkpt lat="35.557655" lon="106.23576"><ele>2857</ele></trkpt>
      <trkpt lat="35.557568" lon="106.23523"><ele>2861</ele></trkpt>
      <trkpt lat="35.557278" lon="106.234856"><ele>2854</ele></trkpt>
      <trkpt lat="35.557217" lon="106.23436"><ele>2855</ele></trkpt>
      <trkpt lat="35.5572" lon="106.234085"><ele>2851</ele></trkpt>
      <trkpt lat="35.55708" lon="106.23409"><ele>2850</ele></trkpt>
      <trkpt lat="35.55699" lon="106.23403"><ele>2848</ele></trkpt>
      <trkpt lat="35.556805" lon="106.233955"><ele>2845</ele></trkpt>
      <trkpt lat="35.556618" lon="106.23392"><ele>2841</ele></trkpt>
      <trkpt lat="35.556377" lon="106.23382"><ele>2835</ele></trkpt>
      <trkpt lat="35.556087" lon="106.233925"><ele>2830</ele></trkpt>
      <trkpt lat="35.55572" lon="106.23397"><ele>2824</ele></trkpt>
      <trkpt lat="35.555496" lon="106.23407"><ele>2823</ele></trkpt>
      <trkpt lat="35.55527" lon="106.2342"><ele>2825</ele></trkpt>
      <trkpt lat="35.555138" lon="106.23426"><ele>2826</ele></trkpt>
      <trkpt lat="35.554813" lon="106.234276"><ele>2826</ele></trkpt>
      <trkpt lat="35.554733" lon="106.23426"><ele>2825</ele></trkpt>
      <trkpt lat="35.55459" lon="106.234184"><ele>2824</ele></trkpt>
      <trkpt lat="35.55398" lon="106.23407"><ele>2820</ele></trkpt>
      <trkpt lat="35.553722" lon="106.23396"><ele>2817</ele></trkpt>
      <trkpt lat="35.553528" lon="106.234"><ele>2816</ele></trkpt>
      <trkpt lat="35.55338" lon="106.23412"><ele>2818</ele></trkpt>
      <trkpt lat="35.553246" lon="106.23422"><ele>2819</ele></trkpt>
      <trkpt lat="35.553024" lon="106.23424"><ele>2819</ele></trkpt>
      <trkpt lat="35.552773" lon="106.23422"><ele>2817</ele></trkpt>
      <trkpt lat="35.552666" lon="106.23424"><ele>2816</ele></trkpt>
      <trkpt lat="35.55252" lon="106.234344"><ele>2817</ele></trkpt>
      <trkpt lat="35.55234" lon="106.23435"><ele>2816</ele></trkpt>
      <trkpt lat="35.552135" lon="106.23431"><ele>2812</ele></trkpt>
      <trkpt lat="35.55148" lon="106.23472"><ele>2803</ele></trkpt>
      <trkpt lat="35.551304" lon="106.23483"><ele>2806</ele></trkpt>
      <trkpt lat="35.551186" lon="106.23507"><ele>2811</ele></trkpt>
      <trkpt lat="35.551003" lon="106.23538"><ele>2804</ele></trkpt>
      <trkpt lat="35.55082" lon="106.23551"><ele>2797</ele></trkpt>
      <trkpt lat="35.550674" lon="106.23571"><ele>2795</ele></trkpt>
      <trkpt lat="35.550243" lon="106.23547"><ele>2785</ele></trkpt>
      <trkpt lat="35.54996" lon="106.23539"><ele>2772</ele></trkpt>
      <trkpt lat="35.549713" lon="106.23533"><ele>2762</ele></trkpt>
      <trkpt lat="35.549286" lon="106.235306"><ele>2741</ele></trkpt>
      <trkpt lat="35.54896" lon="106.23538"><ele>2729</ele></trkpt>
      <trkpt lat="35.548855" lon="106.23539"><ele>2726</ele></trkpt>
      <trkpt lat="35.54878" lon="106.23531"><ele>2723</ele></trkpt>
      <trkpt lat="35.548603" lon="106.235374"><ele>2719</ele></trkpt>
      <trkpt lat="35.54842" lon="106.2354"><ele>2713</ele></trkpt>
      <trkpt lat="35.548286" lon="106.23529"><ele>2709</ele></trkpt>
      <trkpt lat="35.54793" lon="106.23533"><ele>2704</ele></trkpt>
      <trkpt lat="35.54781" lon="106.235306"><ele>2702</ele></trkpt>
      <trkpt lat="35.54759" lon="106.23537"><ele>2700</ele></trkpt>
      <trkpt lat="35.54739" lon="106.23541"><ele>2696</ele></trkpt>
      <trkpt lat="35.547215" lon="106.23556"><ele>2696</ele></trkpt>
      <trkpt lat="35.547096" lon="106.23578"><ele>2696</ele></trkpt>
      <trkpt lat="35.546955" lon="106.23585"><ele>2692</ele></trkpt>
      <trkpt lat="35.546707" lon="106.23589"><ele>2683</ele></trkpt>
      <trkpt lat="35.54657" lon="106.235985"><ele>2676</ele></trkpt>
      <trkpt lat="35.54628" lon="106.23597"><ele>2670</ele></trkpt>
      <trkpt lat="35.54611" lon="106.23613"><ele>2661</ele></trkpt>
      <trkpt lat="35.545925" lon="106.23621"><ele>2653</ele></trkpt>
      <trkpt lat="35.545788" lon="106.236305"><ele>2648</ele></trkpt>
      <trkpt lat="35.545643" lon="106.23643"><ele>2644</ele></trkpt>
      <trkpt lat="35.545525" lon="106.23663"><ele>2636</ele></trkpt>
      <trkpt lat="35.54538" lon="106.23677"><ele>2626</ele></trkpt>
      <trkpt lat="35.5453" lon="106.23694"><ele>2621</ele></trkpt>
      <trkpt lat="35.544983" lon="106.23708"><ele>2613</ele></trkpt>
      <trkpt lat="35.544815" lon="106.23724"><ele>2603</ele></trkpt>
      <trkpt lat="35.544735" lon="106.23733"><ele>2596</ele></trkpt>
      <trkpt lat="35.544758" lon="106.23745"><ele>2595</ele></trkpt>
      <trkpt lat="35.54458" lon="106.2375"><ele>2584</ele></trkpt>
      <trkpt lat="35.544548" lon="106.237404"><ele>2584</ele></trkpt>
      <trkpt lat="35.544422" lon="106.23757"><ele>2578</ele></trkpt>
      <trkpt lat="35.544365" lon="106.237755"><ele>2576</ele></trkpt>
      <trkpt lat="35.544235" lon="106.2378"><ele>2571</ele></trkpt>
      <trkpt lat="35.544155" lon="106.23789"><ele>2565</ele></trkpt>
      <trkpt lat="35.54413" lon="106.238014"><ele>2561</ele></trkpt>
      <trkpt lat="35.544197" lon="106.2382"><ele>2562</ele></trkpt>
      <trkpt lat="35.544277" lon="106.23833"><ele>2561</ele></trkpt>
      <trkpt lat="35.544273" lon="106.23849"><ele>2558</ele></trkpt>
      <trkpt lat="35.544353" lon="106.238525"><ele>2557</ele></trkpt>
      <trkpt lat="35.54435" lon="106.238686"><ele>2551</ele></trkpt>
      <trkpt lat="35.544254" lon="106.238815"><ele>2545</ele></trkpt>
      <trkpt lat="35.54424" lon="106.23894"><ele>2541</ele></trkpt>
      <trkpt lat="35.544315" lon="106.23901"><ele>2539</ele></trkpt>
      <trkpt lat="35.544373" lon="106.2391"><ele>2536</ele></trkpt>
      <trkpt lat="35.544544" lon="106.239136"><ele>2536</ele></trkpt>
      <trkpt lat="35.544632" lon="106.2391"><ele>2539</ele></trkpt>
      <trkpt lat="35.544777" lon="106.239174"><ele>2538</ele></trkpt>
      <trkpt lat="35.544884" lon="106.2392"><ele>2538</ele></trkpt>
      <trkpt lat="35.54496" lon="106.239204"><ele>2538</ele></trkpt>
      <trkpt lat="35.545177" lon="106.2392"><ele>2538</ele></trkpt>
      <trkpt lat="35.545227" lon="106.23924"><ele>2536</ele></trkpt>
      <trkpt lat="35.54537" lon="106.23925"><ele>2536</ele></trkpt>
      <trkpt lat="35.545452" lon="106.23937"><ele>2532</ele></trkpt>
      <trkpt lat="35.54553" lon="106.239525"><ele>2528</ele></trkpt>
      <trkpt lat="35.545574" lon="106.239624"><ele>2525</ele></trkpt>
      <trkpt lat="35.54572" lon="106.23972"><ele>2520</ele></trkpt>
      <trkpt lat="35.54577" lon="106.23981"><ele>2517</ele></trkpt>
      <trkpt lat="35.54574" lon="106.240036"><ele>2512</ele></trkpt>
      <trkpt lat="35.54573" lon="106.24011"><ele>2509</ele></trkpt>
      <trkpt lat="35.54563" lon="106.240364"><ele>2500</ele></trkpt>
      <trkpt lat="35.54553" lon="106.240616"><ele>2491</ele></trkpt>
      <trkpt lat="35.54556" lon="106.24078"><ele>2485</ele></trkpt>
      <trkpt lat="35.545513" lon="106.241005"><ele>2477</ele></trkpt>
      <trkpt lat="35.54543" lon="106.2411"><ele>2473</ele></trkpt>
      <trkpt lat="35.54525" lon="106.24116"><ele>2468</ele></trkpt>
      <trkpt lat="35.545223" lon="106.24126"><ele>2464</ele></trkpt>
      <trkpt lat="35.54524" lon="106.24136"><ele>2463</ele></trkpt>
      <trkpt lat="35.54516" lon="106.24141"><ele>2461</ele></trkpt>
      <trkpt lat="35.54509" lon="106.24125"><ele>2462</ele></trkpt>
      <trkpt lat="35.54498" lon="106.24133"><ele>2460</ele></trkpt>
      <trkpt lat="35.54491" lon="106.24152"><ele>2455</ele></trkpt>
      <trkpt lat="35.544865" lon="106.24165"><ele>2451</ele></trkpt>
      <trkpt lat="35.54476" lon="106.24185"><ele>2446</ele></trkpt>
      <trkpt lat="35.54458" lon="106.24178"><ele>2444</ele></trkpt>
      <trkpt lat="35.544285" lon="106.24177"><ele>2441</ele></trkpt>
      <trkpt lat="35.544174" lon="106.24172"><ele>2440</ele></trkpt>
      <trkpt lat="35.54395" lon="106.241615"><ele>2433</ele></trkpt>
      <trkpt lat="35.543728" lon="106.241486"><ele>2427</ele></trkpt>
      <trkpt lat="35.543575" lon="106.24129"><ele>2423</ele></trkpt>
      <trkpt lat="35.543472" lon="106.24122"><ele>2420</ele></trkpt>
      <trkpt lat="35.543404" lon="106.24121"><ele>2417</ele></trkpt>
      <trkpt lat="35.54328" lon="106.24107"><ele>2415</ele></trkpt>
      <trkpt lat="35.543114" lon="106.240944"><ele>2411</ele></trkpt>
      <trkpt lat="35.542942" lon="106.24087"><ele>2406</ele></trkpt>
      <trkpt lat="35.54259" lon="106.240845"><ele>2402</ele></trkpt>
      <trkpt lat="35.5425" lon="106.24081"><ele>2402</ele></trkpt>
      <trkpt lat="35.542328" lon="106.24091"><ele>2400</ele></trkpt>
      <trkpt lat="35.542408" lon="106.24114"><ele>2397</ele></trkpt>
      <trkpt lat="35.542435" lon="106.24137"><ele>2398</ele></trkpt>
      <trkpt lat="35.542484" lon="106.24151"><ele>2399</ele></trkpt>
      <trkpt lat="35.542442" lon="106.24175"><ele>2398</ele></trkpt>
      <trkpt lat="35.542408" lon="106.24205"><ele>2400</ele></trkpt>
      <trkpt lat="35.542336" lon="106.242165"><ele>2401</ele></trkpt>
      <trkpt lat="35.542046" lon="106.242256"><ele>2393</ele></trkpt>
      <trkpt lat="35.54189" lon="106.242256"><ele>2393</ele></trkpt>
      <trkpt lat="35.54177" lon="106.24218"><ele>2393</ele></trkpt>
      <trkpt lat="35.541683" lon="106.242165"><ele>2392</ele></trkpt>
      <trkpt lat="35.541573" lon="106.242546"><ele>2383</ele></trkpt>
      <trkpt lat="35.541477" lon="106.2428"><ele>2383</ele></trkpt>
      <trkpt lat="35.541344" lon="106.24309"><ele>2386</ele></trkpt>
      <trkpt lat="35.5412" lon="106.24346"><ele>2390</ele></trkpt>
      <trkpt lat="35.541092" lon="106.243515"><ele>2390</ele></trkpt>
      <trkpt lat="35.541042" lon="106.243385"><ele>2385</ele></trkpt>
      <trkpt lat="35.54095" lon="106.243225"><ele>2380</ele></trkpt>
      <trkpt lat="35.54083" lon="106.24308"><ele>2377</ele></trkpt>
      <trkpt lat="35.540707" lon="106.24289"><ele>2377</ele></trkpt>
      <trkpt lat="35.5406" lon="106.24293"><ele>2378</ele></trkpt>
      <trkpt lat="35.540318" lon="106.24315"><ele>2373</ele></trkpt>
      <trkpt lat="35.540207" lon="106.24326"><ele>2368</ele></trkpt>
      <trkpt lat="35.539837" lon="106.243385"><ele>2366</ele></trkpt>
      <trkpt lat="35.539734" lon="106.243416"><ele>2366</ele></trkpt>
      <trkpt lat="35.539593" lon="106.24337"><ele>2364</ele></trkpt>
      <trkpt lat="35.539433" lon="106.24329"><ele>2360</ele></trkpt>
      <trkpt lat="35.53914" lon="106.2434"><ele>2361</ele></trkpt>
      <trkpt lat="35.53881" lon="106.24354"><ele>2364</ele></trkpt>
      <trkpt lat="35.538605" lon="106.24337"><ele>2360</ele></trkpt>
      <trkpt lat="35.538506" lon="106.24304"><ele>2357</ele></trkpt>
      <trkpt lat="35.538403" lon="106.24275"><ele>2359</ele></trkpt>
      <trkpt lat="35.538223" lon="106.24258"><ele>2358</ele></trkpt>
      <trkpt lat="35.538025" lon="106.2426"><ele>2354</ele></trkpt>
      <trkpt lat="35.537834" lon="106.24276"><ele>2354</ele></trkpt>
      <trkpt lat="35.537567" lon="106.24291"><ele>2355</ele></trkpt>
      <trkpt lat="35.537445" lon="106.242775"><ele>2353</ele></trkpt>
      <trkpt lat="35.537354" lon="106.242645"><ele>2351</ele></trkpt>
      <trkpt lat="35.537113" lon="106.242676"><ele>2352</ele></trkpt>
      <trkpt lat="35.53701" lon="106.2427"><ele>2353</ele></trkpt>
      <trkpt lat="35.53686" lon="106.24254"><ele>2350</ele></trkpt>
      <trkpt lat="35.536575" lon="106.24247"><ele>2348</ele></trkpt>
      <trkpt lat="35.53644" lon="106.24236"><ele>2345</ele></trkpt>
      <trkpt lat="35.53633" lon="106.242096"><ele>2340</ele></trkpt>
      <trkpt lat="35.53623" lon="106.24196"><ele>2337</ele></trkpt>
      <trkpt lat="35.53616" lon="106.24178"><ele>2338</ele></trkpt>
      <trkpt lat="35.535915" lon="106.24174"><ele>2335</ele></trkpt>
      <trkpt lat="35.5357" lon="106.24174"><ele>2333</ele></trkpt>
      <trkpt lat="35.53546" lon="106.24183"><ele>2328</ele></trkpt>
      <trkpt lat="35.535217" lon="106.24197"><ele>2325</ele></trkpt>
      <trkpt lat="35.535023" lon="106.24205"><ele>2326</ele></trkpt>
      <trkpt lat="35.5347" lon="106.242096"><ele>2325</ele></trkpt>
      <trkpt lat="35.534542" lon="106.24209"><ele>2323</ele></trkpt>
      <trkpt lat="35.53443" lon="106.242226"><ele>2324</ele></trkpt>
      <trkpt lat="35.53435" lon="106.24229"><ele>2325</ele></trkpt>
      <trkpt lat="35.534218" lon="106.24213"><ele>2326</ele></trkpt>
      <trkpt lat="35.534138" lon="106.24205"><ele>2327</ele></trkpt>
      <trkpt lat="35.533863" lon="106.2422"><ele>2324</ele></trkpt>
      <trkpt lat="35.533733" lon="106.24261"><ele>2316</ele></trkpt>
      <trkpt lat="35.533638" lon="106.24277"><ele>2321</ele></trkpt>
      <trkpt lat="35.533466" lon="106.242836"><ele>2323</ele></trkpt>
      <trkpt lat="35.533276" lon="106.24304"><ele>2314</ele></trkpt>
      <trkpt lat="35.53315" lon="106.24334"><ele>2311</ele></trkpt>
      <trkpt lat="35.532597" lon="106.243355"><ele>2304</ele></trkpt>
      <trkpt lat="35.532352" lon="106.24344"><ele>2304</ele></trkpt>
      <trkpt lat="35.532227" lon="106.24364"><ele>2309</ele></trkpt>
      <trkpt lat="35.53206" lon="106.24371"><ele>2306</ele></trkpt>
      <trkpt lat="35.531754" lon="106.24378"><ele>2301</ele></trkpt>
      <trkpt lat="35.531666" lon="106.24389"><ele>2299</ele></trkpt>
      <trkpt lat="35.531464" lon="106.243965"><ele>2294</ele></trkpt>
      <trkpt lat="35.53127" lon="106.2438"><ele>2297</ele></trkpt>
      <trkpt lat="35.53114" lon="106.2438"><ele>2296</ele></trkpt>
      <trkpt lat="35.530926" lon="106.24388"><ele>2295</ele></trkpt>
      <trkpt lat="35.530907" lon="106.24408"><ele>2294</ele></trkpt>
      <trkpt lat="35.53074" lon="106.244125"><ele>2296</ele></trkpt>
      <trkpt lat="35.530556" lon="106.244026"><ele>2293</ele></trkpt>
      <trkpt lat="35.530285" lon="106.24398"><ele>2294</ele></trkpt>
      <trkpt lat="35.52996" lon="106.24403"><ele>2299</ele></trkpt>
      <trkpt lat="35.52965" lon="106.2445"><ele>2294</ele></trkpt>
      <trkpt lat="35.529633" lon="106.244705"><ele>2289</ele></trkpt>
      <trkpt lat="35.529446" lon="106.24478"><ele>2292</ele></trkpt>
      <trkpt lat="35.52926" lon="106.24486"><ele>2295</ele></trkpt>
      <trkpt lat="35.529125" lon="106.2452"><ele>2285</ele></trkpt>
      <trkpt lat="35.52895" lon="106.24556"><ele>2284</ele></trkpt>
      <trkpt lat="35.52883" lon="106.24574"><ele>2286</ele></trkpt>
      <trkpt lat="35.52853" lon="106.24599"><ele>2278</ele></trkpt>
      <trkpt lat="35.528297" lon="106.24614"><ele>2278</ele></trkpt>
      <trkpt lat="35.52795" lon="106.24653"><ele>2277</ele></trkpt>
      <trkpt lat="35.527363" lon="106.24687"><ele>2277</ele></trkpt>
      <trkpt lat="35.52693" lon="106.24715"><ele>2277</ele></trkpt>
      <trkpt lat="35.526566" lon="106.24727"><ele>2273</ele></trkpt>
      <trkpt lat="35.526436" lon="106.24717"><ele>2272</ele></trkpt>
      <trkpt lat="35.52624" lon="106.2472"><ele>2271</ele></trkpt>
      <trkpt lat="35.52611" lon="106.24733"><ele>2268</ele></trkpt>
      <trkpt lat="35.526" lon="106.24749"><ele>2267</ele></trkpt>
      <trkpt lat="35.52587" lon="106.247505"><ele>2267</ele></trkpt>
      <trkpt lat="35.525738" lon="106.24747"><ele>2265</ele></trkpt>
      <trkpt lat="35.52563" lon="106.247536"><ele>2264</ele></trkpt>
      <trkpt lat="35.5255" lon="106.24767"><ele>2268</ele></trkpt>
      <trkpt lat="35.52529" lon="106.2478"><ele>2270</ele></trkpt>
      <trkpt lat="35.525146" lon="106.247765"><ele>2268</ele></trkpt>
      <trkpt lat="35.52504" lon="106.24763"><ele>2268</ele></trkpt>
      <trkpt lat="35.52469" lon="106.24767"><ele>2273</ele></trkpt>
      <trkpt lat="35.52449" lon="106.24775"><ele>2272</ele></trkpt>
      <trkpt lat="35.524284" lon="106.24783"><ele>2269</ele></trkpt>
      <trkpt lat="35.524162" lon="106.247925"><ele>2269</ele></trkpt>
      <trkpt lat="35.52418" lon="106.24802"><ele>2265</ele></trkpt>
      <trkpt lat="35.524006" lon="106.24812"><ele>2266</ele></trkpt>
      <trkpt lat="35.523884" lon="106.24824"><ele>2269</ele></trkpt>
      <trkpt lat="35.523834" lon="106.24836"><ele>2269</ele></trkpt>
      <trkpt lat="35.523666" lon="106.24856"><ele>2263</ele></trkpt>
      <trkpt lat="35.523567" lon="106.24871"><ele>2259</ele></trkpt>
      <trkpt lat="35.523254" lon="106.248856"><ele>2260</ele></trkpt>
      <trkpt lat="35.5231" lon="106.249016"><ele>2261</ele></trkpt>
      <trkpt lat="35.522976" lon="106.24906"><ele>2258</ele></trkpt>
      <trkpt lat="35.52282" lon="106.2492"><ele>2256</ele></trkpt>
      <trkpt lat="35.522736" lon="106.24943"><ele>2249</ele></trkpt>
      <trkpt lat="35.52258" lon="106.24955"><ele>2250</ele></trkpt>
      <trkpt lat="35.52251" lon="106.24968"><ele>2252</ele></trkpt>
      <trkpt lat="35.522152" lon="106.250145"><ele>2238</ele></trkpt>
      <trkpt lat="35.52198" lon="106.25036"><ele>2243</ele></trkpt>
      <trkpt lat="35.521774" lon="106.2504"><ele>2244</ele></trkpt>
      <trkpt lat="35.52165" lon="106.2505"><ele>2242</ele></trkpt>
      <trkpt lat="35.52144" lon="106.25046"><ele>2242</ele></trkpt>
      <trkpt lat="35.521267" lon="106.25049"><ele>2246</ele></trkpt>
      <trkpt lat="35.520943" lon="106.250565"><ele>2242</ele></trkpt>
      <trkpt lat="35.520752" lon="106.25051"><ele>2246</ele></trkpt>
      <trkpt lat="35.520615" lon="106.25067"><ele>2243</ele></trkpt>
      <trkpt lat="35.520332" lon="106.25078"><ele>2242</ele></trkpt>
      <trkpt lat="35.520126" lon="106.25086"><ele>2241</ele></trkpt>
      <trkpt lat="35.519943" lon="106.25097"><ele>2243</ele></trkpt>
      <trkpt lat="35.519627" lon="106.25114"><ele>2244</ele></trkpt>
      <trkpt lat="35.519405" lon="106.2512"><ele>2242</ele></trkpt>
      <trkpt lat="35.51911" lon="106.25133"><ele>2241</ele></trkpt>
      <trkpt lat="35.518967" lon="106.25134"><ele>2242</ele></trkpt>
      <trkpt lat="35.51876" lon="106.25134"><ele>2243</ele></trkpt>
      <trkpt lat="35.51861" lon="106.25129"><ele>2243</ele></trkpt>
      <trkpt lat="35.51845" lon="106.251236"><ele>2244</ele></trkpt>
      <trkpt lat="35.51806" lon="106.251236"><ele>2245</ele></trkpt>
      <trkpt lat="35.517883" lon="106.251175"><ele>2242</ele></trkpt>
      <trkpt lat="35.517593" lon="106.25113"><ele>2238</ele></trkpt>
      <trkpt lat="35.517395" lon="106.25113"><ele>2237</ele></trkpt>
      <trkpt lat="35.517017" lon="106.25115"><ele>2229</ele></trkpt>
      <trkpt lat="35.51679" lon="106.251076"><ele>2224</ele></trkpt>
      <trkpt lat="35.5166" lon="106.250916"><ele>2220</ele></trkpt>
      <trkpt lat="35.51653" lon="106.25075"><ele>2222</ele></trkpt>
      <trkpt lat="35.51638" lon="106.25065"><ele>2225</ele></trkpt>
      <trkpt lat="35.51623" lon="106.25067"><ele>2225</ele></trkpt>
      <trkpt lat="35.515915" lon="106.251"><ele>2220</ele></trkpt>
      <trkpt lat="35.5157" lon="106.25108"><ele>2220</ele></trkpt>
      <trkpt lat="35.515488" lon="106.25101"><ele>2218</ele></trkpt>
      <trkpt lat="35.515255" lon="106.250946"><ele>2216</ele></trkpt>
      <trkpt lat="35.51506" lon="106.25096"><ele>2215</ele></trkpt>
      <trkpt lat="35.5149" lon="106.25096"><ele>2214</ele></trkpt>
      <trkpt lat="35.514713" lon="106.251144"><ele>2218</ele></trkpt>
      <trkpt lat="35.514496" lon="106.25121"><ele>2219</ele></trkpt>
      <trkpt lat="35.514366" lon="106.25102"><ele>2215</ele></trkpt>
      <trkpt lat="35.514236" lon="106.2508"><ele>2210</ele></trkpt>
      <trkpt lat="35.514046" lon="106.25043"><ele>2213</ele></trkpt>
      <trkpt lat="35.513798" lon="106.25025"><ele>2211</ele></trkpt>
      <trkpt lat="35.513504" lon="106.25037"><ele>2206</ele></trkpt>
      <trkpt lat="35.51329" lon="106.25044"><ele>2204</ele></trkpt>
      <trkpt lat="35.5132" lon="106.25051"><ele>2207</ele></trkpt>
      <trkpt lat="35.513103" lon="106.2506"><ele>2210</ele></trkpt>
      <trkpt lat="35.51286" lon="106.25068"><ele>2209</ele></trkpt>
      <trkpt lat="35.512604" lon="106.25082"><ele>2207</ele></trkpt>
      <trkpt lat="35.51239" lon="106.251015"><ele>2215</ele></trkpt>
      <trkpt lat="35.5122" lon="106.25121"><ele>2219</ele></trkpt>
      <trkpt lat="35.51203" lon="106.25122"><ele>2218</ele></trkpt>
      <trkpt lat="35.511547" lon="106.25165"><ele>2217</ele></trkpt>
      <trkpt lat="35.511227" lon="106.25203"><ele>2211</ele></trkpt>
      <trkpt lat="35.51099" lon="106.25228"><ele>2210</ele></trkpt>
      <trkpt lat="35.510708" lon="106.25255"><ele>2212</ele></trkpt>
      <trkpt lat="35.51051" lon="106.25278"><ele>2206</ele></trkpt>
      <trkpt lat="35.510296" lon="106.25301"><ele>2206</ele></trkpt>
      <trkpt lat="35.510014" lon="106.253136"><ele>2204</ele></trkpt>
      <trkpt lat="35.509617" lon="106.253365"><ele>2204</ele></trkpt>
      <trkpt lat="35.509052" lon="106.2538"><ele>2200</ele></trkpt>
      <trkpt lat="35.508602" lon="106.25409"><ele>2200</ele></trkpt>
      <trkpt lat="35.50843" lon="106.25417"><ele>2198</ele></trkpt>
      <trkpt lat="35.508156" lon="106.254265"><ele>2192</ele></trkpt>
      <trkpt lat="35.507816" lon="106.25437"><ele>2189</ele></trkpt>
      <trkpt lat="35.507618" lon="106.254486"><ele>2191</ele></trkpt>
      <trkpt lat="35.506687" lon="106.25481"><ele>2179</ele></trkpt>
      <trkpt lat="35.50566" lon="106.25517"><ele>2184</ele></trkpt>
      <trkpt lat="35.505096" lon="106.25546"><ele>2188</ele></trkpt>
      <trkpt lat="35.504833" lon="106.25552"><ele>2190</ele></trkpt>
      <trkpt lat="35.504547" lon="106.255585"><ele>2184</ele></trkpt>
      <trkpt lat="35.503857" lon="106.25566"><ele>2185</ele></trkpt>
      <trkpt lat="35.50356" lon="106.255806"><ele>2192</ele></trkpt>
      <trkpt lat="35.503162" lon="106.256134"><ele>2193</ele></trkpt>
      <trkpt lat="35.50278" lon="106.25636"><ele>2183</ele></trkpt>
      <trkpt lat="35.502506" lon="106.25649"><ele>2181</ele></trkpt>
      <trkpt lat="35.50195" lon="106.25657"><ele>2169</ele></trkpt>
      <trkpt lat="35.501545" lon="106.256584"><ele>2160</ele></trkpt>
      <trkpt lat="35.501244" lon="106.25655"><ele>2156</ele></trkpt>
      <trkpt lat="35.500996" lon="106.25643"><ele>2153</ele></trkpt>
      <trkpt lat="35.50075" lon="106.25641"><ele>2151</ele></trkpt>
      <trkpt lat="35.500156" lon="106.25622"><ele>2152</ele></trkpt>
      <trkpt lat="35.499866" lon="106.25627"><ele>2148</ele></trkpt>
      <trkpt lat="35.499554" lon="106.256355"><ele>2143</ele></trkpt>
      <trkpt lat="35.49851" lon="106.256386"><ele>2135</ele></trkpt>
      <trkpt lat="35.49819" lon="106.2564"><ele>2133</ele></trkpt>
      <trkpt lat="35.49788" lon="106.25639"><ele>2132</ele></trkpt>
      <trkpt lat="35.497562" lon="106.256386"><ele>2130</ele></trkpt>
      <trkpt lat="35.496284" lon="106.25638"><ele>2135</ele></trkpt>
      <trkpt lat="35.49592" lon="106.25639"><ele>2135</ele></trkpt>
      <trkpt lat="35.4957" lon="106.25637"><ele>2135</ele></trkpt>
      <trkpt lat="35.495518" lon="106.25639"><ele>2135</ele></trkpt>
      <trkpt lat="35.495323" lon="106.2564"><ele>2134</ele></trkpt>
      <trkpt lat="35.495056" lon="106.25643"><ele>2132</ele></trkpt>
      <trkpt lat="35.494804" lon="106.25658"><ele>2128</ele></trkpt>
      <trkpt lat="35.494595" lon="106.2567"><ele>2125</ele></trkpt>
      <trkpt lat="35.49453" lon="106.25677"><ele>2124</ele></trkpt>
      <trkpt lat="35.49453" lon="106.25677"><ele>2124</ele></trkpt>
    </trkseg></trk>
</gpx>
