{
  "type": "FeatureCollection",
  "features": [
    {
      "type": "Feature",
      "properties": {
        "name": "洛克线参考轨迹",
        "type": "hiking",
        "source": "两步路用户轨迹",
        "segments": 1
      },
      "geometry": {
        "type": "LineString",
        "coordinates": [
          [
            100.558687,
            28.427744
          ],
          [
            100.558504,
            28.42778
          ],
          [
            100.558353,
            28.427669
          ],
          [
            100.558176,
            28.427702
          ],
          [
            100.557799,
            28.427593
          ],
          [
            100.557619,
            28.427792
          ],
          [
            100.557565,
            28.427615
          ],
          [
            100.557291,
            28.427496
          ],
          [
            100.557238,
            28.427368
          ],
          [
            100.556969,
            28.42767
          ],
          [
            100.556463,
            28.427842
          ],
          [
            100.554735,
            28.427662
          ],
          [
            100.553918,
            28.427263
          ],
          [
            100.553545,
            28.427209
          ],
          [
            100.552692,
            28.426737
          ],
          [
            100.552414,
            28.426856
          ],
          [
            100.551227,
            28.426879
          ],
          [
            100.550968,
            28.426818
          ],
          [
            100.55079,
            28.42668
          ],
          [
            100.550509,
            28.42662
          ],
          [
            100.550489,
            28.42632
          ],
          [
            100.550142,
            28.426219
          ],
          [
            100.549982,
            28.425405
          ],
          [
            100.549683,
            28.425053
          ],
          [
            100.549832,
            28.424606
          ],
          [
            100.549867,
            28.42396
          ],
          [
            100.550152,
            28.423554
          ],
          [
            100.550151,
            28.423296
          ],
          [
            100.550337,
            28.423026
          ],
          [
            100.55031,
            28.422914
          ],
          [
            100.550137,
            28.422872
          ],
          [
            100.54961,
            28.42233
          ],
          [
            100.54974,
            28.42208
          ],
          [
            100.549974,
            28.421917
          ],
          [
            100.550107,
            28.421403
          ],
          [
            100.549862,
            28.42108
          ],
          [
            100.549476,
            28.420896
          ],
          [
            100.549297,
            28.420953
          ],
          [
            100.549258,
            28.42111
          ],
          [
            100.549176,
            28.421085
          ],
          [
            100.549218,
            28.420938
          ],
          [
            100.549166,
            28.421186
          ],
          [
            100.549257,
            28.421096
          ],
          [
            100.549269,
            28.421012
          ],
          [
            100.549094,
            28.421218
          ],
          [
            100.549241,
            28.42126
          ],
          [
            100.549236,
            28.421122
          ],
          [
            100.548924,
            28.420951
          ],
          [
            100.548906,
            28.420745
          ],
          [
            100.548591,
            28.420778
          ],
          [
            100.548281,
            28.420501
          ],
          [
            100.54813,
            28.419758
          ],
          [
            100.547724,
            28.419357
          ],
          [
            100.547296,
            28.418702
          ],
          [
            100.547277,
            28.418527
          ],
          [
            100.547523,
            28.417703
          ],
          [
            100.54682,
            28.417417
          ],
          [
            100.546477,
            28.416934
          ],
          [
            100.546119,
            28.416627
          ],
          [
            100.546078,
            28.416296
          ],
          [
            100.54548,
            28.416003
          ],
          [
            100.545293,
            28.415618
          ],
          [
            100.545525,
            28.41511
          ],
          [
            100.545796,
            28.414891
          ],
          [
            100.546094,
            28.414436
          ],
          [
            100.547129,
            28.413567
          ],
          [
            100.546456,
            28.413715
          ],
          [
            100.545961,
            28.413723
          ],
          [
            100.545345,
            28.413494
          ],
          [
            100.544814,
            28.413466
          ],
          [
            100.543571,
            28.413189
          ],
          [
            100.542872,
            28.412928
          ],
          [
            100.542098,
            28.41245
          ],
          [
            100.541921,
            28.412213
          ],
          [
            100.541976,
            28.4118
          ],
          [
            100.541843,
            28.411462
          ],
          [
            100.54214,
            28.411717
          ],
          [
            100.542236,
            28.411932
          ],
          [
            100.542306,
            28.411798
          ],
          [
            100.542259,
            28.411572
          ],
          [
            100.5419,
            28.411048
          ],
          [
            100.540633,
            28.410567
          ],
          [
            100.540309,
            28.41053
          ],
          [
            100.540368,
            28.410419
          ],
          [
            100.539744,
            28.409902
          ],
          [
            100.539576,
            28.409886
          ],
          [
            100.538318,
            28.410204
          ],
          [
            100.538099,
            28.410177
          ],
          [
            100.537546,
            28.409762
          ],
          [
            100.537348,
            28.40982
          ],
          [
            100.537165,
            28.409551
          ],
          [
            100.537567,
            28.40872
          ],
          [
            100.537532,
            28.408559
          ],
          [
            100.537016,
            28.408585
          ],
          [
            100.536272,
            28.408223
          ],
          [
            100.536083,
            28.408043
          ],
          [
            100.535672,
            28.40794
          ],
          [
            100.535235,
            28.407642
          ],
          [
            100.534941,
            28.407131
          ],
          [
            100.534608,
            28.407005
          ],
          [
            100.534229,
            28.406557
          ],
          [
            100.533767,
            28.406467
          ],
          [
            100.533686,
            28.406246
          ],
          [
            100.533637,
            28.406345
          ],
          [
            100.533223,
            28.406206
          ],
          [
            100.532922,
            28.406332
          ],
          [
            100.532562,
            28.406338
          ],
          [
            100.532291,
            28.406095
          ],
          [
            100.532221,
            28.405859
          ],
          [
            100.53191,
            28.405649
          ],
          [
            100.531816,
            28.405428
          ],
          [
            100.531324,
            28.405231
          ],
          [
            100.531207,
            28.404815
          ],
          [
            100.530986,
            28.404909
          ],
          [
            100.530871,
            28.404852
          ],
          [
            100.530837,
            28.404668
          ],
          [
            100.530536,
            28.404301
          ],
          [
            100.530338,
            28.40427
          ],
          [
            100.529939,
            28.404478
          ],
          [
            100.529955,
            28.40428
          ],
          [
            100.529651,
            28.403994
          ],
          [
            100.529216,
            28.404002
          ],
          [
            100.529252,
            28.403908
          ],
          [
            100.52916,
            28.403862
          ],
          [
            100.528869,
            28.404037
          ],
          [
            100.52866,
            28.40399
          ],
          [
            100.528575,
            28.403821
          ],
          [
            100.528189,
            28.403863
          ],
          [
            100.528243,
            28.403973
          ],
          [
            100.528167,
            28.403922
          ],
          [
            100.528203,
            28.403731
          ],
          [
            100.528277,
            28.403848
          ],
          [
            100.528409,
            28.403798
          ],
          [
            100.52826,
            28.403822
          ],
          [
            100.52831,
            28.403901
          ],
          [
            100.528168,
            28.403904
          ],
          [
            100.528288,
            28.403816
          ],
          [
            100.528189,
            28.40391
          ],
          [
            100.528026,
            28.403904
          ],
          [
            100.528209,
            28.403905
          ],
          [
            100.528118,
            28.40384
          ],
          [
            100.528161,
            28.403609
          ],
          [
            100.528297,
            28.403899
          ],
          [
            100.528335,
            28.4038
          ],
          [
            100.528165,
            28.403709
          ],
          [
            100.528155,
            28.403764
          ],
          [
            100.528211,
            28.403694
          ],
          [
            100.528208,
            28.403768
          ],
          [
            100.528057,
            28.403617
          ],
          [
            100.528102,
            28.403654
          ],
          [
            100.528119,
            28.403562
          ],
          [
            100.528142,
            28.403693
          ],
          [
            100.527977,
            28.40378
          ],
          [
            100.528045,
            28.40384
          ],
          [
            100.527938,
            28.403812
          ],
          [
            100.528036,
            28.403895
          ],
          [
            100.52805,
            28.403738
          ],
          [
            100.527828,
            28.404106
          ],
          [
            100.527777,
            28.404014
          ],
          [
            100.527961,
            28.403936
          ],
          [
            100.527837,
            28.40391
          ],
          [
            100.527699,
            28.404138
          ],
          [
            100.527561,
            28.404086
          ],
          [
            100.527464,
            28.403918
          ],
          [
            100.527317,
            28.403952
          ],
          [
            100.527306,
            28.403844
          ],
          [
            100.527316,
            28.404027
          ],
          [
            100.52745,
            28.404
          ],
          [
            100.527474,
            28.404101
          ],
          [
            100.527525,
            28.40397
          ],
          [
            100.527289,
            28.403929
          ],
          [
            100.527183,
            28.403673
          ],
          [
            100.527021,
            28.403632
          ],
          [
            100.526521,
            28.404209
          ],
          [
            100.526654,
            28.404318
          ],
          [
            100.526786,
            28.404159
          ],
          [
            100.526818,
            28.404232
          ],
          [
            100.526767,
            28.404139
          ],
          [
            100.526841,
            28.404387
          ],
          [
            100.526945,
            28.404376
          ],
          [
            100.526955,
            28.404183
          ],
          [
            100.52686,
            28.404344
          ],
          [
            100.526619,
            28.40382
          ],
          [
            100.526824,
            28.40378
          ],
          [
            100.526839,
            28.403875
          ],
          [
            100.526886,
            28.4038
          ],
          [
            100.527023,
            28.403887
          ],
          [
            100.526999,
            28.403773
          ],
          [
            100.526982,
            28.403946
          ],
          [
            100.526915,
            28.403964
          ],
          [
            100.526945,
            28.403868
          ],
          [
            100.527234,
            28.403403
          ],
          [
            100.526804,
            28.403653
          ],
          [
            100.526679,
            28.403869
          ],
          [
            100.526844,
            28.403228
          ],
          [
            100.526721,
            28.403617
          ],
          [
            100.526795,
            28.404064
          ],
          [
            100.526588,
            28.403894
          ],
          [
            100.527168,
            28.40446
          ],
          [
            100.527136,
            28.403879
          ],
          [
            100.527042,
            28.404225
          ],
          [
            100.527013,
            28.403999
          ],
          [
            100.527127,
            28.403677
          ],
          [
            100.527022,
            28.403978
          ],
          [
            100.527059,
            28.40428
          ],
          [
            100.52708,
            28.404088
          ],
          [
            100.527074,
            28.404203
          ],
          [
            100.526983,
            28.404075
          ],
          [
            100.526866,
            28.403672
          ],
          [
            100.526707,
            28.403535
          ],
          [
            100.526484,
            28.403535
          ],
          [
            100.526032,
            28.403021
          ],
          [
            100.525943,
            28.402996
          ],
          [
            100.525939,
            28.403271
          ],
          [
            100.525815,
            28.403052
          ],
          [
            100.525681,
            28.403262
          ],
          [
            100.525501,
            28.403254
          ],
          [
            100.525392,
            28.403409
          ],
          [
            100.52531,
            28.403413
          ],
          [
            100.525319,
            28.403276
          ],
          [
            100.525255,
            28.403343
          ],
          [
            100.525187,
            28.403271
          ],
          [
            100.524996,
            28.403413
          ],
          [
            100.524879,
            28.403396
          ],
          [
            100.524807,
            28.403286
          ],
          [
            100.524929,
            28.402848
          ],
          [
            100.524731,
            28.402814
          ],
          [
            100.524664,
            28.402541
          ],
          [
            100.524335,
            28.402366
          ],
          [
            100.52427,
            28.402168
          ],
          [
            100.523844,
            28.401995
          ],
          [
            100.523549,
            28.401704
          ],
          [
            100.523286,
            28.401614
          ],
          [
            100.523058,
            28.401678
          ],
          [
            100.522428,
            28.401484
          ],
          [
            100.522177,
            28.401229
          ],
          [
            100.521723,
            28.401052
          ],
          [
            100.521607,
            28.400721
          ],
          [
            100.52167,
            28.400474
          ],
          [
            100.521451,
            28.400439
          ],
          [
            100.521488,
            28.40032
          ],
          [
            100.520834,
            28.399939
          ],
          [
            100.520579,
            28.399611
          ],
          [
            100.520389,
            28.399568
          ],
          [
            100.520142,
            28.399364
          ],
          [
            100.520099,
            28.399125
          ],
          [
            100.519907,
            28.399123
          ],
          [
            100.519831,
            28.39892
          ],
          [
            100.519549,
            28.398668
          ],
          [
            100.519349,
            28.398641
          ],
          [
            100.519291,
            28.398391
          ],
          [
            100.519187,
            28.398398
          ],
          [
            100.519144,
            28.398221
          ],
          [
            100.519038,
            28.39822
          ],
          [
            100.518902,
            28.398058
          ],
          [
            100.518479,
            28.397916
          ],
          [
            100.517902,
            28.397953
          ],
          [
            100.51775,
            28.397829
          ],
          [
            100.517588,
            28.397825
          ],
          [
            100.517596,
            28.397756
          ],
          [
            100.517386,
            28.397743
          ],
          [
            100.517293,
            28.397612
          ],
          [
            100.516835,
            28.39779
          ],
          [
            100.516052,
            28.397701
          ],
          [
            100.515805,
            28.397566
          ],
          [
            100.515451,
            28.397655
          ],
          [
            100.515076,
            28.397622
          ],
          [
            100.514944,
            28.397716
          ],
          [
            100.514299,
            28.397592
          ],
          [
            100.514056,
            28.39765
          ],
          [
            100.513929,
            28.397804
          ],
          [
            100.514067,
            28.397664
          ],
          [
            100.514155,
            28.397687
          ],
          [
            100.514025,
            28.397791
          ],
          [
            100.514056,
            28.397691
          ],
          [
            100.514049,
            28.397788
          ],
          [
            100.514146,
            28.397732
          ],
          [
            100.514178,
            28.397617
          ],
          [
            100.514033,
            28.397682
          ],
          [
            100.51408,
            28.397593
          ],
          [
            100.513965,
            28.397638
          ],
          [
            100.514022,
            28.397527
          ],
          [
            100.513775,
            28.397582
          ],
          [
            100.513701,
            28.397505
          ],
          [
            100.513576,
            28.397589
          ],
          [
            100.513613,
            28.397501
          ],
          [
            100.513501,
            28.39729
          ],
          [
            100.51342,
            28.397295
          ],
          [
            100.513498,
            28.397045
          ],
          [
            100.51321,
            28.397107
          ],
          [
            100.513141,
            28.397009
          ],
          [
            100.51288,
            28.397042
          ],
          [
            100.512402,
            28.396896
          ],
          [
            100.512229,
            28.396974
          ],
          [
            100.512122,
            28.396946
          ],
          [
            100.512057,
            28.396764
          ],
          [
            100.511297,
            28.396915
          ],
          [
            100.511107,
            28.397025
          ],
          [
            100.511061,
            28.39693
          ],
          [
            100.510572,
            28.397075
          ],
          [
            100.510378,
            28.396968
          ],
          [
            100.509955,
            28.397003
          ],
          [
            100.510054,
            28.39686
          ],
          [
            100.509859,
            28.396791
          ],
          [
            100.50943,
            28.396913
          ],
          [
            100.509118,
            28.396876
          ],
          [
            100.509084,
            28.396791
          ],
          [
            100.508623,
            28.396843
          ],
          [
            100.50852,
            28.396662
          ],
          [
            100.508433,
            28.396716
          ],
          [
            100.508404,
            28.396647
          ],
          [
            100.508022,
            28.39667
          ],
          [
            100.5078,
            28.396413
          ],
          [
            100.507955,
            28.396157
          ],
          [
            100.507934,
            28.395868
          ],
          [
            100.507847,
            28.395964
          ],
          [
            100.506113,
            28.396108
          ],
          [
            100.506237,
            28.395571
          ],
          [
            100.506228,
            28.395709
          ],
          [
            100.506216,
            28.395649
          ],
          [
            100.505839,
            28.395997
          ],
          [
            100.505803,
            28.395775
          ],
          [
            100.505386,
            28.396035
          ],
          [
            100.504922,
            28.395383
          ],
          [
            100.504814,
            28.395624
          ],
          [
            100.503507,
            28.396994
          ],
          [
            100.504646,
            28.395577
          ],
          [
            100.504536,
            28.395416
          ],
          [
            100.504905,
            28.394871
          ],
          [
            100.504882,
            28.394125
          ],
          [
            100.504006,
            28.394796
          ],
          [
            100.50353,
            28.39531
          ],
          [
            100.503398,
            28.395252
          ],
          [
            100.503326,
            28.395402
          ],
          [
            100.503282,
            28.395202
          ],
          [
            100.503035,
            28.395326
          ],
          [
            100.502811,
            28.395267
          ],
          [
            100.502824,
            28.395114
          ],
          [
            100.502483,
            28.395218
          ],
          [
            100.502228,
            28.394805
          ],
          [
            100.501701,
            28.394784
          ],
          [
            100.501777,
            28.394624
          ],
          [
            100.501649,
            28.394626
          ],
          [
            100.501647,
            28.394514
          ],
          [
            100.501296,
            28.394615
          ],
          [
            100.500293,
            28.394647
          ],
          [
            100.500199,
            28.394577
          ],
          [
            100.500297,
            28.394537
          ],
          [
            100.500079,
            28.394596
          ],
          [
            100.500206,
            28.394509
          ],
          [
            100.500044,
            28.394543
          ],
          [
            100.500009,
            28.393922
          ],
          [
            100.498864,
            28.39474
          ],
          [
            100.498599,
            28.394838
          ],
          [
            100.498882,
            28.394459
          ],
          [
            100.498928,
            28.394191
          ],
          [
            100.498788,
            28.394008
          ],
          [
            100.498773,
            28.394094
          ],
          [
            100.498358,
            28.394135
          ],
          [
            100.499564,
            28.392919
          ],
          [
            100.499608,
            28.392788
          ],
          [
            100.499507,
            28.392787
          ],
          [
            100.49994,
            28.392111
          ],
          [
            100.499844,
            28.392033
          ],
          [
            100.500006,
            28.39188
          ],
          [
            100.500006,
            28.391826
          ],
          [
            100.499686,
            28.391807
          ],
          [
            100.499976,
            28.391657
          ],
          [
            100.499498,
            28.391668
          ],
          [
            100.497692,
            28.393272
          ],
          [
            100.497428,
            28.393195
          ],
          [
            100.497376,
            28.393273
          ],
          [
            100.497129,
            28.393088
          ],
          [
            100.496664,
            28.393118
          ],
          [
            100.496481,
            28.392878
          ],
          [
            100.496476,
            28.392741
          ],
          [
            100.496216,
            28.392517
          ],
          [
            100.496207,
            28.392357
          ],
          [
            100.495842,
            28.392072
          ],
          [
            100.495756,
            28.392103
          ],
          [
            100.495843,
            28.3921
          ],
          [
            100.495721,
            28.392026
          ],
          [
            100.495754,
            28.391877
          ],
          [
            100.495259,
            28.391907
          ],
          [
            100.495243,
            28.391693
          ],
          [
            100.494907,
            28.39158
          ],
          [
            100.494599,
            28.391363
          ],
          [
            100.494634,
            28.391162
          ],
          [
            100.494326,
            28.390758
          ],
          [
            100.49409,
            28.390724
          ],
          [
            100.494136,
            28.390613
          ],
          [
            100.49399,
            28.390762
          ],
          [
            100.49415,
            28.390733
          ],
          [
            100.494055,
            28.390707
          ],
          [
            100.494039,
            28.390787
          ],
          [
            100.494107,
            28.390788
          ],
          [
            100.494147,
            28.390724
          ],
          [
            100.494221,
            28.390756
          ],
          [
            100.49397,
            28.390802
          ],
          [
            100.493401,
            28.390729
          ],
          [
            100.494032,
            28.390883
          ],
          [
            100.494075,
            28.390767
          ],
          [
            100.494249,
            28.390861
          ],
          [
            100.494115,
            28.390791
          ],
          [
            100.494124,
            28.390657
          ],
          [
            100.494407,
            28.390723
          ],
          [
            100.494282,
            28.390629
          ],
          [
            100.494304,
            28.390527
          ],
          [
            100.494203,
            28.390599
          ],
          [
            100.494191,
            28.390747
          ],
          [
            100.493967,
            28.390756
          ],
          [
            100.494196,
            28.390617
          ],
          [
            100.493979,
            28.390543
          ],
          [
            100.494049,
            28.390471
          ],
          [
            100.494024,
            28.39028
          ],
          [
            100.493864,
            28.39014
          ],
          [
            100.493486,
            28.390084
          ],
          [
            100.492832,
            28.389631
          ],
          [
            100.492447,
            28.389531
          ],
          [
            100.492273,
            28.389346
          ],
          [
            100.49191,
            28.38924
          ],
          [
            100.491779,
            28.389456
          ],
          [
            100.491547,
            28.389512
          ],
          [
            100.491346,
            28.389387
          ],
          [
            100.489756,
            28.389466
          ],
          [
            100.489438,
            28.389345
          ],
          [
            100.489074,
            28.389562
          ],
          [
            100.489052,
            28.389356
          ],
          [
            100.488921,
            28.389399
          ],
          [
            100.488713,
            28.389325
          ],
          [
            100.488893,
            28.389146
          ],
          [
            100.48881,
            28.389156
          ],
          [
            100.488841,
            28.389001
          ],
          [
            100.488627,
            28.389207
          ],
          [
            100.48835,
            28.389251
          ],
          [
            100.488137,
            28.389252
          ],
          [
            100.488129,
            28.389181
          ],
          [
            100.48803,
            28.389246
          ],
          [
            100.488024,
            28.389171
          ],
          [
            100.487845,
            28.389252
          ],
          [
            100.487752,
            28.389168
          ],
          [
            100.487555,
            28.389312
          ],
          [
            100.487501,
            28.389219
          ],
          [
            100.48732,
            28.389241
          ],
          [
            100.486908,
            28.389533
          ],
          [
            100.486644,
            28.389488
          ],
          [
            100.486609,
            28.389343
          ],
          [
            100.486354,
            28.389407
          ],
          [
            100.486384,
            28.389343
          ],
          [
            100.48615,
            28.389491
          ],
          [
            100.485706,
            28.389462
          ],
          [
            100.485368,
            28.389591
          ],
          [
            100.485096,
            28.38964
          ],
          [
            100.484936,
            28.389568
          ],
          [
            100.484733,
            28.389664
          ],
          [
            100.483472,
            28.389455
          ],
          [
            100.482946,
            28.389241
          ],
          [
            100.482649,
            28.389261
          ],
          [
            100.482443,
            28.389107
          ],
          [
            100.480996,
            28.389278
          ],
          [
            100.480539,
            28.389216
          ],
          [
            100.480138,
            28.389318
          ],
          [
            100.479748,
            28.388813
          ],
          [
            100.479301,
            28.388637
          ],
          [
            100.479292,
            28.388572
          ],
          [
            100.479039,
            28.388624
          ],
          [
            100.478499,
            28.388488
          ],
          [
            100.478145,
            28.388515
          ],
          [
            100.478021,
            28.388435
          ],
          [
            100.477446,
            28.3886
          ],
          [
            100.477112,
            28.388397
          ],
          [
            100.476523,
            28.388274
          ],
          [
            100.476722,
            28.388304
          ],
          [
            100.47689,
            28.388143
          ],
          [
            100.476698,
            28.388277
          ],
          [
            100.476445,
            28.388276
          ],
          [
            100.476093,
            28.388399
          ],
          [
            100.475906,
            28.388319
          ],
          [
            100.47614,
            28.388175
          ],
          [
            100.47603,
            28.388186
          ],
          [
            100.475924,
            28.388435
          ],
          [
            100.475949,
            28.388339
          ],
          [
            100.476192,
            28.388357
          ],
          [
            100.476299,
            28.388273
          ],
          [
            100.476651,
            28.388326
          ],
          [
            100.476962,
            28.388065
          ],
          [
            100.476968,
            28.388124
          ],
          [
            100.476059,
            28.388409
          ],
          [
            100.476013,
            28.388268
          ],
          [
            100.47592,
            28.388318
          ],
          [
            100.475984,
            28.388224
          ],
          [
            100.475737,
            28.388234
          ],
          [
            100.475554,
            28.388089
          ],
          [
            100.474773,
            28.388064
          ],
          [
            100.474491,
            28.387973
          ],
          [
            100.473315,
            28.387153
          ],
          [
            100.472803,
            28.387124
          ],
          [
            100.472604,
            28.386871
          ],
          [
            100.472351,
            28.386755
          ],
          [
            100.471504,
            28.386556
          ],
          [
            100.471348,
            28.386347
          ],
          [
            100.47138,
            28.386184
          ],
          [
            100.4708,
            28.385736
          ],
          [
            100.470141,
            28.385459
          ],
          [
            100.469585,
            28.385276
          ],
          [
            100.468369,
            28.385236
          ],
          [
            100.468289,
            28.385117
          ],
          [
            100.467647,
            28.384946
          ],
          [
            100.466969,
            28.384634
          ],
          [
            100.466288,
            28.384606
          ],
          [
            100.465362,
            28.384254
          ],
          [
            100.464777,
            28.384164
          ],
          [
            100.464358,
            28.383795
          ],
          [
            100.463555,
            28.383541
          ],
          [
            100.463069,
            28.383219
          ],
          [
            100.462324,
            28.383059
          ],
          [
            100.461957,
            28.382731
          ],
          [
            100.461202,
            28.382743
          ],
          [
            100.460542,
            28.382525
          ],
          [
            100.460355,
            28.382362
          ],
          [
            100.459936,
            28.38225
          ],
          [
            100.459578,
            28.38205
          ],
          [
            100.459652,
            28.382066
          ],
          [
            100.459453,
            28.381831
          ],
          [
            100.458793,
            28.381413
          ],
          [
            100.458811,
            28.381182
          ],
          [
            100.45856,
            28.380586
          ],
          [
            100.458222,
            28.38046
          ],
          [
            100.458163,
            28.380301
          ],
          [
            100.457986,
            28.380196
          ],
          [
            100.457924,
            28.379988
          ],
          [
            100.457577,
            28.379718
          ],
          [
            100.457036,
            28.379057
          ],
          [
            100.456648,
            28.378459
          ],
          [
            100.456098,
            28.378233
          ],
          [
            100.455805,
            28.37773
          ],
          [
            100.455864,
            28.377723
          ],
          [
            100.455398,
            28.377528
          ],
          [
            100.455002,
            28.377242
          ],
          [
            100.453967,
            28.375879
          ],
          [
            100.453647,
            28.375723
          ],
          [
            100.452935,
            28.375052
          ],
          [
            100.452938,
            28.37495
          ],
          [
            100.452602,
            28.374675
          ],
          [
            100.452369,
            28.374193
          ],
          [
            100.45205,
            28.373844
          ],
          [
            100.451774,
            28.37325
          ],
          [
            100.451603,
            28.37314
          ],
          [
            100.451597,
            28.373055
          ],
          [
            100.451674,
            28.373051
          ],
          [
            100.451337,
            28.373033
          ],
          [
            100.450976,
            28.372741
          ],
          [
            100.450486,
            28.372538
          ],
          [
            100.450177,
            28.372182
          ],
          [
            100.449688,
            28.372001
          ],
          [
            100.449518,
            28.371792
          ],
          [
            100.448791,
            28.371454
          ],
          [
            100.448642,
            28.371288
          ],
          [
            100.448635,
            28.371141
          ],
          [
            100.448767,
            28.371211
          ],
          [
            100.44893,
            28.37117
          ],
          [
            100.448637,
            28.371044
          ],
          [
            100.448648,
            28.371141
          ],
          [
            100.448503,
            28.371015
          ],
          [
            100.448534,
            28.37111
          ],
          [
            100.448373,
            28.370896
          ],
          [
            100.448169,
            28.370829
          ],
          [
            100.448253,
            28.370769
          ],
          [
            100.448172,
            28.370678
          ],
          [
            100.447671,
            28.370389
          ],
          [
            100.447252,
            28.369984
          ],
          [
            100.446953,
            28.369926
          ],
          [
            100.447149,
            28.369918
          ],
          [
            100.447266,
            28.370032
          ],
          [
            100.446659,
            28.369775
          ],
          [
            100.44636,
            28.369901
          ],
          [
            100.445382,
            28.369544
          ],
          [
            100.444964,
            28.369569
          ],
          [
            100.444643,
            28.369449
          ],
          [
            100.4449,
            28.369461
          ],
          [
            100.444644,
            28.369408
          ],
          [
            100.444675,
            28.369493
          ],
          [
            100.444484,
            28.369411
          ],
          [
            100.444706,
            28.369409
          ],
          [
            100.444569,
            28.369367
          ],
          [
            100.444654,
            28.369459
          ],
          [
            100.44469,
            28.369377
          ],
          [
            100.444616,
            28.369449
          ],
          [
            100.44447,
            28.36935
          ],
          [
            100.44414,
            28.368987
          ],
          [
            100.443964,
            28.368639
          ],
          [
            100.443949,
            28.368312
          ],
          [
            100.443842,
            28.368292
          ],
          [
            100.443579,
            28.367961
          ],
          [
            100.443029,
            28.367534
          ],
          [
            100.44298,
            28.366831
          ],
          [
            100.442813,
            28.366573
          ],
          [
            100.442416,
            28.366476
          ],
          [
            100.442333,
            28.366378
          ],
          [
            100.441981,
            28.366379
          ],
          [
            100.441853,
            28.36647
          ],
          [
            100.441454,
            28.366307
          ],
          [
            100.441251,
            28.366121
          ],
          [
            100.440222,
            28.365855
          ],
          [
            100.439791,
            28.36541
          ],
          [
            100.43939,
            28.365149
          ],
          [
            100.438282,
            28.364777
          ],
          [
            100.438187,
            28.364484
          ],
          [
            100.438251,
            28.364221
          ],
          [
            100.438104,
            28.363995
          ],
          [
            100.437739,
            28.363903
          ],
          [
            100.437255,
            28.363997
          ],
          [
            100.436588,
            28.363851
          ],
          [
            100.436119,
            28.363874
          ],
          [
            100.435619,
            28.363693
          ],
          [
            100.435354,
            28.363725
          ],
          [
            100.434694,
            28.364014
          ],
          [
            100.434196,
            28.363884
          ],
          [
            100.433122,
            28.36325
          ],
          [
            100.433137,
            28.363168
          ],
          [
            100.43295,
            28.363076
          ],
          [
            100.432651,
            28.363028
          ],
          [
            100.432352,
            28.363159
          ],
          [
            100.432124,
            28.363065
          ],
          [
            100.431648,
            28.363037
          ],
          [
            100.432251,
            28.363112
          ],
          [
            100.432216,
            28.36322
          ],
          [
            100.431548,
            28.363516
          ],
          [
            100.430806,
            28.36404
          ],
          [
            100.430831,
            28.364166
          ],
          [
            100.430483,
            28.364398
          ],
          [
            100.429994,
            28.364576
          ],
          [
            100.43002,
            28.36466
          ],
          [
            100.428586,
            28.364915
          ],
          [
            100.42836,
            28.365141
          ],
          [
            100.428237,
            28.365128
          ],
          [
            100.428235,
            28.365197
          ],
          [
            100.428112,
            28.365227
          ],
          [
            100.4276,
            28.365121
          ],
          [
            100.427041,
            28.36531
          ],
          [
            100.427003,
            28.365108
          ],
          [
            100.426901,
            28.365159
          ],
          [
            100.426173,
            28.365077
          ],
          [
            100.425935,
            28.36497
          ],
          [
            100.425719,
            28.365038
          ],
          [
            100.425538,
            28.365244
          ],
          [
            100.425361,
            28.365137
          ],
          [
            100.423734,
            28.364842
          ],
          [
            100.423269,
            28.364901
          ],
          [
            100.422819,
            28.364844
          ],
          [
            100.422085,
            28.365064
          ],
          [
            100.421794,
            28.364927
          ],
          [
            100.421378,
            28.364922
          ],
          [
            100.421151,
            28.364696
          ],
          [
            100.420918,
            28.364781
          ],
          [
            100.420873,
            28.364667
          ],
          [
            100.420477,
            28.364486
          ],
          [
            100.419851,
            28.364327
          ],
          [
            100.419116,
            28.364309
          ],
          [
            100.418691,
            28.364195
          ],
          [
            100.418069,
            28.364274
          ],
          [
            100.41764,
            28.364015
          ],
          [
            100.417646,
            28.364066
          ],
          [
            100.41742,
            28.364066
          ],
          [
            100.416919,
            28.363971
          ],
          [
            100.415721,
            28.364303
          ],
          [
            100.415312,
            28.364049
          ],
          [
            100.414891,
            28.364019
          ],
          [
            100.413774,
            28.363745
          ],
          [
            100.412911,
            28.363361
          ],
          [
            100.412779,
            28.363092
          ],
          [
            100.412301,
            28.363039
          ],
          [
            100.412201,
            28.362879
          ],
          [
            100.411989,
            28.362762
          ],
          [
            100.411866,
            28.362531
          ],
          [
            100.411617,
            28.362412
          ],
          [
            100.411191,
            28.362405
          ],
          [
            100.410088,
            28.361979
          ],
          [
            100.409477,
            28.361911
          ],
          [
            100.409534,
            28.361953
          ],
          [
            100.409431,
            28.362053
          ],
          [
            100.409699,
            28.36184
          ],
          [
            100.409486,
            28.362123
          ],
          [
            100.4091,
            28.362268
          ],
          [
            100.408222,
            28.362884
          ],
          [
            100.407447,
            28.362761
          ],
          [
            100.406898,
            28.362451
          ],
          [
            100.406298,
            28.362443
          ],
          [
            100.40571,
            28.362137
          ],
          [
            100.40512,
            28.362095
          ],
          [
            100.404602,
            28.361839
          ],
          [
            100.404197,
            28.361768
          ],
          [
            100.403398,
            28.361866
          ],
          [
            100.402833,
            28.361541
          ],
          [
            100.402291,
            28.361404
          ],
          [
            100.401769,
            28.360791
          ],
          [
            100.40099,
            28.360367
          ],
          [
            100.400958,
            28.360096
          ],
          [
            100.401108,
            28.35986
          ],
          [
            100.400924,
            28.359876
          ],
          [
            100.400886,
            28.359772
          ],
          [
            100.400741,
            28.359822
          ],
          [
            100.400578,
            28.359456
          ],
          [
            100.400608,
            28.359351
          ],
          [
            100.400869,
            28.35927
          ],
          [
            100.400911,
            28.35916
          ],
          [
            100.400583,
            28.359028
          ],
          [
            100.400196,
            28.359042
          ],
          [
            100.399939,
            28.358874
          ],
          [
            100.399839,
            28.35896
          ],
          [
            100.399534,
            28.358964
          ],
          [
            100.39927,
            28.359151
          ],
          [
            100.398882,
            28.359216
          ],
          [
            100.398616,
            28.359011
          ],
          [
            100.398233,
            28.359014
          ],
          [
            100.397969,
            28.358837
          ],
          [
            100.397555,
            28.35877
          ],
          [
            100.397414,
            28.358604
          ],
          [
            100.396785,
            28.358603
          ],
          [
            100.396963,
            28.357984
          ],
          [
            100.396767,
            28.357843
          ],
          [
            100.396649,
            28.357215
          ],
          [
            100.395967,
            28.35663
          ],
          [
            100.39582,
            28.356235
          ],
          [
            100.395665,
            28.356065
          ],
          [
            100.395689,
            28.356117
          ],
          [
            100.395791,
            28.356074
          ],
          [
            100.395128,
            28.356073
          ],
          [
            100.394827,
            28.355987
          ],
          [
            100.394723,
            28.356066
          ],
          [
            100.394358,
            28.355844
          ],
          [
            100.394275,
            28.355983
          ],
          [
            100.394062,
            28.3558
          ],
          [
            100.393787,
            28.355796
          ],
          [
            100.393778,
            28.355706
          ],
          [
            100.393017,
            28.355495
          ],
          [
            100.392907,
            28.355599
          ],
          [
            100.391854,
            28.355648
          ],
          [
            100.391285,
            28.355056
          ],
          [
            100.390999,
            28.355038
          ],
          [
            100.390491,
            28.354843
          ],
          [
            100.389718,
            28.354925
          ],
          [
            100.389427,
            28.354709
          ],
          [
            100.389241,
            28.354712
          ],
          [
            100.389117,
            28.354501
          ],
          [
            100.388736,
            28.354366
          ],
          [
            100.388153,
            28.354637
          ],
          [
            100.388011,
            28.354395
          ],
          [
            100.38784,
            28.354453
          ],
          [
            100.387566,
            28.354404
          ],
          [
            100.387493,
            28.354526
          ],
          [
            100.387539,
            28.354469
          ],
          [
            100.387293,
            28.35454
          ],
          [
            100.387004,
            28.354499
          ],
          [
            100.386993,
            28.35432
          ],
          [
            100.386646,
            28.354039
          ],
          [
            100.386341,
            28.354024
          ],
          [
            100.386288,
            28.35388
          ],
          [
            100.385574,
            28.353647
          ],
          [
            100.385026,
            28.353198
          ],
          [
            100.384756,
            28.353148
          ],
          [
            100.384224,
            28.352804
          ],
          [
            100.383512,
            28.352484
          ],
          [
            100.381778,
            28.351804
          ],
          [
            100.380306,
            28.351538
          ],
          [
            100.380129,
            28.351361
          ],
          [
            100.37985,
            28.35127
          ],
          [
            100.379372,
            28.351253
          ],
          [
            100.378066,
            28.350918
          ],
          [
            100.376956,
            28.350743
          ],
          [
            100.37563,
            28.349816
          ],
          [
            100.374712,
            28.349396
          ],
          [
            100.374322,
            28.349363
          ],
          [
            100.373734,
            28.349062
          ],
          [
            100.373639,
            28.348757
          ],
          [
            100.373511,
            28.348768
          ],
          [
            100.373469,
            28.348855
          ],
          [
            100.373508,
            28.34864
          ],
          [
            100.373323,
            28.348436
          ],
          [
            100.372552,
            28.348291
          ],
          [
            100.371723,
            28.34805
          ],
          [
            100.371367,
            28.347868
          ],
          [
            100.371047,
            28.34732
          ],
          [
            100.37082,
            28.347201
          ],
          [
            100.370586,
            28.346765
          ],
          [
            100.37019,
            28.346624
          ],
          [
            100.369985,
            28.346705
          ],
          [
            100.369807,
            28.346423
          ],
          [
            100.369482,
            28.346341
          ],
          [
            100.36921,
            28.346079
          ],
          [
            100.367771,
            28.345345
          ],
          [
            100.367177,
            28.344835
          ],
          [
            100.367165,
            28.344683
          ],
          [
            100.367069,
            28.344658
          ],
          [
            100.367227,
            28.344877
          ],
          [
            100.367051,
            28.344644
          ],
          [
            100.366941,
            28.344834
          ],
          [
            100.366915,
            28.344734
          ],
          [
            100.366912,
            28.344866
          ],
          [
            100.367111,
            28.34469
          ],
          [
            100.36701,
            28.344525
          ],
          [
            100.367064,
            28.344646
          ],
          [
            100.367007,
            28.34456
          ],
          [
            100.366998,
            28.344626
          ],
          [
            100.367116,
            28.344703
          ],
          [
            100.367226,
            28.344602
          ],
          [
            100.367098,
            28.344697
          ],
          [
            100.366993,
            28.344638
          ],
          [
            100.366385,
            28.344023
          ],
          [
            100.365948,
            28.343349
          ],
          [
            100.365905,
            28.343045
          ],
          [
            100.365768,
            28.343074
          ],
          [
            100.365182,
            28.342917
          ],
          [
            100.364705,
            28.342632
          ],
          [
            100.364385,
            28.342364
          ],
          [
            100.363942,
            28.341627
          ],
          [
            100.363471,
            28.341348
          ],
          [
            100.363379,
            28.341211
          ],
          [
            100.362268,
            28.340881
          ],
          [
            100.361594,
            28.340494
          ],
          [
            100.361576,
            28.339899
          ],
          [
            100.36143,
            28.339764
          ],
          [
            100.361389,
            28.339505
          ],
          [
            100.361261,
            28.339532
          ],
          [
            100.360872,
            28.339149
          ],
          [
            100.360243,
            28.338864
          ],
          [
            100.359423,
            28.338079
          ],
          [
            100.358522,
            28.337738
          ],
          [
            100.35806,
            28.337405
          ],
          [
            100.357638,
            28.337248
          ],
          [
            100.357521,
            28.337052
          ],
          [
            100.357549,
            28.336847
          ],
          [
            100.35695,
            28.336719
          ],
          [
            100.356758,
            28.336468
          ],
          [
            100.356621,
            28.336419
          ],
          [
            100.356614,
            28.336245
          ],
          [
            100.356491,
            28.336115
          ],
          [
            100.356558,
            28.336069
          ],
          [
            100.35583,
            28.335868
          ],
          [
            100.35509,
            28.335833
          ],
          [
            100.354682,
            28.335701
          ],
          [
            100.354274,
            28.335423
          ],
          [
            100.353535,
            28.335141
          ],
          [
            100.353491,
            28.335058
          ],
          [
            100.353209,
            28.335188
          ],
          [
            100.352789,
            28.335208
          ],
          [
            100.352668,
            28.33501
          ],
          [
            100.35237,
            28.334911
          ],
          [
            100.352069,
            28.334628
          ],
          [
            100.351739,
            28.334653
          ],
          [
            100.351469,
            28.334579
          ],
          [
            100.351337,
            28.334294
          ],
          [
            100.351189,
            28.334216
          ],
          [
            100.351065,
            28.333859
          ],
          [
            100.35048,
            28.3338
          ],
          [
            100.349795,
            28.333552
          ],
          [
            100.34914,
            28.33346
          ],
          [
            100.348995,
            28.333231
          ],
          [
            100.348719,
            28.333207
          ],
          [
            100.348658,
            28.333287
          ],
          [
            100.348078,
            28.332891
          ],
          [
            100.348245,
            28.332793
          ],
          [
            100.348769,
            28.332754
          ],
          [
            100.349086,
            28.332829
          ],
          [
            100.349029,
            28.332899
          ],
          [
            100.349592,
            28.332902
          ],
          [
            100.349881,
            28.333145
          ],
          [
            100.349591,
            28.332874
          ],
          [
            100.348815,
            28.332897
          ],
          [
            100.347608,
            28.332635
          ],
          [
            100.347105,
            28.332237
          ],
          [
            100.34655,
            28.331995
          ],
          [
            100.345982,
            28.331925
          ],
          [
            100.345731,
            28.331724
          ],
          [
            100.345343,
            28.331677
          ],
          [
            100.345274,
            28.331494
          ],
          [
            100.344805,
            28.331304
          ],
          [
            100.344458,
            28.33126
          ],
          [
            100.343817,
            28.331346
          ],
          [
            100.343607,
            28.331269
          ],
          [
            100.342965,
            28.331416
          ],
          [
            100.342727,
            28.331148
          ],
          [
            100.342885,
            28.331161
          ],
          [
            100.342722,
            28.331
          ],
          [
            100.341664,
            28.330627
          ],
          [
            100.341422,
            28.330672
          ],
          [
            100.341226,
            28.330403
          ],
          [
            100.340721,
            28.330304
          ],
          [
            100.34058,
            28.330203
          ],
          [
            100.340076,
            28.3292
          ],
          [
            100.340253,
            28.328961
          ],
          [
            100.340159,
            28.328907
          ],
          [
            100.339997,
            28.328355
          ],
          [
            100.340082,
            28.327894
          ],
          [
            100.34042,
            28.327595
          ],
          [
            100.34081,
            28.327529
          ],
          [
            100.340793,
            28.327399
          ],
          [
            100.34101,
            28.327231
          ],
          [
            100.340945,
            28.327051
          ],
          [
            100.341048,
            28.326946
          ],
          [
            100.340999,
            28.326738
          ],
          [
            100.341203,
            28.326324
          ],
          [
            100.341037,
            28.326098
          ],
          [
            100.341149,
            28.325725
          ],
          [
            100.341001,
            28.325432
          ],
          [
            100.340808,
            28.325536
          ],
          [
            100.340892,
            28.325402
          ],
          [
            100.340978,
            28.32543
          ],
          [
            100.340706,
            28.325207
          ],
          [
            100.340584,
            28.324845
          ],
          [
            100.34062,
            28.324184
          ],
          [
            100.3409,
            28.323639
          ],
          [
            100.341288,
            28.323521
          ],
          [
            100.34145,
            28.323314
          ],
          [
            100.340749,
            28.322666
          ],
          [
            100.34023,
            28.321994
          ],
          [
            100.339778,
            28.321967
          ],
          [
            100.339446,
            28.321759
          ],
          [
            100.339203,
            28.321321
          ],
          [
            100.339276,
            28.321048
          ],
          [
            100.339159,
            28.321063
          ],
          [
            100.338881,
            28.320869
          ],
          [
            100.338884,
            28.320499
          ],
          [
            100.338618,
            28.319592
          ],
          [
            100.33848,
            28.31841
          ],
          [
            100.338685,
            28.317955
          ],
          [
            100.338723,
            28.317743
          ],
          [
            100.338656,
            28.317649
          ],
          [
            100.33882,
            28.316909
          ],
          [
            100.339775,
            28.315552
          ],
          [
            100.340016,
            28.31541
          ],
          [
            100.340462,
            28.315449
          ],
          [
            100.340571,
            28.314888
          ],
          [
            100.340513,
            28.314524
          ],
          [
            100.340327,
            28.314269
          ],
          [
            100.340351,
            28.313967
          ],
          [
            100.3399,
            28.313176
          ],
          [
            100.339926,
            28.313035
          ],
          [
            100.339727,
            28.312434
          ],
          [
            100.339368,
            28.31213
          ],
          [
            100.339084,
            28.311557
          ],
          [
            100.338723,
            28.31117
          ],
          [
            100.338701,
            28.309875
          ],
          [
            100.338429,
            28.309532
          ],
          [
            100.338313,
            28.309026
          ],
          [
            100.337818,
            28.308546
          ],
          [
            100.337686,
            28.308515
          ],
          [
            100.337441,
            28.308604
          ],
          [
            100.337374,
            28.308421
          ],
          [
            100.337431,
            28.308248
          ],
          [
            100.337216,
            28.308228
          ],
          [
            100.336798,
            28.307796
          ],
          [
            100.336675,
            28.307366
          ],
          [
            100.336278,
            28.307102
          ],
          [
            100.33615,
            28.306782
          ],
          [
            100.335852,
            28.306426
          ],
          [
            100.335658,
            28.30637
          ],
          [
            100.335574,
            28.30607
          ],
          [
            100.335365,
            28.305805
          ],
          [
            100.335085,
            28.305555
          ],
          [
            100.334489,
            28.305286
          ],
          [
            100.334102,
            28.304884
          ],
          [
            100.333693,
            28.304754
          ],
          [
            100.333141,
            28.304694
          ],
          [
            100.332743,
            28.304766
          ],
          [
            100.332257,
            28.304616
          ],
          [
            100.332064,
            28.304704
          ],
          [
            100.331966,
            28.304618
          ],
          [
            100.332078,
            28.304876
          ],
          [
            100.33162,
            28.305371
          ],
          [
            100.331162,
            28.306168
          ],
          [
            100.330239,
            28.307006
          ],
          [
            100.329909,
            28.307157
          ],
          [
            100.329635,
            28.307657
          ],
          [
            100.329369,
            28.30859
          ],
          [
            100.329382,
            28.309157
          ],
          [
            100.329232,
            28.30937
          ],
          [
            100.329459,
            28.310623
          ],
          [
            100.329289,
            28.310896
          ],
          [
            100.329242,
            28.311415
          ],
          [
            100.328969,
            28.312331
          ],
          [
            100.328989,
            28.312646
          ],
          [
            100.329093,
            28.312823
          ],
          [
            100.3288,
            28.312959
          ],
          [
            100.328704,
            28.314067
          ],
          [
            100.328513,
            28.314524
          ],
          [
            100.328527,
            28.314701
          ],
          [
            100.328385,
            28.314918
          ],
          [
            100.328233,
            28.3159
          ],
          [
            100.328037,
            28.316367
          ],
          [
            100.327991,
            28.317057
          ],
          [
            100.327697,
            28.317896
          ],
          [
            100.326938,
            28.319092
          ],
          [
            100.326748,
            28.319265
          ],
          [
            100.326383,
            28.320322
          ],
          [
            100.32633,
            28.320214
          ],
          [
            100.326346,
            28.320958
          ],
          [
            100.326125,
            28.321752
          ],
          [
            100.326207,
            28.322535
          ],
          [
            100.326145,
            28.322989
          ],
          [
            100.326247,
            28.323353
          ],
          [
            100.3268,
            28.32419
          ],
          [
            100.326663,
            28.324451
          ],
          [
            100.326408,
            28.32574
          ],
          [
            100.326438,
            28.326066
          ],
          [
            100.326771,
            28.326602
          ],
          [
            100.326336,
            28.327348
          ],
          [
            100.326268,
            28.32775
          ],
          [
            100.325682,
            28.328686
          ],
          [
            100.325587,
            28.328989
          ],
          [
            100.325729,
            28.329334
          ],
          [
            100.325981,
            28.329535
          ],
          [
            100.326178,
            28.330482
          ],
          [
            100.326206,
            28.330959
          ],
          [
            100.325957,
            28.331165
          ],
          [
            100.325907,
            28.331085
          ],
          [
            100.325965,
            28.331134
          ],
          [
            100.326133,
            28.331051
          ],
          [
            100.326052,
            28.331114
          ],
          [
            100.326142,
            28.331001
          ],
          [
            100.326439,
            28.331602
          ],
          [
            100.326293,
            28.33225
          ],
          [
            100.326423,
            28.332807
          ],
          [
            100.325932,
            28.333326
          ],
          [
            100.326029,
            28.333918
          ],
          [
            100.325617,
            28.334163
          ],
          [
            100.325579,
            28.334382
          ],
          [
            100.32592,
            28.334754
          ],
          [
            100.325986,
            28.335022
          ],
          [
            100.326212,
            28.33532
          ],
          [
            100.326348,
            28.336109
          ],
          [
            100.326666,
            28.3366
          ],
          [
            100.326654,
            28.336973
          ],
          [
            100.326495,
            28.337298
          ],
          [
            100.326223,
            28.337468
          ],
          [
            100.325802,
            28.337994
          ],
          [
            100.325661,
            28.338331
          ],
          [
            100.32561,
            28.338781
          ],
          [
            100.325716,
            28.33904
          ],
          [
            100.325421,
            28.339854
          ],
          [
            100.325577,
            28.340784
          ],
          [
            100.325701,
            28.341032
          ],
          [
            100.325514,
            28.341559
          ],
          [
            100.325578,
            28.341798
          ],
          [
            100.32498,
            28.343625
          ],
          [
            100.324391,
            28.344575
          ],
          [
            100.324247,
            28.34573
          ],
          [
            100.324454,
            28.346182
          ],
          [
            100.324327,
            28.346791
          ],
          [
            100.324409,
            28.347319
          ],
          [
            100.324182,
            28.348281
          ],
          [
            100.323674,
            28.349191
          ],
          [
            100.323383,
            28.349394
          ],
          [
            100.323226,
            28.349792
          ],
          [
            100.323228,
            28.350238
          ],
          [
            100.323178,
            28.350137
          ],
          [
            100.323072,
            28.350155
          ],
          [
            100.323271,
            28.350111
          ],
          [
            100.323346,
            28.350183
          ],
          [
            100.323334,
            28.35011
          ],
          [
            100.323353,
            28.350174
          ],
          [
            100.323051,
            28.35003
          ],
          [
            100.322834,
            28.350036
          ],
          [
            100.322693,
            28.350273
          ],
          [
            100.322819,
            28.350636
          ],
          [
            100.322997,
            28.350656
          ],
          [
            100.322971,
            28.350722
          ],
          [
            100.323429,
            28.351198
          ],
          [
            100.323548,
            28.351208
          ],
          [
            100.3238,
            28.351741
          ],
          [
            100.324056,
            28.352
          ],
          [
            100.324368,
            28.352525
          ],
          [
            100.324235,
            28.352696
          ],
          [
            100.324426,
            28.352599
          ],
          [
            100.324638,
            28.3527
          ],
          [
            100.324855,
            28.352933
          ],
          [
            100.325011,
            28.353296
          ],
          [
            100.325317,
            28.353541
          ],
          [
            100.325377,
            28.353686
          ],
          [
            100.325285,
            28.353771
          ],
          [
            100.325418,
            28.354191
          ],
          [
            100.325618,
            28.354308
          ],
          [
            100.32571,
            28.354548
          ],
          [
            100.32605,
            28.35479
          ],
          [
            100.326017,
            28.355032
          ],
          [
            100.326185,
            28.355406
          ],
          [
            100.326657,
            28.355501
          ],
          [
            100.326748,
            28.355429
          ],
          [
            100.327439,
            28.355624
          ],
          [
            100.327783,
            28.355557
          ],
          [
            100.328125,
            28.355641
          ],
          [
            100.328378,
            28.355835
          ],
          [
            100.32866,
            28.356347
          ],
          [
            100.329099,
            28.356862
          ],
          [
            100.3293,
            28.357267
          ],
          [
            100.329375,
            28.357766
          ],
          [
            100.329538,
            28.357984
          ],
          [
            100.32987,
            28.358182
          ],
          [
            100.329891,
            28.358825
          ],
          [
            100.329704,
            28.359261
          ],
          [
            100.329767,
            28.359993
          ],
          [
            100.329516,
            28.360211
          ],
          [
            100.329329,
            28.36026
          ],
          [
            100.329243,
            28.360425
          ],
          [
            100.329317,
            28.360557
          ],
          [
            100.329204,
            28.360474
          ],
          [
            100.328465,
            28.360339
          ],
          [
            100.328475,
            28.360221
          ],
          [
            100.328611,
            28.360539
          ],
          [
            100.329127,
            28.360796
          ],
          [
            100.329223,
            28.360927
          ],
          [
            100.328801,
            28.361316
          ],
          [
            100.328919,
            28.361711
          ],
          [
            100.329566,
            28.362421
          ],
          [
            100.330865,
            28.362872
          ],
          [
            100.33123,
            28.362885
          ],
          [
            100.331586,
            28.363083
          ],
          [
            100.331783,
            28.363088
          ],
          [
            100.332699,
            28.363654
          ],
          [
            100.333373,
            28.363811
          ],
          [
            100.334089,
            28.364115
          ],
          [
            100.335015,
            28.364675
          ],
          [
            100.335676,
            28.365282
          ],
          [
            100.336003,
            28.365726
          ],
          [
            100.336737,
            28.365895
          ],
          [
            100.336982,
            28.366222
          ],
          [
            100.337126,
            28.366787
          ],
          [
            100.337664,
            28.367254
          ],
          [
            100.337578,
            28.367491
          ],
          [
            100.337823,
            28.368111
          ],
          [
            100.338164,
            28.368451
          ],
          [
            100.338728,
            28.368759
          ],
          [
            100.339182,
            28.369177
          ],
          [
            100.339904,
            28.37019
          ],
          [
            100.340228,
            28.370893
          ],
          [
            100.340793,
            28.371625
          ],
          [
            100.340903,
            28.372081
          ],
          [
            100.341234,
            28.372465
          ],
          [
            100.341802,
            28.372902
          ],
          [
            100.342296,
            28.373161
          ],
          [
            100.342533,
            28.373559
          ],
          [
            100.343963,
            28.374727
          ],
          [
            100.344397,
            28.375025
          ],
          [
            100.345978,
            28.375757
          ],
          [
            100.346558,
            28.376173
          ],
          [
            100.34756,
            28.37635
          ],
          [
            100.348251,
            28.376198
          ],
          [
            100.348638,
            28.376217
          ],
          [
            100.348678,
            28.376105
          ],
          [
            100.348565,
            28.376095
          ],
          [
            100.348582,
            28.376222
          ],
          [
            100.348637,
            28.376111
          ],
          [
            100.34861,
            28.37621
          ],
          [
            100.348287,
            28.376129
          ],
          [
            100.348394,
            28.375828
          ],
          [
            100.348078,
            28.375646
          ],
          [
            100.348013,
            28.375706
          ],
          [
            100.347938,
            28.375583
          ],
          [
            100.347738,
            28.375511
          ],
          [
            100.347989,
            28.375632
          ],
          [
            100.348093,
            28.375712
          ],
          [
            100.348044,
            28.37574
          ],
          [
            100.348097,
            28.37569
          ],
          [
            100.348668,
            28.376005
          ],
          [
            100.349379,
            28.376253
          ],
          [
            100.349162,
            28.376195
          ],
          [
            100.349067,
            28.376272
          ],
          [
            100.349409,
            28.37663
          ],
          [
            100.350179,
            28.377084
          ],
          [
            100.350307,
            28.37728
          ],
          [
            100.350479,
            28.377312
          ],
          [
            100.350589,
            28.377638
          ],
          [
            100.35106,
            28.377936
          ],
          [
            100.352039,
            28.378291
          ],
          [
            100.352045,
            28.378416
          ],
          [
            100.352083,
            28.378305
          ],
          [
            100.352653,
            28.378261
          ],
          [
            100.352685,
            28.378395
          ],
          [
            100.353068,
            28.37845
          ],
          [
            100.352823,
            28.378401
          ],
          [
            100.352892,
            28.378256
          ],
          [
            100.35267,
            28.378228
          ],
          [
            100.352739,
            28.37829
          ],
          [
            100.352835,
            28.378232
          ],
          [
            100.353381,
            28.378277
          ],
          [
            100.353814,
            28.378211
          ],
          [
            100.355011,
            28.378376
          ],
          [
            100.355633,
            28.378358
          ],
          [
            100.355869,
            28.378454
          ],
          [
            100.357156,
            28.378256
          ],
          [
            100.35728,
            28.377973
          ],
          [
            100.357268,
            28.377323
          ],
          [
            100.357631,
            28.377547
          ],
          [
            100.357636,
            28.377266
          ],
          [
            100.357511,
            28.377073
          ],
          [
            100.357825,
            28.377126
          ],
          [
            100.35797,
            28.376921
          ],
          [
            100.357972,
            28.376764
          ],
          [
            100.357735,
            28.376781
          ],
          [
            100.357543,
            28.37654
          ],
          [
            100.357617,
            28.376486
          ],
          [
            100.357548,
            28.376121
          ],
          [
            100.357803,
            28.375974
          ],
          [
            100.35796,
            28.376061
          ],
          [
            100.358168,
            28.375967
          ],
          [
            100.358351,
            28.37612
          ],
          [
            100.358748,
            28.37601
          ],
          [
            100.359361,
            28.376082
          ],
          [
            100.35946,
            28.375982
          ],
          [
            100.359325,
            28.375806
          ],
          [
            100.360196,
            28.375695
          ],
          [
            100.360635,
            28.375855
          ],
          [
            100.360718,
            28.375956
          ],
          [
            100.36088,
            28.375937
          ],
          [
            100.361124,
            28.376077
          ],
          [
            100.361461,
            28.376124
          ],
          [
            100.361592,
            28.376243
          ],
          [
            100.361931,
            28.376226
          ],
          [
            100.361926,
            28.376278
          ],
          [
            100.362064,
            28.376174
          ],
          [
            100.362143,
            28.376242
          ],
          [
            100.362046,
            28.376228
          ],
          [
            100.361957,
            28.376129
          ],
          [
            100.362012,
            28.376116
          ],
          [
            100.362118,
            28.376295
          ],
          [
            100.362149,
            28.376236
          ],
          [
            100.362039,
            28.376217
          ],
          [
            100.362117,
            28.376248
          ],
          [
            100.362111,
            28.37639
          ],
          [
            100.36205,
            28.376223
          ],
          [
            100.362027,
            28.376296
          ],
          [
            100.362412,
            28.376718
          ],
          [
            100.362552,
            28.376998
          ],
          [
            100.362717,
            28.377169
          ],
          [
            100.36304,
            28.37731
          ],
          [
            100.363227,
            28.377725
          ],
          [
            100.364027,
            28.378491
          ],
          [
            100.36455,
            28.379238
          ],
          [
            100.364529,
            28.379417
          ],
          [
            100.364891,
            28.379749
          ],
          [
            100.364926,
            28.379932
          ],
          [
            100.365323,
            28.380029
          ],
          [
            100.365783,
            28.380303
          ],
          [
            100.36625,
            28.380375
          ],
          [
            100.366419,
            28.3806
          ],
          [
            100.366861,
            28.380857
          ],
          [
            100.366952,
            28.381073
          ],
          [
            100.367275,
            28.381139
          ],
          [
            100.367467,
            28.38141
          ],
          [
            100.367847,
            28.381604
          ],
          [
            100.368791,
            28.381581
          ],
          [
            100.369285,
            28.381481
          ],
          [
            100.369268,
            28.381599
          ],
          [
            100.369287,
            28.3815
          ],
          [
            100.369295,
            28.381559
          ],
          [
            100.369507,
            28.381517
          ],
          [
            100.369759,
            28.381719
          ],
          [
            100.36965,
            28.38164
          ],
          [
            100.369651,
            28.381562
          ],
          [
            100.36976,
            28.381532
          ],
          [
            100.370358,
            28.381805
          ],
          [
            100.370545,
            28.381653
          ],
          [
            100.371394,
            28.381644
          ],
          [
            100.371836,
            28.38205
          ],
          [
            100.371861,
            28.382139
          ],
          [
            100.371775,
            28.382147
          ],
          [
            100.371633,
            28.382419
          ],
          [
            100.37176,
            28.382752
          ],
          [
            100.371894,
            28.382732
          ],
          [
            100.371874,
            28.382915
          ],
          [
            100.372029,
            28.383129
          ],
          [
            100.372577,
            28.383373
          ],
          [
            100.372877,
            28.383285
          ],
          [
            100.373634,
            28.383849
          ],
          [
            100.373927,
            28.383934
          ],
          [
            100.374461,
            28.38476
          ],
          [
            100.376358,
            28.385808
          ],
          [
            100.376636,
            28.385898
          ],
          [
            100.37731,
            28.385853
          ],
          [
            100.378378,
            28.385915
          ],
          [
            100.378748,
            28.385993
          ],
          [
            100.37918,
            28.386212
          ],
          [
            100.379629,
            28.386169
          ],
          [
            100.380042,
            28.386256
          ],
          [
            100.380549,
            28.386187
          ],
          [
            100.381048,
            28.386389
          ],
          [
            100.38131,
            28.386811
          ],
          [
            100.381787,
            28.387073
          ],
          [
            100.381852,
            28.387214
          ],
          [
            100.382383,
            28.387331
          ],
          [
            100.382863,
            28.387644
          ],
          [
            100.383135,
            28.388057
          ],
          [
            100.383143,
            28.388232
          ],
          [
            100.383393,
            28.388531
          ],
          [
            100.383155,
            28.388888
          ],
          [
            100.383394,
            28.389102
          ],
          [
            100.38344,
            28.389318
          ],
          [
            100.383292,
            28.389384
          ]
        ]
      }
    }
  ]
}
