<?xml version="1.0" encoding="UTF-8"?>
<gpx version="1.1" creator="霞客 · 两步路轨迹" xmlns="http://www.topografix.com/GPX/1/1">
  <metadata><name>莫干山古道参考轨迹</name></metadata>
  <trk><name>莫干山古道</name><trkseg>
      <trkpt lat="30.604732" lon="119.88265"><ele>102</ele></trkpt>
      <trkpt lat="30.604723" lon="119.88254"><ele>100</ele></trkpt>
      <trkpt lat="30.604676" lon="119.882443"><ele>100</ele></trkpt>
      <trkpt lat="30.60465" lon="119.882342"><ele>102</ele></trkpt>
      <trkpt lat="30.604633" lon="119.88223"><ele>106</ele></trkpt>
      <trkpt lat="30.60465" lon="119.88212"><ele>107</ele></trkpt>
      <trkpt lat="30.604659" lon="119.88201"><ele>106</ele></trkpt>
      <trkpt lat="30.604688" lon="119.881903"><ele>108</ele></trkpt>
      <trkpt lat="30.604714" lon="119.881803"><ele>106</ele></trkpt>
      <trkpt lat="30.604696" lon="119.881699"><ele>110</ele></trkpt>
      <trkpt lat="30.604661" lon="119.8816"><ele>111</ele></trkpt>
      <trkpt lat="30.604625" lon="119.881493"><ele>111</ele></trkpt>
      <trkpt lat="30.604621" lon="119.881382"><ele>111</ele></trkpt>
      <trkpt lat="30.604646" lon="119.881266"><ele>113</ele></trkpt>
      <trkpt lat="30.604665" lon="119.881161"><ele>114</ele></trkpt>
      <trkpt lat="30.604687" lon="119.881057"><ele>116</ele></trkpt>
      <trkpt lat="30.604722" lon="119.880952"><ele>118</ele></trkpt>
      <trkpt lat="30.604746" lon="119.880843"><ele>117</ele></trkpt>
      <trkpt lat="30.604797" lon="119.880744"><ele>117</ele></trkpt>
      <trkpt lat="30.604873" lon="119.880673"><ele>119</ele></trkpt>
      <trkpt lat="30.604886" lon="119.880562"><ele>118</ele></trkpt>
      <trkpt lat="30.604918" lon="119.880445"><ele>119</ele></trkpt>
      <trkpt lat="30.604954" lon="119.880348"><ele>121</ele></trkpt>
      <trkpt lat="30.604988" lon="119.88025"><ele>122</ele></trkpt>
      <trkpt lat="30.60504" lon="119.880153"><ele>121</ele></trkpt>
      <trkpt lat="30.605078" lon="119.880048"><ele>123</ele></trkpt>
      <trkpt lat="30.605104" lon="119.879946"><ele>123</ele></trkpt>
      <trkpt lat="30.60514" lon="119.879849"><ele>125</ele></trkpt>
      <trkpt lat="30.605149" lon="119.879744"><ele>126</ele></trkpt>
      <trkpt lat="30.605173" lon="119.879642"><ele>126</ele></trkpt>
      <trkpt lat="30.605213" lon="119.879542"><ele>127</ele></trkpt>
      <trkpt lat="30.605237" lon="119.879438"><ele>129</ele></trkpt>
      <trkpt lat="30.605244" lon="119.879326"><ele>130</ele></trkpt>
      <trkpt lat="30.605269" lon="119.879225"><ele>130</ele></trkpt>
      <trkpt lat="30.605285" lon="119.879117"><ele>131</ele></trkpt>
      <trkpt lat="30.605298" lon="119.879008"><ele>133</ele></trkpt>
      <trkpt lat="30.605313" lon="119.878904"><ele>134</ele></trkpt>
      <trkpt lat="30.605326" lon="119.878786"><ele>134</ele></trkpt>
      <trkpt lat="30.605311" lon="119.878678"><ele>135</ele></trkpt>
      <trkpt lat="30.605284" lon="119.878574"><ele>136</ele></trkpt>
      <trkpt lat="30.605262" lon="119.878463"><ele>137</ele></trkpt>
      <trkpt lat="30.605237" lon="119.878357"><ele>137</ele></trkpt>
      <trkpt lat="30.6052" lon="119.878254"><ele>138</ele></trkpt>
      <trkpt lat="30.605181" lon="119.878149"><ele>139</ele></trkpt>
      <trkpt lat="30.605181" lon="119.878042"><ele>140</ele></trkpt>
      <trkpt lat="30.605168" lon="119.877937"><ele>142</ele></trkpt>
      <trkpt lat="30.605171" lon="119.87783"><ele>144</ele></trkpt>
      <trkpt lat="30.605159" lon="119.877719"><ele>146</ele></trkpt>
      <trkpt lat="30.605177" lon="119.877615"><ele>147</ele></trkpt>
      <trkpt lat="30.605182" lon="119.877499"><ele>148</ele></trkpt>
      <trkpt lat="30.605191" lon="119.877389"><ele>147</ele></trkpt>
      <trkpt lat="30.605228" lon="119.877292"><ele>149</ele></trkpt>
      <trkpt lat="30.605297" lon="119.877221"><ele>151</ele></trkpt>
      <trkpt lat="30.605357" lon="119.877143"><ele>155</ele></trkpt>
      <trkpt lat="30.605399" lon="119.877047"><ele>155</ele></trkpt>
      <trkpt lat="30.605484" lon="119.876988"><ele>157</ele></trkpt>
      <trkpt lat="30.605573" lon="119.876951"><ele>161</ele></trkpt>
      <trkpt lat="30.605647" lon="119.876865"><ele>160</ele></trkpt>
      <trkpt lat="30.605703" lon="119.876775"><ele>162</ele></trkpt>
      <trkpt lat="30.605692" lon="119.876667"><ele>163</ele></trkpt>
      <trkpt lat="30.605704" lon="119.876563"><ele>164</ele></trkpt>
      <trkpt lat="30.605608" lon="119.876531"><ele>163</ele></trkpt>
      <trkpt lat="30.605557" lon="119.876437"><ele>166</ele></trkpt>
      <trkpt lat="30.605528" lon="119.876334"><ele>168</ele></trkpt>
      <trkpt lat="30.605494" lon="119.876222"><ele>168</ele></trkpt>
      <trkpt lat="30.605472" lon="119.876114"><ele>170</ele></trkpt>
      <trkpt lat="30.605434" lon="119.876007"><ele>172</ele></trkpt>
      <trkpt lat="30.605409" lon="119.875905"><ele>173</ele></trkpt>
      <trkpt lat="30.605399" lon="119.875799"><ele>177</ele></trkpt>
      <trkpt lat="30.605345" lon="119.87571"><ele>178</ele></trkpt>
      <trkpt lat="30.60533" lon="119.875607"><ele>183</ele></trkpt>
      <trkpt lat="30.605376" lon="119.875514"><ele>185</ele></trkpt>
      <trkpt lat="30.605363" lon="119.875406"><ele>184</ele></trkpt>
      <trkpt lat="30.60542" lon="119.875318"><ele>182</ele></trkpt>
      <trkpt lat="30.605481" lon="119.875234"><ele>184</ele></trkpt>
      <trkpt lat="30.605535" lon="119.87515"><ele>186</ele></trkpt>
      <trkpt lat="30.605603" lon="119.875066"><ele>187</ele></trkpt>
      <trkpt lat="30.605667" lon="119.87499"><ele>189</ele></trkpt>
      <trkpt lat="30.60569" lon="119.874886"><ele>188</ele></trkpt>
      <trkpt lat="30.605736" lon="119.874791"><ele>192</ele></trkpt>
      <trkpt lat="30.605833" lon="119.874735"><ele>194</ele></trkpt>
      <trkpt lat="30.605885" lon="119.874642"><ele>197</ele></trkpt>
      <trkpt lat="30.605867" lon="119.874538"><ele>198</ele></trkpt>
      <trkpt lat="30.605867" lon="119.874427"><ele>197</ele></trkpt>
      <trkpt lat="30.605899" lon="119.874328"><ele>199</ele></trkpt>
      <trkpt lat="30.605942" lon="119.874231"><ele>199</ele></trkpt>
      <trkpt lat="30.606003" lon="119.874149"><ele>199</ele></trkpt>
      <trkpt lat="30.606035" lon="119.874049"><ele>199</ele></trkpt>
      <trkpt lat="30.606103" lon="119.87398"><ele>207</ele></trkpt>
      <trkpt lat="30.606183" lon="119.873928"><ele>206</ele></trkpt>
      <trkpt lat="30.606246" lon="119.873837"><ele>210</ele></trkpt>
      <trkpt lat="30.606317" lon="119.873766"><ele>208</ele></trkpt>
      <trkpt lat="30.606394" lon="119.873711"><ele>208</ele></trkpt>
      <trkpt lat="30.606447" lon="119.873622"><ele>212</ele></trkpt>
      <trkpt lat="30.606519" lon="119.873539"><ele>214</ele></trkpt>
      <trkpt lat="30.606562" lon="119.873447"><ele>215</ele></trkpt>
      <trkpt lat="30.606498" lon="119.873373"><ele>220</ele></trkpt>
      <trkpt lat="30.606412" lon="119.873317"><ele>219</ele></trkpt>
      <trkpt lat="30.606356" lon="119.87323"><ele>219</ele></trkpt>
      <trkpt lat="30.606298" lon="119.873142"><ele>218</ele></trkpt>
      <trkpt lat="30.606232" lon="119.873069"><ele>216</ele></trkpt>
      <trkpt lat="30.606155" lon="119.873004"><ele>221</ele></trkpt>
      <trkpt lat="30.606072" lon="119.872949"><ele>221</ele></trkpt>
      <trkpt lat="30.606026" lon="119.872856"><ele>225</ele></trkpt>
      <trkpt lat="30.606037" lon="119.872748"><ele>233</ele></trkpt>
      <trkpt lat="30.605994" lon="119.872653"><ele>234</ele></trkpt>
      <trkpt lat="30.606014" lon="119.87266"><ele>237</ele></trkpt>
      <trkpt lat="30.605947" lon="119.872584"><ele>236</ele></trkpt>
      <trkpt lat="30.605878" lon="119.872512"><ele>237</ele></trkpt>
      <trkpt lat="30.605828" lon="119.87242"><ele>244</ele></trkpt>
      <trkpt lat="30.605803" lon="119.872317"><ele>242</ele></trkpt>
      <trkpt lat="30.605757" lon="119.872224"><ele>242</ele></trkpt>
      <trkpt lat="30.60572" lon="119.872127"><ele>244</ele></trkpt>
      <trkpt lat="30.605685" lon="119.87203"><ele>251</ele></trkpt>
      <trkpt lat="30.605647" lon="119.871931"><ele>253</ele></trkpt>
      <trkpt lat="30.605615" lon="119.871827"><ele>253</ele></trkpt>
      <trkpt lat="30.605621" lon="119.871718"><ele>254</ele></trkpt>
      <trkpt lat="30.605617" lon="119.87161"><ele>255</ele></trkpt>
      <trkpt lat="30.605605" lon="119.871505"><ele>253</ele></trkpt>
      <trkpt lat="30.605581" lon="119.871392"><ele>253</ele></trkpt>
      <trkpt lat="30.605533" lon="119.871296"><ele>252</ele></trkpt>
      <trkpt lat="30.60548" lon="119.871209"><ele>251</ele></trkpt>
      <trkpt lat="30.605463" lon="119.871104"><ele>254</ele></trkpt>
      <trkpt lat="30.605399" lon="119.871027"><ele>260</ele></trkpt>
      <trkpt lat="30.605342" lon="119.870932"><ele>260</ele></trkpt>
      <trkpt lat="30.605331" lon="119.870823"><ele>261</ele></trkpt>
      <trkpt lat="30.605368" lon="119.870719"><ele>262</ele></trkpt>
      <trkpt lat="30.605405" lon="119.870622"><ele>268</ele></trkpt>
      <trkpt lat="30.605461" lon="119.870535"><ele>271</ele></trkpt>
      <trkpt lat="30.605554" lon="119.870499"><ele>272</ele></trkpt>
      <trkpt lat="30.60564" lon="119.870461"><ele>274</ele></trkpt>
      <trkpt lat="30.605721" lon="119.870413"><ele>275</ele></trkpt>
      <trkpt lat="30.605793" lon="119.870345"><ele>284</ele></trkpt>
      <trkpt lat="30.605812" lon="119.870239"><ele>283</ele></trkpt>
      <trkpt lat="30.605808" lon="119.87012"><ele>280</ele></trkpt>
      <trkpt lat="30.605803" lon="119.870006"><ele>283</ele></trkpt>
      <trkpt lat="30.605888" lon="119.869956"><ele>283</ele></trkpt>
      <trkpt lat="30.605958" lon="119.869883"><ele>286</ele></trkpt>
      <trkpt lat="30.606035" lon="119.869823"><ele>291</ele></trkpt>
      <trkpt lat="30.606102" lon="119.869745"><ele>294</ele></trkpt>
      <trkpt lat="30.606172" lon="119.869677"><ele>301</ele></trkpt>
      <trkpt lat="30.606243" lon="119.869591"><ele>303</ele></trkpt>
      <trkpt lat="30.606303" lon="119.869511"><ele>302</ele></trkpt>
      <trkpt lat="30.606393" lon="119.86946"><ele>302</ele></trkpt>
      <trkpt lat="30.606468" lon="119.869398"><ele>305</ele></trkpt>
      <trkpt lat="30.606558" lon="119.869392"><ele>313</ele></trkpt>
      <trkpt lat="30.606627" lon="119.869323"><ele>315</ele></trkpt>
      <trkpt lat="30.606677" lon="119.869233"><ele>321</ele></trkpt>
      <trkpt lat="30.606729" lon="119.869142"><ele>323</ele></trkpt>
      <trkpt lat="30.606823" lon="119.869129"><ele>331</ele></trkpt>
      <trkpt lat="30.606906" lon="119.869072"><ele>332</ele></trkpt>
      <trkpt lat="30.606992" lon="119.869011"><ele>330</ele></trkpt>
      <trkpt lat="30.607067" lon="119.868955"><ele>331</ele></trkpt>
      <trkpt lat="30.607158" lon="119.868913"><ele>330</ele></trkpt>
      <trkpt lat="30.607245" lon="119.868883"><ele>332</ele></trkpt>
      <trkpt lat="30.607312" lon="119.868812"><ele>338</ele></trkpt>
      <trkpt lat="30.6074" lon="119.868847"><ele>340</ele></trkpt>
      <trkpt lat="30.60749" lon="119.868833"><ele>346</ele></trkpt>
      <trkpt lat="30.607525" lon="119.868726"><ele>351</ele></trkpt>
      <trkpt lat="30.607585" lon="119.86864"><ele>357</ele></trkpt>
      <trkpt lat="30.607667" lon="119.868566"><ele>357</ele></trkpt>
      <trkpt lat="30.607696" lon="119.868461"><ele>359</ele></trkpt>
      <trkpt lat="30.607756" lon="119.868381"><ele>362</ele></trkpt>
      <trkpt lat="30.607771" lon="119.86827"><ele>369</ele></trkpt>
      <trkpt lat="30.607808" lon="119.868174"><ele>372</ele></trkpt>
      <trkpt lat="30.607745" lon="119.868097"><ele>373</ele></trkpt>
      <trkpt lat="30.60768" lon="119.868025"><ele>380</ele></trkpt>
      <trkpt lat="30.607653" lon="119.867922"><ele>379</ele></trkpt>
      <trkpt lat="30.607643" lon="119.867816"><ele>377</ele></trkpt>
      <trkpt lat="30.60758" lon="119.867735"><ele>388</ele></trkpt>
      <trkpt lat="30.607554" lon="119.867631"><ele>393</ele></trkpt>
      <trkpt lat="30.607599" lon="119.867536"><ele>402</ele></trkpt>
      <trkpt lat="30.607504" lon="119.867543"><ele>408</ele></trkpt>
      <trkpt lat="30.60742" lon="119.867493"><ele>404</ele></trkpt>
      <trkpt lat="30.607367" lon="119.867409"><ele>419</ele></trkpt>
      <trkpt lat="30.607308" lon="119.867316"><ele>424</ele></trkpt>
      <trkpt lat="30.607211" lon="119.867364"><ele>428</ele></trkpt>
      <trkpt lat="30.60716" lon="119.86727"><ele>429</ele></trkpt>
      <trkpt lat="30.607221" lon="119.867187"><ele>430</ele></trkpt>
      <trkpt lat="30.607286" lon="119.867269"><ele>429</ele></trkpt>
      <trkpt lat="30.60738" lon="119.867264"><ele>425</ele></trkpt>
      <trkpt lat="30.607477" lon="119.867252"><ele>423</ele></trkpt>
      <trkpt lat="30.607575" lon="119.867259"><ele>422</ele></trkpt>
      <trkpt lat="30.607652" lon="119.867313"><ele>423</ele></trkpt>
      <trkpt lat="30.60773" lon="119.867369"><ele>424</ele></trkpt>
      <trkpt lat="30.607824" lon="119.867394"><ele>424</ele></trkpt>
      <trkpt lat="30.607915" lon="119.867423"><ele>428</ele></trkpt>
      <trkpt lat="30.608007" lon="119.867445"><ele>429</ele></trkpt>
      <trkpt lat="30.608001" lon="119.867336"><ele>438</ele></trkpt>
      <trkpt lat="30.608095" lon="119.86736"><ele>439</ele></trkpt>
      <trkpt lat="30.608084" lon="119.867255"><ele>440</ele></trkpt>
      <trkpt lat="30.608167" lon="119.867299"><ele>445</ele></trkpt>
      <trkpt lat="30.608254" lon="119.867268"><ele>446</ele></trkpt>
      <trkpt lat="30.608344" lon="119.867239"><ele>453</ele></trkpt>
      <trkpt lat="30.608439" lon="119.867206"><ele>453</ele></trkpt>
      <trkpt lat="30.608535" lon="119.867206"><ele>454</ele></trkpt>
      <trkpt lat="30.608625" lon="119.867242"><ele>455</ele></trkpt>
      <trkpt lat="30.608718" lon="119.867274"><ele>459</ele></trkpt>
      <trkpt lat="30.60876" lon="119.867372"><ele>460</ele></trkpt>
      <trkpt lat="30.608761" lon="119.867486"><ele>462</ele></trkpt>
      <trkpt lat="30.608797" lon="119.867591"><ele>461</ele></trkpt>
      <trkpt lat="30.60884" lon="119.86769"><ele>462</ele></trkpt>
      <trkpt lat="30.608811" lon="119.867792"><ele>463</ele></trkpt>
      <trkpt lat="30.608814" lon="119.867904"><ele>462</ele></trkpt>
      <trkpt lat="30.608874" lon="119.867991"><ele>462</ele></trkpt>
      <trkpt lat="30.608934" lon="119.86807"><ele>463</ele></trkpt>
      <trkpt lat="30.608933" lon="119.868185"><ele>465</ele></trkpt>
      <trkpt lat="30.60894" lon="119.868302"><ele>468</ele></trkpt>
      <trkpt lat="30.608963" lon="119.868407"><ele>467</ele></trkpt>
      <trkpt lat="30.608982" lon="119.868513"><ele>467</ele></trkpt>
      <trkpt lat="30.608966" lon="119.86862"><ele>466</ele></trkpt>
      <trkpt lat="30.608993" lon="119.868519"><ele>466</ele></trkpt>
      <trkpt lat="30.609029" lon="119.868415"><ele>465</ele></trkpt>
      <trkpt lat="30.609075" lon="119.868323"><ele>469</ele></trkpt>
      <trkpt lat="30.609101" lon="119.868223"><ele>474</ele></trkpt>
      <trkpt lat="30.609107" lon="119.868111"><ele>477</ele></trkpt>
      <trkpt lat="30.609129" lon="119.867995"><ele>480</ele></trkpt>
      <trkpt lat="30.609184" lon="119.867902"><ele>485</ele></trkpt>
      <trkpt lat="30.609229" lon="119.867809"><ele>486</ele></trkpt>
      <trkpt lat="30.609288" lon="119.867726"><ele>487</ele></trkpt>
      <trkpt lat="30.609356" lon="119.867652"><ele>487</ele></trkpt>
      <trkpt lat="30.609368" lon="119.867547"><ele>489</ele></trkpt>
      <trkpt lat="30.60936" lon="119.867435"><ele>495</ele></trkpt>
      <trkpt lat="30.609355" lon="119.86733"><ele>497</ele></trkpt>
      <trkpt lat="30.609354" lon="119.867216"><ele>499</ele></trkpt>
      <trkpt lat="30.609329" lon="119.86709"><ele>502</ele></trkpt>
      <trkpt lat="30.609298" lon="119.866988"><ele>504</ele></trkpt>
      <trkpt lat="30.609252" lon="119.866894"><ele>502</ele></trkpt>
      <trkpt lat="30.609194" lon="119.866811"><ele>504</ele></trkpt>
      <trkpt lat="30.609134" lon="119.866728"><ele>503</ele></trkpt>
      <trkpt lat="30.609049" lon="119.866686"><ele>503</ele></trkpt>
      <trkpt lat="30.608958" lon="119.86665"><ele>502</ele></trkpt>
      <trkpt lat="30.608873" lon="119.866601"><ele>501</ele></trkpt>
      <trkpt lat="30.608818" lon="119.866514"><ele>501</ele></trkpt>
      <trkpt lat="30.608747" lon="119.866441"><ele>501</ele></trkpt>
      <trkpt lat="30.608691" lon="119.866353"><ele>504</ele></trkpt>
      <trkpt lat="30.60872" lon="119.866246"><ele>501</ele></trkpt>
      <trkpt lat="30.608735" lon="119.866136"><ele>498</ele></trkpt>
      <trkpt lat="30.608724" lon="119.866026"><ele>497</ele></trkpt>
      <trkpt lat="30.608763" lon="119.865923"><ele>497</ele></trkpt>
      <trkpt lat="30.608833" lon="119.865854"><ele>499</ele></trkpt>
      <trkpt lat="30.608928" lon="119.865833"><ele>501</ele></trkpt>
      <trkpt lat="30.608989" lon="119.86575"><ele>502</ele></trkpt>
      <trkpt lat="30.609043" lon="119.865658"><ele>500</ele></trkpt>
      <trkpt lat="30.609116" lon="119.865595"><ele>505</ele></trkpt>
      <trkpt lat="30.609148" lon="119.865492"><ele>508</ele></trkpt>
      <trkpt lat="30.60924" lon="119.865475"><ele>509</ele></trkpt>
      <trkpt lat="30.609338" lon="119.86549"><ele>510</ele></trkpt>
      <trkpt lat="30.609247" lon="119.865498"><ele>511</ele></trkpt>
      <trkpt lat="30.609324" lon="119.865568"><ele>510</ele></trkpt>
      <trkpt lat="30.609345" lon="119.865676"><ele>508</ele></trkpt>
      <trkpt lat="30.609287" lon="119.865766"><ele>510</ele></trkpt>
      <trkpt lat="30.609203" lon="119.865809"><ele>501</ele></trkpt>
      <trkpt lat="30.609297" lon="119.865767"><ele>509</ele></trkpt>
      <trkpt lat="30.609345" lon="119.865661"><ele>512</ele></trkpt>
      <trkpt lat="30.609377" lon="119.865555"><ele>511</ele></trkpt>
      <trkpt lat="30.609443" lon="119.86548"><ele>508</ele></trkpt>
      <trkpt lat="30.609488" lon="119.865385"><ele>514</ele></trkpt>
      <trkpt lat="30.609563" lon="119.865312"><ele>514</ele></trkpt>
      <trkpt lat="30.60961" lon="119.865221"><ele>516</ele></trkpt>
      <trkpt lat="30.609705" lon="119.8652"><ele>519</ele></trkpt>
      <trkpt lat="30.609783" lon="119.865125"><ele>525</ele></trkpt>
      <trkpt lat="30.609854" lon="119.865045"><ele>529</ele></trkpt>
      <trkpt lat="30.609933" lon="119.864988"><ele>527</ele></trkpt>
      <trkpt lat="30.610029" lon="119.864957"><ele>529</ele></trkpt>
      <trkpt lat="30.610121" lon="119.864952"><ele>531</ele></trkpt>
      <trkpt lat="30.610129" lon="119.864847"><ele>535</ele></trkpt>
      <trkpt lat="30.61019" lon="119.864758"><ele>535</ele></trkpt>
      <trkpt lat="30.610231" lon="119.864661"><ele>541</ele></trkpt>
      <trkpt lat="30.610281" lon="119.864571"><ele>550</ele></trkpt>
      <trkpt lat="30.610288" lon="119.864464"><ele>550</ele></trkpt>
      <trkpt lat="30.610354" lon="119.864388"><ele>551</ele></trkpt>
      <trkpt lat="30.610387" lon="119.864289"><ele>550</ele></trkpt>
      <trkpt lat="30.610448" lon="119.864205"><ele>553</ele></trkpt>
      <trkpt lat="30.610478" lon="119.864106"><ele>553</ele></trkpt>
      <trkpt lat="30.610565" lon="119.864158"><ele>559</ele></trkpt>
      <trkpt lat="30.610644" lon="119.864214"><ele>558</ele></trkpt>
      <trkpt lat="30.610695" lon="119.864307"><ele>558</ele></trkpt>
      <trkpt lat="30.610729" lon="119.864408"><ele>559</ele></trkpt>
      <trkpt lat="30.610741" lon="119.864517"><ele>560</ele></trkpt>
      <trkpt lat="30.610797" lon="119.86443"><ele>560</ele></trkpt>
      <trkpt lat="30.61084" lon="119.864329"><ele>560</ele></trkpt>
      <trkpt lat="30.610889" lon="119.86424"><ele>565</ele></trkpt>
      <trkpt lat="30.61093" lon="119.864336"><ele>570</ele></trkpt>
      <trkpt lat="30.610916" lon="119.864444"><ele>569</ele></trkpt>
      <trkpt lat="30.610971" lon="119.864533"><ele>569</ele></trkpt>
      <trkpt lat="30.611005" lon="119.864633"><ele>572</ele></trkpt>
      <trkpt lat="30.611088" lon="119.864696"><ele>575</ele></trkpt>
      <trkpt lat="30.61102" lon="119.86477"><ele>576</ele></trkpt>
      <trkpt lat="30.611044" lon="119.864873"><ele>578</ele></trkpt>
      <trkpt lat="30.611136" lon="119.864898"><ele>578</ele></trkpt>
      <trkpt lat="30.611225" lon="119.864929"><ele>581</ele></trkpt>
      <trkpt lat="30.611323" lon="119.864947"><ele>586</ele></trkpt>
      <trkpt lat="30.611397" lon="119.865009"><ele>585</ele></trkpt>
      <trkpt lat="30.611387" lon="119.865118"><ele>585</ele></trkpt>
      <trkpt lat="30.611372" lon="119.865226"><ele>584</ele></trkpt>
      <trkpt lat="30.611452" lon="119.865177"><ele>582</ele></trkpt>
      <trkpt lat="30.611377" lon="119.865241"><ele>586</ele></trkpt>
      <trkpt lat="30.61138" lon="119.865128"><ele>587</ele></trkpt>
      <trkpt lat="30.611379" lon="119.865023"><ele>589</ele></trkpt>
      <trkpt lat="30.611403" lon="119.864922"><ele>588</ele></trkpt>
      <trkpt lat="30.611441" lon="119.864824"><ele>584</ele></trkpt>
      <trkpt lat="30.611445" lon="119.864705"><ele>585</ele></trkpt>
      <trkpt lat="30.61141" lon="119.864596"><ele>586</ele></trkpt>
      <trkpt lat="30.61138" lon="119.864495"><ele>585</ele></trkpt>
      <trkpt lat="30.611334" lon="119.864389"><ele>584</ele></trkpt>
      <trkpt lat="30.611274" lon="119.864308"><ele>576</ele></trkpt>
      <trkpt lat="30.611217" lon="119.864225"><ele>575</ele></trkpt>
      <trkpt lat="30.611165" lon="119.864135"><ele>575</ele></trkpt>
      <trkpt lat="30.611116" lon="119.864038"><ele>569</ele></trkpt>
      <trkpt lat="30.611105" lon="119.863927"><ele>568</ele></trkpt>
      <trkpt lat="30.61104" lon="119.864001"><ele>570</ele></trkpt>
      <trkpt lat="30.610991" lon="119.864098"><ele>566</ele></trkpt>
      <trkpt lat="30.610915" lon="119.864153"><ele>562</ele></trkpt>
      <trkpt lat="30.610823" lon="119.864136"><ele>560</ele></trkpt>
      <trkpt lat="30.610765" lon="119.864044"><ele>557</ele></trkpt>
      <trkpt lat="30.610706" lon="119.863963"><ele>555</ele></trkpt>
      <trkpt lat="30.610645" lon="119.863879"><ele>556</ele></trkpt>
      <trkpt lat="30.610581" lon="119.863803"><ele>553</ele></trkpt>
      <trkpt lat="30.610519" lon="119.863722"><ele>555</ele></trkpt>
      <trkpt lat="30.610457" lon="119.863647"><ele>555</ele></trkpt>
      <trkpt lat="30.610373" lon="119.863607"><ele>558</ele></trkpt>
      <trkpt lat="30.610304" lon="119.86354"><ele>563</ele></trkpt>
      <trkpt lat="30.610349" lon="119.863445"><ele>568</ele></trkpt>
      <trkpt lat="30.610401" lon="119.863357"><ele>572</ele></trkpt>
      <trkpt lat="30.61049" lon="119.863374"><ele>571</ele></trkpt>
      <trkpt lat="30.610511" lon="119.863269"><ele>570</ele></trkpt>
      <trkpt lat="30.610421" lon="119.863239"><ele>576</ele></trkpt>
      <trkpt lat="30.610327" lon="119.863255"><ele>577</ele></trkpt>
      <trkpt lat="30.610244" lon="119.863213"><ele>577</ele></trkpt>
      <trkpt lat="30.610201" lon="119.863312"><ele>577</ele></trkpt>
      <trkpt lat="30.61016" lon="119.863406"><ele>575</ele></trkpt>
      <trkpt lat="30.610098" lon="119.863317"><ele>575</ele></trkpt>
      <trkpt lat="30.610021" lon="119.863258"><ele>582</ele></trkpt>
      <trkpt lat="30.609938" lon="119.863211"><ele>585</ele></trkpt>
      <trkpt lat="30.609858" lon="119.863262"><ele>587</ele></trkpt>
      <trkpt lat="30.609772" lon="119.863323"><ele>588</ele></trkpt>
      <trkpt lat="30.609683" lon="119.863355"><ele>589</ele></trkpt>
      <trkpt lat="30.609594" lon="119.863388"><ele>589</ele></trkpt>
      <trkpt lat="30.609497" lon="119.86341"><ele>588</ele></trkpt>
      <trkpt lat="30.609407" lon="119.863428"><ele>588</ele></trkpt>
      <trkpt lat="30.609315" lon="119.863416"><ele>587</ele></trkpt>
      <trkpt lat="30.609222" lon="119.863381"><ele>585</ele></trkpt>
      <trkpt lat="30.609142" lon="119.86333"><ele>584</ele></trkpt>
      <trkpt lat="30.609059" lon="119.863283"><ele>586</ele></trkpt>
      <trkpt lat="30.60907" lon="119.863177"><ele>582</ele></trkpt>
      <trkpt lat="30.609029" lon="119.863082"><ele>580</ele></trkpt>
      <trkpt lat="30.608966" lon="119.863001"><ele>579</ele></trkpt>
      <trkpt lat="30.60901" lon="119.863104"><ele>584</ele></trkpt>
      <trkpt lat="30.609049" lon="119.863201"><ele>585</ele></trkpt>
      <trkpt lat="30.608969" lon="119.863141"><ele>583</ele></trkpt>
      <trkpt lat="30.608897" lon="119.86307"><ele>578</ele></trkpt>
      <trkpt lat="30.608802" lon="119.863037"><ele>575</ele></trkpt>
      <trkpt lat="30.608722" lon="119.86298"><ele>576</ele></trkpt>
      <trkpt lat="30.608636" lon="119.862949"><ele>578</ele></trkpt>
      <trkpt lat="30.608542" lon="119.862916"><ele>578</ele></trkpt>
      <trkpt lat="30.608496" lon="119.862825"><ele>581</ele></trkpt>
      <trkpt lat="30.608452" lon="119.862729"><ele>583</ele></trkpt>
      <trkpt lat="30.608386" lon="119.862641"><ele>583</ele></trkpt>
      <trkpt lat="30.608303" lon="119.862592"><ele>585</ele></trkpt>
      <trkpt lat="30.608258" lon="119.862497"><ele>587</ele></trkpt>
      <trkpt lat="30.608214" lon="119.862395"><ele>587</ele></trkpt>
      <trkpt lat="30.60818" lon="119.862296"><ele>587</ele></trkpt>
      <trkpt lat="30.608141" lon="119.862198"><ele>587</ele></trkpt>
      <trkpt lat="30.608126" lon="119.862093"><ele>587</ele></trkpt>
      <trkpt lat="30.608162" lon="119.861987"><ele>586</ele></trkpt>
      <trkpt lat="30.608197" lon="119.861887"><ele>587</ele></trkpt>
      <trkpt lat="30.608255" lon="119.861806"><ele>588</ele></trkpt>
      <trkpt lat="30.608317" lon="119.861728"><ele>589</ele></trkpt>
      <trkpt lat="30.608389" lon="119.861659"><ele>590</ele></trkpt>
      <trkpt lat="30.608441" lon="119.861559"><ele>589</ele></trkpt>
      <trkpt lat="30.608467" lon="119.861453"><ele>590</ele></trkpt>
      <trkpt lat="30.608553" lon="119.86142"><ele>590</ele></trkpt>
      <trkpt lat="30.608578" lon="119.86152"><ele>595</ele></trkpt>
      <trkpt lat="30.608562" lon="119.861414"><ele>595</ele></trkpt>
      <trkpt lat="30.608461" lon="119.86143"><ele>594</ele></trkpt>
      <trkpt lat="30.60854" lon="119.861391"><ele>607</ele></trkpt>
      <trkpt lat="30.608344" lon="119.861281"><ele>602</ele></trkpt>
      <trkpt lat="30.608552" lon="119.861403"><ele>600</ele></trkpt>
      <trkpt lat="30.608564" lon="119.861512"><ele>599</ele></trkpt>
      <trkpt lat="30.608563" lon="119.861623"><ele>594</ele></trkpt>
      <trkpt lat="30.608595" lon="119.861728"><ele>597</ele></trkpt>
      <trkpt lat="30.608524" lon="119.861806"><ele>598</ele></trkpt>
      <trkpt lat="30.608462" lon="119.861882"><ele>599</ele></trkpt>
      <trkpt lat="30.608398" lon="119.861958"><ele>601</ele></trkpt>
      <trkpt lat="30.608387" lon="119.862064"><ele>601</ele></trkpt>
      <trkpt lat="30.608415" lon="119.861958"><ele>598</ele></trkpt>
      <trkpt lat="30.608442" lon="119.861854"><ele>598</ele></trkpt>
      <trkpt lat="30.60852" lon="119.861789"><ele>596</ele></trkpt>
      <trkpt lat="30.608577" lon="119.8617"><ele>595</ele></trkpt>
      <trkpt lat="30.608651" lon="119.861627"><ele>595</ele></trkpt>
      <trkpt lat="30.608725" lon="119.861552"><ele>597</ele></trkpt>
      <trkpt lat="30.60877" lon="119.861455"><ele>598</ele></trkpt>
      <trkpt lat="30.608782" lon="119.861344"><ele>600</ele></trkpt>
      <trkpt lat="30.608768" lon="119.861238"><ele>598</ele></trkpt>
      <trkpt lat="30.608764" lon="119.861129"><ele>599</ele></trkpt>
      <trkpt lat="30.608761" lon="119.861023"><ele>602</ele></trkpt>
      <trkpt lat="30.608749" lon="119.860914"><ele>601</ele></trkpt>
      <trkpt lat="30.608764" lon="119.860807"><ele>601</ele></trkpt>
      <trkpt lat="30.60872" lon="119.860713"><ele>599</ele></trkpt>
      <trkpt lat="30.608646" lon="119.860642"><ele>600</ele></trkpt>
      <trkpt lat="30.608604" lon="119.860545"><ele>601</ele></trkpt>
      <trkpt lat="30.608556" lon="119.860446"><ele>601</ele></trkpt>
      <trkpt lat="30.608507" lon="119.860352"><ele>600</ele></trkpt>
      <trkpt lat="30.608414" lon="119.860365"><ele>601</ele></trkpt>
      <trkpt lat="30.60832" lon="119.860363"><ele>600</ele></trkpt>
      <trkpt lat="30.60823" lon="119.860351"><ele>600</ele></trkpt>
      <trkpt lat="30.60814" lon="119.86032"><ele>599</ele></trkpt>
      <trkpt lat="30.608048" lon="119.860302"><ele>600</ele></trkpt>
      <trkpt lat="30.607951" lon="119.860292"><ele>601</ele></trkpt>
      <trkpt lat="30.607871" lon="119.860354"><ele>597</ele></trkpt>
      <trkpt lat="30.607774" lon="119.860341"><ele>595</ele></trkpt>
      <trkpt lat="30.607681" lon="119.860292"><ele>595</ele></trkpt>
      <trkpt lat="30.607595" lon="119.860247"><ele>595</ele></trkpt>
      <trkpt lat="30.607504" lon="119.860216"><ele>593</ele></trkpt>
      <trkpt lat="30.607417" lon="119.860163"><ele>595</ele></trkpt>
      <trkpt lat="30.607315" lon="119.860187"><ele>593</ele></trkpt>
      <trkpt lat="30.607222" lon="119.860175"><ele>595</ele></trkpt>
      <trkpt lat="30.607152" lon="119.860253"><ele>590</ele></trkpt>
      <trkpt lat="30.607053" lon="119.860245"><ele>591</ele></trkpt>
      <trkpt lat="30.606962" lon="119.860196"><ele>588</ele></trkpt>
      <trkpt lat="30.606879" lon="119.860142"><ele>591</ele></trkpt>
      <trkpt lat="30.606784" lon="119.860166"><ele>593</ele></trkpt>
      <trkpt lat="30.606685" lon="119.860149"><ele>596</ele></trkpt>
      <trkpt lat="30.606592" lon="119.860131"><ele>595</ele></trkpt>
      <trkpt lat="30.606515" lon="119.860202"><ele>595</ele></trkpt>
      <trkpt lat="30.606446" lon="119.860274"><ele>595</ele></trkpt>
      <trkpt lat="30.60644" lon="119.860383"><ele>594</ele></trkpt>
      <trkpt lat="30.606431" lon="119.860489"><ele>593</ele></trkpt>
      <trkpt lat="30.60641" lon="119.860609"><ele>589</ele></trkpt>
      <trkpt lat="30.606385" lon="119.86073"><ele>589</ele></trkpt>
      <trkpt lat="30.606345" lon="119.860827"><ele>587</ele></trkpt>
      <trkpt lat="30.606288" lon="119.860912"><ele>587</ele></trkpt>
      <trkpt lat="30.606202" lon="119.860974"><ele>589</ele></trkpt>
      <trkpt lat="30.606119" lon="119.861028"><ele>590</ele></trkpt>
      <trkpt lat="30.606023" lon="119.861082"><ele>590</ele></trkpt>
      <trkpt lat="30.605922" lon="119.861119"><ele>587</ele></trkpt>
      <trkpt lat="30.605826" lon="119.861162"><ele>585</ele></trkpt>
      <trkpt lat="30.60573" lon="119.861208"><ele>588</ele></trkpt>
      <trkpt lat="30.605629" lon="119.861205"><ele>588</ele></trkpt>
      <trkpt lat="30.605541" lon="119.86123"><ele>588</ele></trkpt>
      <trkpt lat="30.605445" lon="119.86131"><ele>588</ele></trkpt>
      <trkpt lat="30.605486" lon="119.861403"><ele>588</ele></trkpt>
      <trkpt lat="30.605373" lon="119.861473"><ele>585</ele></trkpt>
      <trkpt lat="30.605276" lon="119.861503"><ele>584</ele></trkpt>
      <trkpt lat="30.605183" lon="119.861485"><ele>584</ele></trkpt>
      <trkpt lat="30.605088" lon="119.861534"><ele>586</ele></trkpt>
      <trkpt lat="30.605006" lon="119.861593"><ele>587</ele></trkpt>
      <trkpt lat="30.604915" lon="119.861624"><ele>584</ele></trkpt>
      <trkpt lat="30.604812" lon="119.861666"><ele>583</ele></trkpt>
      <trkpt lat="30.604749" lon="119.861743"><ele>585</ele></trkpt>
      <trkpt lat="30.604703" lon="119.861853"><ele>583</ele></trkpt>
      <trkpt lat="30.604643" lon="119.861951"><ele>582</ele></trkpt>
      <trkpt lat="30.60459" lon="119.862048"><ele>582</ele></trkpt>
      <trkpt lat="30.604563" lon="119.862164"><ele>583</ele></trkpt>
      <trkpt lat="30.604559" lon="119.862284"><ele>585</ele></trkpt>
      <trkpt lat="30.60456" lon="119.862391"><ele>581</ele></trkpt>
      <trkpt lat="30.604566" lon="119.862503"><ele>580</ele></trkpt>
      <trkpt lat="30.604629" lon="119.862594"><ele>574</ele></trkpt>
      <trkpt lat="30.60466" lon="119.8627"><ele>573</ele></trkpt>
      <trkpt lat="30.604653" lon="119.862818"><ele>572</ele></trkpt>
      <trkpt lat="30.60466" lon="119.862927"><ele>573</ele></trkpt>
      <trkpt lat="30.604653" lon="119.863033"><ele>572</ele></trkpt>
      <trkpt lat="30.604646" lon="119.863145"><ele>571</ele></trkpt>
      <trkpt lat="30.60465" lon="119.863257"><ele>570</ele></trkpt>
      <trkpt lat="30.604641" lon="119.86337"><ele>570</ele></trkpt>
      <trkpt lat="30.604685" lon="119.863466"><ele>569</ele></trkpt>
      <trkpt lat="30.604699" lon="119.863594"><ele>569</ele></trkpt>
      <trkpt lat="30.6047" lon="119.863717"><ele>569</ele></trkpt>
      <trkpt lat="30.604719" lon="119.863823"><ele>567</ele></trkpt>
      <trkpt lat="30.604746" lon="119.863939"><ele>567</ele></trkpt>
      <trkpt lat="30.604757" lon="119.86405"><ele>567</ele></trkpt>
      <trkpt lat="30.604758" lon="119.864157"><ele>567</ele></trkpt>
      <trkpt lat="30.604776" lon="119.864281"><ele>567</ele></trkpt>
      <trkpt lat="30.604802" lon="119.864393"><ele>565</ele></trkpt>
      <trkpt lat="30.604815" lon="119.864498"><ele>563</ele></trkpt>
      <trkpt lat="30.604814" lon="119.86461"><ele>565</ele></trkpt>
      <trkpt lat="30.604864" lon="119.864721"><ele>561</ele></trkpt>
      <trkpt lat="30.604945" lon="119.864768"><ele>558</ele></trkpt>
      <trkpt lat="30.605038" lon="119.864764"><ele>555</ele></trkpt>
      <trkpt lat="30.605137" lon="119.864762"><ele>553</ele></trkpt>
      <trkpt lat="30.605206" lon="119.864671"><ele>551</ele></trkpt>
      <trkpt lat="30.605265" lon="119.864563"><ele>553</ele></trkpt>
      <trkpt lat="30.605295" lon="119.864461"><ele>551</ele></trkpt>
      <trkpt lat="30.605322" lon="119.864345"><ele>550</ele></trkpt>
      <trkpt lat="30.605355" lon="119.864228"><ele>548</ele></trkpt>
      <trkpt lat="30.605362" lon="119.864123"><ele>547</ele></trkpt>
      <trkpt lat="30.60538" lon="119.86399"><ele>549</ele></trkpt>
      <trkpt lat="30.605398" lon="119.863877"><ele>546</ele></trkpt>
      <trkpt lat="30.605428" lon="119.86376"><ele>546</ele></trkpt>
      <trkpt lat="30.605414" lon="119.863637"><ele>546</ele></trkpt>
      <trkpt lat="30.605431" lon="119.863523"><ele>545</ele></trkpt>
      <trkpt lat="30.605469" lon="119.863409"><ele>544</ele></trkpt>
      <trkpt lat="30.605491" lon="119.863306"><ele>542</ele></trkpt>
      <trkpt lat="30.605513" lon="119.863201"><ele>542</ele></trkpt>
      <trkpt lat="30.605528" lon="119.863089"><ele>541</ele></trkpt>
      <trkpt lat="30.605549" lon="119.862979"><ele>542</ele></trkpt>
      <trkpt lat="30.605536" lon="119.863089"><ele>545</ele></trkpt>
      <trkpt lat="30.605511" lon="119.86319"><ele>546</ele></trkpt>
      <trkpt lat="30.60547" lon="119.863304"><ele>548</ele></trkpt>
      <trkpt lat="30.605461" lon="119.86341"><ele>546</ele></trkpt>
      <trkpt lat="30.605438" lon="119.863525"><ele>548</ele></trkpt>
      <trkpt lat="30.605415" lon="119.863637"><ele>546</ele></trkpt>
      <trkpt lat="30.605412" lon="119.863748"><ele>546</ele></trkpt>
      <trkpt lat="30.605407" lon="119.863853"><ele>546</ele></trkpt>
      <trkpt lat="30.605376" lon="119.86396"><ele>547</ele></trkpt>
      <trkpt lat="30.605369" lon="119.864071"><ele>551</ele></trkpt>
      <trkpt lat="30.605344" lon="119.864181"><ele>552</ele></trkpt>
      <trkpt lat="30.605325" lon="119.864286"><ele>553</ele></trkpt>
      <trkpt lat="30.605312" lon="119.864397"><ele>554</ele></trkpt>
      <trkpt lat="30.605295" lon="119.864499"><ele>558</ele></trkpt>
      <trkpt lat="30.605372" lon="119.864557"><ele>554</ele></trkpt>
      <trkpt lat="30.605352" lon="119.864659"><ele>556</ele></trkpt>
      <trkpt lat="30.605296" lon="119.864748"><ele>557</ele></trkpt>
      <trkpt lat="30.605256" lon="119.86486"><ele>557</ele></trkpt>
      <trkpt lat="30.605193" lon="119.864936"><ele>554</ele></trkpt>
      <trkpt lat="30.605113" lon="119.864986"><ele>556</ele></trkpt>
      <trkpt lat="30.605032" lon="119.865034"><ele>555</ele></trkpt>
      <trkpt lat="30.604948" lon="119.865073"><ele>553</ele></trkpt>
      <trkpt lat="30.604862" lon="119.865106"><ele>553</ele></trkpt>
      <trkpt lat="30.604777" lon="119.865151"><ele>551</ele></trkpt>
      <trkpt lat="30.604698" lon="119.865212"><ele>549</ele></trkpt>
      <trkpt lat="30.60462" lon="119.865276"><ele>544</ele></trkpt>
      <trkpt lat="30.604531" lon="119.865301"><ele>538</ele></trkpt>
      <trkpt lat="30.604435" lon="119.865321"><ele>538</ele></trkpt>
      <trkpt lat="30.604344" lon="119.865279"><ele>536</ele></trkpt>
      <trkpt lat="30.604259" lon="119.865233"><ele>532</ele></trkpt>
      <trkpt lat="30.604163" lon="119.8652"><ele>529</ele></trkpt>
      <trkpt lat="30.604084" lon="119.865139"><ele>523</ele></trkpt>
      <trkpt lat="30.604035" lon="119.865232"><ele>521</ele></trkpt>
      <trkpt lat="30.604067" lon="119.865338"><ele>520</ele></trkpt>
      <trkpt lat="30.604122" lon="119.865429"><ele>517</ele></trkpt>
      <trkpt lat="30.604192" lon="119.8655"><ele>516</ele></trkpt>
      <trkpt lat="30.604261" lon="119.865568"><ele>516</ele></trkpt>
      <trkpt lat="30.604302" lon="119.865661"><ele>516</ele></trkpt>
      <trkpt lat="30.604273" lon="119.865773"><ele>519</ele></trkpt>
      <trkpt lat="30.604221" lon="119.86586"><ele>521</ele></trkpt>
      <trkpt lat="30.604272" lon="119.865962"><ele>519</ele></trkpt>
      <trkpt lat="30.604356" lon="119.866022"><ele>517</ele></trkpt>
      <trkpt lat="30.604449" lon="119.866017"><ele>514</ele></trkpt>
      <trkpt lat="30.604367" lon="119.866065"><ele>517</ele></trkpt>
      <trkpt lat="30.604287" lon="119.865999"><ele>519</ele></trkpt>
      <trkpt lat="30.604228" lon="119.865915"><ele>518</ele></trkpt>
      <trkpt lat="30.604231" lon="119.865807"><ele>517</ele></trkpt>
      <trkpt lat="30.604291" lon="119.865716"><ele>521</ele></trkpt>
      <trkpt lat="30.604275" lon="119.865614"><ele>519</ele></trkpt>
      <trkpt lat="30.604194" lon="119.865553"><ele>518</ele></trkpt>
      <trkpt lat="30.604113" lon="119.865475"><ele>517</ele></trkpt>
      <trkpt lat="30.604027" lon="119.865436"><ele>516</ele></trkpt>
      <trkpt lat="30.603934" lon="119.865443"><ele>510</ele></trkpt>
      <trkpt lat="30.604011" lon="119.865499"><ele>506</ele></trkpt>
      <trkpt lat="30.604105" lon="119.86554"><ele>505</ele></trkpt>
      <trkpt lat="30.604144" lon="119.865639"><ele>507</ele></trkpt>
      <trkpt lat="30.604169" lon="119.865742"><ele>515</ele></trkpt>
      <trkpt lat="30.604164" lon="119.865847"><ele>518</ele></trkpt>
      <trkpt lat="30.604197" lon="119.865947"><ele>515</ele></trkpt>
      <trkpt lat="30.604239" lon="119.866039"><ele>514</ele></trkpt>
      <trkpt lat="30.604252" lon="119.866144"><ele>511</ele></trkpt>
      <trkpt lat="30.604245" lon="119.866249"><ele>502</ele></trkpt>
      <trkpt lat="30.604285" lon="119.866344"><ele>501</ele></trkpt>
      <trkpt lat="30.604334" lon="119.866438"><ele>498</ele></trkpt>
      <trkpt lat="30.604387" lon="119.866527"><ele>490</ele></trkpt>
      <trkpt lat="30.60448" lon="119.866515"><ele>491</ele></trkpt>
      <trkpt lat="30.604465" lon="119.86662"><ele>492</ele></trkpt>
      <trkpt lat="30.604412" lon="119.86671"><ele>490</ele></trkpt>
      <trkpt lat="30.604407" lon="119.866818"><ele>480</ele></trkpt>
      <trkpt lat="30.604315" lon="119.866799"><ele>476</ele></trkpt>
      <trkpt lat="30.604219" lon="119.866802"><ele>475</ele></trkpt>
      <trkpt lat="30.604121" lon="119.866806"><ele>475</ele></trkpt>
      <trkpt lat="30.604031" lon="119.866787"><ele>470</ele></trkpt>
      <trkpt lat="30.603939" lon="119.866761"><ele>464</ele></trkpt>
      <trkpt lat="30.603843" lon="119.866757"><ele>463</ele></trkpt>
      <trkpt lat="30.603749" lon="119.866759"><ele>460</ele></trkpt>
      <trkpt lat="30.603663" lon="119.866728"><ele>454</ele></trkpt>
      <trkpt lat="30.603571" lon="119.866721"><ele>455</ele></trkpt>
      <trkpt lat="30.603485" lon="119.866686"><ele>441</ele></trkpt>
      <trkpt lat="30.603394" lon="119.866679"><ele>433</ele></trkpt>
      <trkpt lat="30.603304" lon="119.866657"><ele>428</ele></trkpt>
      <trkpt lat="30.603216" lon="119.86669"><ele>429</ele></trkpt>
      <trkpt lat="30.603151" lon="119.866762"><ele>431</ele></trkpt>
      <trkpt lat="30.603092" lon="119.866849"><ele>433</ele></trkpt>
      <trkpt lat="30.603067" lon="119.86696"><ele>433</ele></trkpt>
      <trkpt lat="30.603022" lon="119.867067"><ele>430</ele></trkpt>
      <trkpt lat="30.602982" lon="119.867214"><ele>430</ele></trkpt>
      <trkpt lat="30.602909" lon="119.867342"><ele>429</ele></trkpt>
      <trkpt lat="30.602837" lon="119.867408"><ele>429</ele></trkpt>
      <trkpt lat="30.602743" lon="119.867391"><ele>428</ele></trkpt>
      <trkpt lat="30.602657" lon="119.86743"><ele>427</ele></trkpt>
      <trkpt lat="30.602588" lon="119.867514"><ele>428</ele></trkpt>
      <trkpt lat="30.602546" lon="119.867617"><ele>431</ele></trkpt>
      <trkpt lat="30.602532" lon="119.867721"><ele>433</ele></trkpt>
      <trkpt lat="30.602522" lon="119.867834"><ele>436</ele></trkpt>
      <trkpt lat="30.602548" lon="119.867944"><ele>438</ele></trkpt>
      <trkpt lat="30.602573" lon="119.868053"><ele>439</ele></trkpt>
      <trkpt lat="30.602583" lon="119.868163"><ele>441</ele></trkpt>
      <trkpt lat="30.602588" lon="119.868284"><ele>443</ele></trkpt>
      <trkpt lat="30.602533" lon="119.868372"><ele>443</ele></trkpt>
      <trkpt lat="30.602467" lon="119.86845"><ele>443</ele></trkpt>
      <trkpt lat="30.602422" lon="119.868556"><ele>441</ele></trkpt>
      <trkpt lat="30.602371" lon="119.868646"><ele>440</ele></trkpt>
      <trkpt lat="30.602315" lon="119.868756"><ele>439</ele></trkpt>
      <trkpt lat="30.602272" lon="119.868852"><ele>443</ele></trkpt>
      <trkpt lat="30.602216" lon="119.868949"><ele>444</ele></trkpt>
      <trkpt lat="30.602145" lon="119.869028"><ele>441</ele></trkpt>
      <trkpt lat="30.602083" lon="119.869105"><ele>440</ele></trkpt>
      <trkpt lat="30.602026" lon="119.869187"><ele>435</ele></trkpt>
      <trkpt lat="30.602003" lon="119.869291"><ele>426</ele></trkpt>
      <trkpt lat="30.601964" lon="119.869389"><ele>423</ele></trkpt>
      <trkpt lat="30.601889" lon="119.869448"><ele>420</ele></trkpt>
      <trkpt lat="30.601811" lon="119.869511"><ele>410</ele></trkpt>
      <trkpt lat="30.601712" lon="119.869541"><ele>410</ele></trkpt>
      <trkpt lat="30.601647" lon="119.869618"><ele>408</ele></trkpt>
      <trkpt lat="30.601591" lon="119.869712"><ele>405</ele></trkpt>
      <trkpt lat="30.601527" lon="119.869805"><ele>403</ele></trkpt>
      <trkpt lat="30.601445" lon="119.869853"><ele>400</ele></trkpt>
      <trkpt lat="30.601411" lon="119.869957"><ele>401</ele></trkpt>
      <trkpt lat="30.601437" lon="119.870058"><ele>403</ele></trkpt>
      <trkpt lat="30.601473" lon="119.87016"><ele>396</ele></trkpt>
      <trkpt lat="30.601457" lon="119.870263"><ele>390</ele></trkpt>
      <trkpt lat="30.601435" lon="119.870374"><ele>386</ele></trkpt>
      <trkpt lat="30.601397" lon="119.87048"><ele>386</ele></trkpt>
      <trkpt lat="30.601313" lon="119.870519"><ele>381</ele></trkpt>
      <trkpt lat="30.601221" lon="119.870556"><ele>379</ele></trkpt>
      <trkpt lat="30.601131" lon="119.870538"><ele>383</ele></trkpt>
      <trkpt lat="30.601038" lon="119.870516"><ele>374</ele></trkpt>
      <trkpt lat="30.600962" lon="119.870595"><ele>371</ele></trkpt>
      <trkpt lat="30.60089" lon="119.870675"><ele>368</ele></trkpt>
      <trkpt lat="30.600855" lon="119.870778"><ele>367</ele></trkpt>
      <trkpt lat="30.600829" lon="119.870883"><ele>364</ele></trkpt>
      <trkpt lat="30.600803" lon="119.870983"><ele>364</ele></trkpt>
      <trkpt lat="30.60077" lon="119.871082"><ele>358</ele></trkpt>
      <trkpt lat="30.600734" lon="119.87118"><ele>354</ele></trkpt>
      <trkpt lat="30.60067" lon="119.871255"><ele>351</ele></trkpt>
      <trkpt lat="30.600623" lon="119.871349"><ele>349</ele></trkpt>
      <trkpt lat="30.60057" lon="119.871439"><ele>346</ele></trkpt>
      <trkpt lat="30.600507" lon="119.871524"><ele>343</ele></trkpt>
      <trkpt lat="30.60048" lon="119.871625"><ele>344</ele></trkpt>
      <trkpt lat="30.60053" lon="119.871713"><ele>347</ele></trkpt>
      <trkpt lat="30.60062" lon="119.871754"><ele>344</ele></trkpt>
      <trkpt lat="30.600691" lon="119.871848"><ele>342</ele></trkpt>
      <trkpt lat="30.600756" lon="119.871929"><ele>343</ele></trkpt>
      <trkpt lat="30.600839" lon="119.871978"><ele>341</ele></trkpt>
      <trkpt lat="30.600926" lon="119.872037"><ele>337</ele></trkpt>
      <trkpt lat="30.601002" lon="119.872104"><ele>337</ele></trkpt>
      <trkpt lat="30.60104" lon="119.872203"><ele>334</ele></trkpt>
      <trkpt lat="30.601071" lon="119.872308"><ele>332</ele></trkpt>
      <trkpt lat="30.60109" lon="119.872414"><ele>329</ele></trkpt>
      <trkpt lat="30.601129" lon="119.872516"><ele>329</ele></trkpt>
      <trkpt lat="30.601163" lon="119.872623"><ele>324</ele></trkpt>
      <trkpt lat="30.601174" lon="119.872735"><ele>321</ele></trkpt>
      <trkpt lat="30.601198" lon="119.872846"><ele>326</ele></trkpt>
      <trkpt lat="30.601208" lon="119.872951"><ele>324</ele></trkpt>
      <trkpt lat="30.601241" lon="119.873063"><ele>321</ele></trkpt>
      <trkpt lat="30.601271" lon="119.873167"><ele>317</ele></trkpt>
      <trkpt lat="30.601312" lon="119.873264"><ele>312</ele></trkpt>
      <trkpt lat="30.601265" lon="119.873357"><ele>311</ele></trkpt>
      <trkpt lat="30.601241" lon="119.873462"><ele>309</ele></trkpt>
      <trkpt lat="30.601215" lon="119.873564"><ele>308</ele></trkpt>
      <trkpt lat="30.60119" lon="119.873674"><ele>305</ele></trkpt>
      <trkpt lat="30.601192" lon="119.873787"><ele>304</ele></trkpt>
      <trkpt lat="30.601265" lon="119.873851"><ele>305</ele></trkpt>
      <trkpt lat="30.601283" lon="119.873957"><ele>305</ele></trkpt>
      <trkpt lat="30.601317" lon="119.874061"><ele>303</ele></trkpt>
      <trkpt lat="30.601396" lon="119.874117"><ele>303</ele></trkpt>
      <trkpt lat="30.601452" lon="119.874204"><ele>303</ele></trkpt>
      <trkpt lat="30.601509" lon="119.874294"><ele>300</ele></trkpt>
      <trkpt lat="30.601594" lon="119.874345"><ele>298</ele></trkpt>
      <trkpt lat="30.601661" lon="119.874419"><ele>295</ele></trkpt>
      <trkpt lat="30.601752" lon="119.874481"><ele>292</ele></trkpt>
      <trkpt lat="30.601838" lon="119.874542"><ele>289</ele></trkpt>
      <trkpt lat="30.601928" lon="119.874597"><ele>290</ele></trkpt>
      <trkpt lat="30.602023" lon="119.874628"><ele>288</ele></trkpt>
      <trkpt lat="30.602122" lon="119.874674"><ele>287</ele></trkpt>
      <trkpt lat="30.602213" lon="119.874699"><ele>287</ele></trkpt>
      <trkpt lat="30.602311" lon="119.874723"><ele>286</ele></trkpt>
      <trkpt lat="30.6024" lon="119.874765"><ele>288</ele></trkpt>
      <trkpt lat="30.602456" lon="119.87485"><ele>287</ele></trkpt>
      <trkpt lat="30.602526" lon="119.874928"><ele>288</ele></trkpt>
      <trkpt lat="30.6026" lon="119.875025"><ele>286</ele></trkpt>
      <trkpt lat="30.602649" lon="119.875128"><ele>284</ele></trkpt>
      <trkpt lat="30.602703" lon="119.875233"><ele>284</ele></trkpt>
      <trkpt lat="30.602762" lon="119.875324"><ele>283</ele></trkpt>
      <trkpt lat="30.602811" lon="119.875415"><ele>282</ele></trkpt>
      <trkpt lat="30.602839" lon="119.875519"><ele>283</ele></trkpt>
      <trkpt lat="30.602883" lon="119.875627"><ele>284</ele></trkpt>
      <trkpt lat="30.602913" lon="119.875727"><ele>284</ele></trkpt>
      <trkpt lat="30.602943" lon="119.875839"><ele>281</ele></trkpt>
      <trkpt lat="30.602937" lon="119.875946"><ele>277</ele></trkpt>
      <trkpt lat="30.602912" lon="119.876054"><ele>272</ele></trkpt>
      <trkpt lat="30.602936" lon="119.876165"><ele>270</ele></trkpt>
      <trkpt lat="30.60293" lon="119.876275"><ele>265</ele></trkpt>
      <trkpt lat="30.602963" lon="119.876376"><ele>259</ele></trkpt>
      <trkpt lat="30.603016" lon="119.876467"><ele>252</ele></trkpt>
      <trkpt lat="30.603021" lon="119.876577"><ele>248</ele></trkpt>
      <trkpt lat="30.603022" lon="119.876682"><ele>247</ele></trkpt>
      <trkpt lat="30.603029" lon="119.876786"><ele>245</ele></trkpt>
      <trkpt lat="30.603046" lon="119.876903"><ele>242</ele></trkpt>
      <trkpt lat="30.603033" lon="119.877011"><ele>239</ele></trkpt>
      <trkpt lat="30.603029" lon="119.877117"><ele>235</ele></trkpt>
      <trkpt lat="30.603013" lon="119.877229"><ele>234</ele></trkpt>
      <trkpt lat="30.603039" lon="119.877333"><ele>231</ele></trkpt>
      <trkpt lat="30.603056" lon="119.877437"><ele>228</ele></trkpt>
      <trkpt lat="30.603047" lon="119.877549"><ele>228</ele></trkpt>
      <trkpt lat="30.603028" lon="119.877656"><ele>227</ele></trkpt>
      <trkpt lat="30.603004" lon="119.877757"><ele>225</ele></trkpt>
      <trkpt lat="30.602954" lon="119.877858"><ele>221</ele></trkpt>
      <trkpt lat="30.602906" lon="119.87796"><ele>220</ele></trkpt>
      <trkpt lat="30.602859" lon="119.87805"><ele>219</ele></trkpt>
      <trkpt lat="30.602802" lon="119.878145"><ele>220</ele></trkpt>
      <trkpt lat="30.60275" lon="119.878246"><ele>219</ele></trkpt>
      <trkpt lat="30.602688" lon="119.878338"><ele>218</ele></trkpt>
      <trkpt lat="30.602647" lon="119.878438"><ele>216</ele></trkpt>
      <trkpt lat="30.60262" lon="119.878543"><ele>213</ele></trkpt>
      <trkpt lat="30.602601" lon="119.878651"><ele>210</ele></trkpt>
      <trkpt lat="30.602597" lon="119.87876"><ele>208</ele></trkpt>
      <trkpt lat="30.602591" lon="119.878868"><ele>206</ele></trkpt>
      <trkpt lat="30.602597" lon="119.878978"><ele>203</ele></trkpt>
      <trkpt lat="30.602577" lon="119.879082"><ele>201</ele></trkpt>
      <trkpt lat="30.602589" lon="119.879187"><ele>196</ele></trkpt>
      <trkpt lat="30.602552" lon="119.879285"><ele>193</ele></trkpt>
      <trkpt lat="30.602508" lon="119.879384"><ele>190</ele></trkpt>
      <trkpt lat="30.602463" lon="119.87948"><ele>188</ele></trkpt>
      <trkpt lat="30.602414" lon="119.87957"><ele>186</ele></trkpt>
      <trkpt lat="30.602395" lon="119.879676"><ele>182</ele></trkpt>
      <trkpt lat="30.602388" lon="119.879784"><ele>183</ele></trkpt>
      <trkpt lat="30.602415" lon="119.879885"><ele>182</ele></trkpt>
      <trkpt lat="30.602443" lon="119.879991"><ele>180</ele></trkpt>
      <trkpt lat="30.602457" lon="119.880095"><ele>175</ele></trkpt>
      <trkpt lat="30.602417" lon="119.880193"><ele>173</ele></trkpt>
      <trkpt lat="30.602499" lon="119.88024"><ele>170</ele></trkpt>
      <trkpt lat="30.602556" lon="119.880322"><ele>169</ele></trkpt>
      <trkpt lat="30.602632" lon="119.880402"><ele>167</ele></trkpt>
      <trkpt lat="30.602596" lon="119.880499"><ele>163</ele></trkpt>
      <trkpt lat="30.602687" lon="119.880501"><ele>163</ele></trkpt>
      <trkpt lat="30.60278" lon="119.88051"><ele>163</ele></trkpt>
      <trkpt lat="30.602864" lon="119.880463"><ele>167</ele></trkpt>
      <trkpt lat="30.602958" lon="119.880456"><ele>164</ele></trkpt>
      <trkpt lat="30.603056" lon="119.880447"><ele>161</ele></trkpt>
      <trkpt lat="30.603154" lon="119.880414"><ele>159</ele></trkpt>
      <trkpt lat="30.603212" lon="119.880333"><ele>154</ele></trkpt>
      <trkpt lat="30.603288" lon="119.880252"><ele>151</ele></trkpt>
      <trkpt lat="30.603371" lon="119.880179"><ele>151</ele></trkpt>
      <trkpt lat="30.603446" lon="119.880087"><ele>150</ele></trkpt>
      <trkpt lat="30.603516" lon="119.880001"><ele>147</ele></trkpt>
      <trkpt lat="30.603577" lon="119.879912"><ele>146</ele></trkpt>
      <trkpt lat="30.603657" lon="119.87986"><ele>144</ele></trkpt>
      <trkpt lat="30.603723" lon="119.879933"><ele>143</ele></trkpt>
      <trkpt lat="30.603759" lon="119.880031"><ele>141</ele></trkpt>
      <trkpt lat="30.603813" lon="119.880119"><ele>137</ele></trkpt>
      <trkpt lat="30.603864" lon="119.880209"><ele>135</ele></trkpt>
      <trkpt lat="30.603922" lon="119.880289"><ele>135</ele></trkpt>
      <trkpt lat="30.604007" lon="119.880334"><ele>134</ele></trkpt>
      <trkpt lat="30.604081" lon="119.880395"><ele>130</ele></trkpt>
      <trkpt lat="30.604109" lon="119.880496"><ele>125</ele></trkpt>
      <trkpt lat="30.604154" lon="119.880588"><ele>124</ele></trkpt>
      <trkpt lat="30.604211" lon="119.880678"><ele>119</ele></trkpt>
      <trkpt lat="30.604262" lon="119.880766"><ele>119</ele></trkpt>
      <trkpt lat="30.604304" lon="119.880866"><ele>116</ele></trkpt>
      <trkpt lat="30.604343" lon="119.880971"><ele>117</ele></trkpt>
      <trkpt lat="30.604359" lon="119.881074"><ele>113</ele></trkpt>
      <trkpt lat="30.604398" lon="119.881177"><ele>111</ele></trkpt>
      <trkpt lat="30.604418" lon="119.881283"><ele>110</ele></trkpt>
      <trkpt lat="30.604418" lon="119.881404"><ele>112</ele></trkpt>
      <trkpt lat="30.604429" lon="119.881517"><ele>111</ele></trkpt>
      <trkpt lat="30.604516" lon="119.881469"><ele>111</ele></trkpt>
    </trkseg></trk>
</gpx>
