{
  "type": "FeatureCollection",
  "features": [
    {
      "type": "Feature",
      "properties": {
        "name": "莫干山古道参考轨迹",
        "type": "hiking",
        "source": "两步路用户轨迹"
      },
      "geometry": {
        "type": "LineString",
        "coordinates": [
          [
            119.88265,
            30.604732
          ],
          [
            119.88254,
            30.604723
          ],
          [
            119.882443,
            30.604676
          ],
          [
            119.882342,
            30.60465
          ],
          [
            119.88223,
            30.604633
          ],
          [
            119.88212,
            30.60465
          ],
          [
            119.88201,
            30.604659
          ],
          [
            119.881903,
            30.604688
          ],
          [
            119.881803,
            30.604714
          ],
          [
            119.881699,
            30.604696
          ],
          [
            119.8816,
            30.604661
          ],
          [
            119.881493,
            30.604625
          ],
          [
            119.881382,
            30.604621
          ],
          [
            119.881266,
            30.604646
          ],
          [
            119.881161,
            30.604665
          ],
          [
            119.881057,
            30.604687
          ],
          [
            119.880952,
            30.604722
          ],
          [
            119.880843,
            30.604746
          ],
          [
            119.880744,
            30.604797
          ],
          [
            119.880673,
            30.604873
          ],
          [
            119.880562,
            30.604886
          ],
          [
            119.880445,
            30.604918
          ],
          [
            119.880348,
            30.604954
          ],
          [
            119.88025,
            30.604988
          ],
          [
            119.880153,
            30.60504
          ],
          [
            119.880048,
            30.605078
          ],
          [
            119.879946,
            30.605104
          ],
          [
            119.879849,
            30.60514
          ],
          [
            119.879744,
            30.605149
          ],
          [
            119.879642,
            30.605173
          ],
          [
            119.879542,
            30.605213
          ],
          [
            119.879438,
            30.605237
          ],
          [
            119.879326,
            30.605244
          ],
          [
            119.879225,
            30.605269
          ],
          [
            119.879117,
            30.605285
          ],
          [
            119.879008,
            30.605298
          ],
          [
            119.878904,
            30.605313
          ],
          [
            119.878786,
            30.605326
          ],
          [
            119.878678,
            30.605311
          ],
          [
            119.878574,
            30.605284
          ],
          [
            119.878463,
            30.605262
          ],
          [
            119.878357,
            30.605237
          ],
          [
            119.878254,
            30.6052
          ],
          [
            119.878149,
            30.605181
          ],
          [
            119.878042,
            30.605181
          ],
          [
            119.877937,
            30.605168
          ],
          [
            119.87783,
            30.605171
          ],
          [
            119.877719,
            30.605159
          ],
          [
            119.877615,
            30.605177
          ],
          [
            119.877499,
            30.605182
          ],
          [
            119.877389,
            30.605191
          ],
          [
            119.877292,
            30.605228
          ],
          [
            119.877221,
            30.605297
          ],
          [
            119.877143,
            30.605357
          ],
          [
            119.877047,
            30.605399
          ],
          [
            119.876988,
            30.605484
          ],
          [
            119.876951,
            30.605573
          ],
          [
            119.876865,
            30.605647
          ],
          [
            119.876775,
            30.605703
          ],
          [
            119.876667,
            30.605692
          ],
          [
            119.876563,
            30.605704
          ],
          [
            119.876531,
            30.605608
          ],
          [
            119.876437,
            30.605557
          ],
          [
            119.876334,
            30.605528
          ],
          [
            119.876222,
            30.605494
          ],
          [
            119.876114,
            30.605472
          ],
          [
            119.876007,
            30.605434
          ],
          [
            119.875905,
            30.605409
          ],
          [
            119.875799,
            30.605399
          ],
          [
            119.87571,
            30.605345
          ],
          [
            119.875607,
            30.60533
          ],
          [
            119.875514,
            30.605376
          ],
          [
            119.875406,
            30.605363
          ],
          [
            119.875318,
            30.60542
          ],
          [
            119.875234,
            30.605481
          ],
          [
            119.87515,
            30.605535
          ],
          [
            119.875066,
            30.605603
          ],
          [
            119.87499,
            30.605667
          ],
          [
            119.874886,
            30.60569
          ],
          [
            119.874791,
            30.605736
          ],
          [
            119.874735,
            30.605833
          ],
          [
            119.874642,
            30.605885
          ],
          [
            119.874538,
            30.605867
          ],
          [
            119.874427,
            30.605867
          ],
          [
            119.874328,
            30.605899
          ],
          [
            119.874231,
            30.605942
          ],
          [
            119.874149,
            30.606003
          ],
          [
            119.874049,
            30.606035
          ],
          [
            119.87398,
            30.606103
          ],
          [
            119.873928,
            30.606183
          ],
          [
            119.873837,
            30.606246
          ],
          [
            119.873766,
            30.606317
          ],
          [
            119.873711,
            30.606394
          ],
          [
            119.873622,
            30.606447
          ],
          [
            119.873539,
            30.606519
          ],
          [
            119.873447,
            30.606562
          ],
          [
            119.873373,
            30.606498
          ],
          [
            119.873317,
            30.606412
          ],
          [
            119.87323,
            30.606356
          ],
          [
            119.873142,
            30.606298
          ],
          [
            119.873069,
            30.606232
          ],
          [
            119.873004,
            30.606155
          ],
          [
            119.872949,
            30.606072
          ],
          [
            119.872856,
            30.606026
          ],
          [
            119.872748,
            30.606037
          ],
          [
            119.872653,
            30.605994
          ],
          [
            119.87266,
            30.606014
          ],
          [
            119.872584,
            30.605947
          ],
          [
            119.872512,
            30.605878
          ],
          [
            119.87242,
            30.605828
          ],
          [
            119.872317,
            30.605803
          ],
          [
            119.872224,
            30.605757
          ],
          [
            119.872127,
            30.60572
          ],
          [
            119.87203,
            30.605685
          ],
          [
            119.871931,
            30.605647
          ],
          [
            119.871827,
            30.605615
          ],
          [
            119.871718,
            30.605621
          ],
          [
            119.87161,
            30.605617
          ],
          [
            119.871505,
            30.605605
          ],
          [
            119.871392,
            30.605581
          ],
          [
            119.871296,
            30.605533
          ],
          [
            119.871209,
            30.60548
          ],
          [
            119.871104,
            30.605463
          ],
          [
            119.871027,
            30.605399
          ],
          [
            119.870932,
            30.605342
          ],
          [
            119.870823,
            30.605331
          ],
          [
            119.870719,
            30.605368
          ],
          [
            119.870622,
            30.605405
          ],
          [
            119.870535,
            30.605461
          ],
          [
            119.870499,
            30.605554
          ],
          [
            119.870461,
            30.60564
          ],
          [
            119.870413,
            30.605721
          ],
          [
            119.870345,
            30.605793
          ],
          [
            119.870239,
            30.605812
          ],
          [
            119.87012,
            30.605808
          ],
          [
            119.870006,
            30.605803
          ],
          [
            119.869956,
            30.605888
          ],
          [
            119.869883,
            30.605958
          ],
          [
            119.869823,
            30.606035
          ],
          [
            119.869745,
            30.606102
          ],
          [
            119.869677,
            30.606172
          ],
          [
            119.869591,
            30.606243
          ],
          [
            119.869511,
            30.606303
          ],
          [
            119.86946,
            30.606393
          ],
          [
            119.869398,
            30.606468
          ],
          [
            119.869392,
            30.606558
          ],
          [
            119.869323,
            30.606627
          ],
          [
            119.869233,
            30.606677
          ],
          [
            119.869142,
            30.606729
          ],
          [
            119.869129,
            30.606823
          ],
          [
            119.869072,
            30.606906
          ],
          [
            119.869011,
            30.606992
          ],
          [
            119.868955,
            30.607067
          ],
          [
            119.868913,
            30.607158
          ],
          [
            119.868883,
            30.607245
          ],
          [
            119.868812,
            30.607312
          ],
          [
            119.868847,
            30.6074
          ],
          [
            119.868833,
            30.60749
          ],
          [
            119.868726,
            30.607525
          ],
          [
            119.86864,
            30.607585
          ],
          [
            119.868566,
            30.607667
          ],
          [
            119.868461,
            30.607696
          ],
          [
            119.868381,
            30.607756
          ],
          [
            119.86827,
            30.607771
          ],
          [
            119.868174,
            30.607808
          ],
          [
            119.868097,
            30.607745
          ],
          [
            119.868025,
            30.60768
          ],
          [
            119.867922,
            30.607653
          ],
          [
            119.867816,
            30.607643
          ],
          [
            119.867735,
            30.60758
          ],
          [
            119.867631,
            30.607554
          ],
          [
            119.867536,
            30.607599
          ],
          [
            119.867543,
            30.607504
          ],
          [
            119.867493,
            30.60742
          ],
          [
            119.867409,
            30.607367
          ],
          [
            119.867316,
            30.607308
          ],
          [
            119.867364,
            30.607211
          ],
          [
            119.86727,
            30.60716
          ],
          [
            119.867187,
            30.607221
          ],
          [
            119.867269,
            30.607286
          ],
          [
            119.867264,
            30.60738
          ],
          [
            119.867252,
            30.607477
          ],
          [
            119.867259,
            30.607575
          ],
          [
            119.867313,
            30.607652
          ],
          [
            119.867369,
            30.60773
          ],
          [
            119.867394,
            30.607824
          ],
          [
            119.867423,
            30.607915
          ],
          [
            119.867445,
            30.608007
          ],
          [
            119.867336,
            30.608001
          ],
          [
            119.86736,
            30.608095
          ],
          [
            119.867255,
            30.608084
          ],
          [
            119.867299,
            30.608167
          ],
          [
            119.867268,
            30.608254
          ],
          [
            119.867239,
            30.608344
          ],
          [
            119.867206,
            30.608439
          ],
          [
            119.867206,
            30.608535
          ],
          [
            119.867242,
            30.608625
          ],
          [
            119.867274,
            30.608718
          ],
          [
            119.867372,
            30.60876
          ],
          [
            119.867486,
            30.608761
          ],
          [
            119.867591,
            30.608797
          ],
          [
            119.86769,
            30.60884
          ],
          [
            119.867792,
            30.608811
          ],
          [
            119.867904,
            30.608814
          ],
          [
            119.867991,
            30.608874
          ],
          [
            119.86807,
            30.608934
          ],
          [
            119.868185,
            30.608933
          ],
          [
            119.868302,
            30.60894
          ],
          [
            119.868407,
            30.608963
          ],
          [
            119.868513,
            30.608982
          ],
          [
            119.86862,
            30.608966
          ],
          [
            119.868519,
            30.608993
          ],
          [
            119.868415,
            30.609029
          ],
          [
            119.868323,
            30.609075
          ],
          [
            119.868223,
            30.609101
          ],
          [
            119.868111,
            30.609107
          ],
          [
            119.867995,
            30.609129
          ],
          [
            119.867902,
            30.609184
          ],
          [
            119.867809,
            30.609229
          ],
          [
            119.867726,
            30.609288
          ],
          [
            119.867652,
            30.609356
          ],
          [
            119.867547,
            30.609368
          ],
          [
            119.867435,
            30.60936
          ],
          [
            119.86733,
            30.609355
          ],
          [
            119.867216,
            30.609354
          ],
          [
            119.86709,
            30.609329
          ],
          [
            119.866988,
            30.609298
          ],
          [
            119.866894,
            30.609252
          ],
          [
            119.866811,
            30.609194
          ],
          [
            119.866728,
            30.609134
          ],
          [
            119.866686,
            30.609049
          ],
          [
            119.86665,
            30.608958
          ],
          [
            119.866601,
            30.608873
          ],
          [
            119.866514,
            30.608818
          ],
          [
            119.866441,
            30.608747
          ],
          [
            119.866353,
            30.608691
          ],
          [
            119.866246,
            30.60872
          ],
          [
            119.866136,
            30.608735
          ],
          [
            119.866026,
            30.608724
          ],
          [
            119.865923,
            30.608763
          ],
          [
            119.865854,
            30.608833
          ],
          [
            119.865833,
            30.608928
          ],
          [
            119.86575,
            30.608989
          ],
          [
            119.865658,
            30.609043
          ],
          [
            119.865595,
            30.609116
          ],
          [
            119.865492,
            30.609148
          ],
          [
            119.865475,
            30.60924
          ],
          [
            119.86549,
            30.609338
          ],
          [
            119.865498,
            30.609247
          ],
          [
            119.865568,
            30.609324
          ],
          [
            119.865676,
            30.609345
          ],
          [
            119.865766,
            30.609287
          ],
          [
            119.865809,
            30.609203
          ],
          [
            119.865767,
            30.609297
          ],
          [
            119.865661,
            30.609345
          ],
          [
            119.865555,
            30.609377
          ],
          [
            119.86548,
            30.609443
          ],
          [
            119.865385,
            30.609488
          ],
          [
            119.865312,
            30.609563
          ],
          [
            119.865221,
            30.60961
          ],
          [
            119.8652,
            30.609705
          ],
          [
            119.865125,
            30.609783
          ],
          [
            119.865045,
            30.609854
          ],
          [
            119.864988,
            30.609933
          ],
          [
            119.864957,
            30.610029
          ],
          [
            119.864952,
            30.610121
          ],
          [
            119.864847,
            30.610129
          ],
          [
            119.864758,
            30.61019
          ],
          [
            119.864661,
            30.610231
          ],
          [
            119.864571,
            30.610281
          ],
          [
            119.864464,
            30.610288
          ],
          [
            119.864388,
            30.610354
          ],
          [
            119.864289,
            30.610387
          ],
          [
            119.864205,
            30.610448
          ],
          [
            119.864106,
            30.610478
          ],
          [
            119.864158,
            30.610565
          ],
          [
            119.864214,
            30.610644
          ],
          [
            119.864307,
            30.610695
          ],
          [
            119.864408,
            30.610729
          ],
          [
            119.864517,
            30.610741
          ],
          [
            119.86443,
            30.610797
          ],
          [
            119.864329,
            30.61084
          ],
          [
            119.86424,
            30.610889
          ],
          [
            119.864336,
            30.61093
          ],
          [
            119.864444,
            30.610916
          ],
          [
            119.864533,
            30.610971
          ],
          [
            119.864633,
            30.611005
          ],
          [
            119.864696,
            30.611088
          ],
          [
            119.86477,
            30.61102
          ],
          [
            119.864873,
            30.611044
          ],
          [
            119.864898,
            30.611136
          ],
          [
            119.864929,
            30.611225
          ],
          [
            119.864947,
            30.611323
          ],
          [
            119.865009,
            30.611397
          ],
          [
            119.865118,
            30.611387
          ],
          [
            119.865226,
            30.611372
          ],
          [
            119.865177,
            30.611452
          ],
          [
            119.865241,
            30.611377
          ],
          [
            119.865128,
            30.61138
          ],
          [
            119.865023,
            30.611379
          ],
          [
            119.864922,
            30.611403
          ],
          [
            119.864824,
            30.611441
          ],
          [
            119.864705,
            30.611445
          ],
          [
            119.864596,
            30.61141
          ],
          [
            119.864495,
            30.61138
          ],
          [
            119.864389,
            30.611334
          ],
          [
            119.864308,
            30.611274
          ],
          [
            119.864225,
            30.611217
          ],
          [
            119.864135,
            30.611165
          ],
          [
            119.864038,
            30.611116
          ],
          [
            119.863927,
            30.611105
          ],
          [
            119.864001,
            30.61104
          ],
          [
            119.864098,
            30.610991
          ],
          [
            119.864153,
            30.610915
          ],
          [
            119.864136,
            30.610823
          ],
          [
            119.864044,
            30.610765
          ],
          [
            119.863963,
            30.610706
          ],
          [
            119.863879,
            30.610645
          ],
          [
            119.863803,
            30.610581
          ],
          [
            119.863722,
            30.610519
          ],
          [
            119.863647,
            30.610457
          ],
          [
            119.863607,
            30.610373
          ],
          [
            119.86354,
            30.610304
          ],
          [
            119.863445,
            30.610349
          ],
          [
            119.863357,
            30.610401
          ],
          [
            119.863374,
            30.61049
          ],
          [
            119.863269,
            30.610511
          ],
          [
            119.863239,
            30.610421
          ],
          [
            119.863255,
            30.610327
          ],
          [
            119.863213,
            30.610244
          ],
          [
            119.863312,
            30.610201
          ],
          [
            119.863406,
            30.61016
          ],
          [
            119.863317,
            30.610098
          ],
          [
            119.863258,
            30.610021
          ],
          [
            119.863211,
            30.609938
          ],
          [
            119.863262,
            30.609858
          ],
          [
            119.863323,
            30.609772
          ],
          [
            119.863355,
            30.609683
          ],
          [
            119.863388,
            30.609594
          ],
          [
            119.86341,
            30.609497
          ],
          [
            119.863428,
            30.609407
          ],
          [
            119.863416,
            30.609315
          ],
          [
            119.863381,
            30.609222
          ],
          [
            119.86333,
            30.609142
          ],
          [
            119.863283,
            30.609059
          ],
          [
            119.863177,
            30.60907
          ],
          [
            119.863082,
            30.609029
          ],
          [
            119.863001,
            30.608966
          ],
          [
            119.863104,
            30.60901
          ],
          [
            119.863201,
            30.609049
          ],
          [
            119.863141,
            30.608969
          ],
          [
            119.86307,
            30.608897
          ],
          [
            119.863037,
            30.608802
          ],
          [
            119.86298,
            30.608722
          ],
          [
            119.862949,
            30.608636
          ],
          [
            119.862916,
            30.608542
          ],
          [
            119.862825,
            30.608496
          ],
          [
            119.862729,
            30.608452
          ],
          [
            119.862641,
            30.608386
          ],
          [
            119.862592,
            30.608303
          ],
          [
            119.862497,
            30.608258
          ],
          [
            119.862395,
            30.608214
          ],
          [
            119.862296,
            30.60818
          ],
          [
            119.862198,
            30.608141
          ],
          [
            119.862093,
            30.608126
          ],
          [
            119.861987,
            30.608162
          ],
          [
            119.861887,
            30.608197
          ],
          [
            119.861806,
            30.608255
          ],
          [
            119.861728,
            30.608317
          ],
          [
            119.861659,
            30.608389
          ],
          [
            119.861559,
            30.608441
          ],
          [
            119.861453,
            30.608467
          ],
          [
            119.86142,
            30.608553
          ],
          [
            119.86152,
            30.608578
          ],
          [
            119.861414,
            30.608562
          ],
          [
            119.86143,
            30.608461
          ],
          [
            119.861391,
            30.60854
          ],
          [
            119.861281,
            30.608344
          ],
          [
            119.861403,
            30.608552
          ],
          [
            119.861512,
            30.608564
          ],
          [
            119.861623,
            30.608563
          ],
          [
            119.861728,
            30.608595
          ],
          [
            119.861806,
            30.608524
          ],
          [
            119.861882,
            30.608462
          ],
          [
            119.861958,
            30.608398
          ],
          [
            119.862064,
            30.608387
          ],
          [
            119.861958,
            30.608415
          ],
          [
            119.861854,
            30.608442
          ],
          [
            119.861789,
            30.60852
          ],
          [
            119.8617,
            30.608577
          ],
          [
            119.861627,
            30.608651
          ],
          [
            119.861552,
            30.608725
          ],
          [
            119.861455,
            30.60877
          ],
          [
            119.861344,
            30.608782
          ],
          [
            119.861238,
            30.608768
          ],
          [
            119.861129,
            30.608764
          ],
          [
            119.861023,
            30.608761
          ],
          [
            119.860914,
            30.608749
          ],
          [
            119.860807,
            30.608764
          ],
          [
            119.860713,
            30.60872
          ],
          [
            119.860642,
            30.608646
          ],
          [
            119.860545,
            30.608604
          ],
          [
            119.860446,
            30.608556
          ],
          [
            119.860352,
            30.608507
          ],
          [
            119.860365,
            30.608414
          ],
          [
            119.860363,
            30.60832
          ],
          [
            119.860351,
            30.60823
          ],
          [
            119.86032,
            30.60814
          ],
          [
            119.860302,
            30.608048
          ],
          [
            119.860292,
            30.607951
          ],
          [
            119.860354,
            30.607871
          ],
          [
            119.860341,
            30.607774
          ],
          [
            119.860292,
            30.607681
          ],
          [
            119.860247,
            30.607595
          ],
          [
            119.860216,
            30.607504
          ],
          [
            119.860163,
            30.607417
          ],
          [
            119.860187,
            30.607315
          ],
          [
            119.860175,
            30.607222
          ],
          [
            119.860253,
            30.607152
          ],
          [
            119.860245,
            30.607053
          ],
          [
            119.860196,
            30.606962
          ],
          [
            119.860142,
            30.606879
          ],
          [
            119.860166,
            30.606784
          ],
          [
            119.860149,
            30.606685
          ],
          [
            119.860131,
            30.606592
          ],
          [
            119.860202,
            30.606515
          ],
          [
            119.860274,
            30.606446
          ],
          [
            119.860383,
            30.60644
          ],
          [
            119.860489,
            30.606431
          ],
          [
            119.860609,
            30.60641
          ],
          [
            119.86073,
            30.606385
          ],
          [
            119.860827,
            30.606345
          ],
          [
            119.860912,
            30.606288
          ],
          [
            119.860974,
            30.606202
          ],
          [
            119.861028,
            30.606119
          ],
          [
            119.861082,
            30.606023
          ],
          [
            119.861119,
            30.605922
          ],
          [
            119.861162,
            30.605826
          ],
          [
            119.861208,
            30.60573
          ],
          [
            119.861205,
            30.605629
          ],
          [
            119.86123,
            30.605541
          ],
          [
            119.86131,
            30.605445
          ],
          [
            119.861403,
            30.605486
          ],
          [
            119.861473,
            30.605373
          ],
          [
            119.861503,
            30.605276
          ],
          [
            119.861485,
            30.605183
          ],
          [
            119.861534,
            30.605088
          ],
          [
            119.861593,
            30.605006
          ],
          [
            119.861624,
            30.604915
          ],
          [
            119.861666,
            30.604812
          ],
          [
            119.861743,
            30.604749
          ],
          [
            119.861853,
            30.604703
          ],
          [
            119.861951,
            30.604643
          ],
          [
            119.862048,
            30.60459
          ],
          [
            119.862164,
            30.604563
          ],
          [
            119.862284,
            30.604559
          ],
          [
            119.862391,
            30.60456
          ],
          [
            119.862503,
            30.604566
          ],
          [
            119.862594,
            30.604629
          ],
          [
            119.8627,
            30.60466
          ],
          [
            119.862818,
            30.604653
          ],
          [
            119.862927,
            30.60466
          ],
          [
            119.863033,
            30.604653
          ],
          [
            119.863145,
            30.604646
          ],
          [
            119.863257,
            30.60465
          ],
          [
            119.86337,
            30.604641
          ],
          [
            119.863466,
            30.604685
          ],
          [
            119.863594,
            30.604699
          ],
          [
            119.863717,
            30.6047
          ],
          [
            119.863823,
            30.604719
          ],
          [
            119.863939,
            30.604746
          ],
          [
            119.86405,
            30.604757
          ],
          [
            119.864157,
            30.604758
          ],
          [
            119.864281,
            30.604776
          ],
          [
            119.864393,
            30.604802
          ],
          [
            119.864498,
            30.604815
          ],
          [
            119.86461,
            30.604814
          ],
          [
            119.864721,
            30.604864
          ],
          [
            119.864768,
            30.604945
          ],
          [
            119.864764,
            30.605038
          ],
          [
            119.864762,
            30.605137
          ],
          [
            119.864671,
            30.605206
          ],
          [
            119.864563,
            30.605265
          ],
          [
            119.864461,
            30.605295
          ],
          [
            119.864345,
            30.605322
          ],
          [
            119.864228,
            30.605355
          ],
          [
            119.864123,
            30.605362
          ],
          [
            119.86399,
            30.60538
          ],
          [
            119.863877,
            30.605398
          ],
          [
            119.86376,
            30.605428
          ],
          [
            119.863637,
            30.605414
          ],
          [
            119.863523,
            30.605431
          ],
          [
            119.863409,
            30.605469
          ],
          [
            119.863306,
            30.605491
          ],
          [
            119.863201,
            30.605513
          ],
          [
            119.863089,
            30.605528
          ],
          [
            119.862979,
            30.605549
          ],
          [
            119.863089,
            30.605536
          ],
          [
            119.86319,
            30.605511
          ],
          [
            119.863304,
            30.60547
          ],
          [
            119.86341,
            30.605461
          ],
          [
            119.863525,
            30.605438
          ],
          [
            119.863637,
            30.605415
          ],
          [
            119.863748,
            30.605412
          ],
          [
            119.863853,
            30.605407
          ],
          [
            119.86396,
            30.605376
          ],
          [
            119.864071,
            30.605369
          ],
          [
            119.864181,
            30.605344
          ],
          [
            119.864286,
            30.605325
          ],
          [
            119.864397,
            30.605312
          ],
          [
            119.864499,
            30.605295
          ],
          [
            119.864557,
            30.605372
          ],
          [
            119.864659,
            30.605352
          ],
          [
            119.864748,
            30.605296
          ],
          [
            119.86486,
            30.605256
          ],
          [
            119.864936,
            30.605193
          ],
          [
            119.864986,
            30.605113
          ],
          [
            119.865034,
            30.605032
          ],
          [
            119.865073,
            30.604948
          ],
          [
            119.865106,
            30.604862
          ],
          [
            119.865151,
            30.604777
          ],
          [
            119.865212,
            30.604698
          ],
          [
            119.865276,
            30.60462
          ],
          [
            119.865301,
            30.604531
          ],
          [
            119.865321,
            30.604435
          ],
          [
            119.865279,
            30.604344
          ],
          [
            119.865233,
            30.604259
          ],
          [
            119.8652,
            30.604163
          ],
          [
            119.865139,
            30.604084
          ],
          [
            119.865232,
            30.604035
          ],
          [
            119.865338,
            30.604067
          ],
          [
            119.865429,
            30.604122
          ],
          [
            119.8655,
            30.604192
          ],
          [
            119.865568,
            30.604261
          ],
          [
            119.865661,
            30.604302
          ],
          [
            119.865773,
            30.604273
          ],
          [
            119.86586,
            30.604221
          ],
          [
            119.865962,
            30.604272
          ],
          [
            119.866022,
            30.604356
          ],
          [
            119.866017,
            30.604449
          ],
          [
            119.866065,
            30.604367
          ],
          [
            119.865999,
            30.604287
          ],
          [
            119.865915,
            30.604228
          ],
          [
            119.865807,
            30.604231
          ],
          [
            119.865716,
            30.604291
          ],
          [
            119.865614,
            30.604275
          ],
          [
            119.865553,
            30.604194
          ],
          [
            119.865475,
            30.604113
          ],
          [
            119.865436,
            30.604027
          ],
          [
            119.865443,
            30.603934
          ],
          [
            119.865499,
            30.604011
          ],
          [
            119.86554,
            30.604105
          ],
          [
            119.865639,
            30.604144
          ],
          [
            119.865742,
            30.604169
          ],
          [
            119.865847,
            30.604164
          ],
          [
            119.865947,
            30.604197
          ],
          [
            119.866039,
            30.604239
          ],
          [
            119.866144,
            30.604252
          ],
          [
            119.866249,
            30.604245
          ],
          [
            119.866344,
            30.604285
          ],
          [
            119.866438,
            30.604334
          ],
          [
            119.866527,
            30.604387
          ],
          [
            119.866515,
            30.60448
          ],
          [
            119.86662,
            30.604465
          ],
          [
            119.86671,
            30.604412
          ],
          [
            119.866818,
            30.604407
          ],
          [
            119.866799,
            30.604315
          ],
          [
            119.866802,
            30.604219
          ],
          [
            119.866806,
            30.604121
          ],
          [
            119.866787,
            30.604031
          ],
          [
            119.866761,
            30.603939
          ],
          [
            119.866757,
            30.603843
          ],
          [
            119.866759,
            30.603749
          ],
          [
            119.866728,
            30.603663
          ],
          [
            119.866721,
            30.603571
          ],
          [
            119.866686,
            30.603485
          ],
          [
            119.866679,
            30.603394
          ],
          [
            119.866657,
            30.603304
          ],
          [
            119.86669,
            30.603216
          ],
          [
            119.866762,
            30.603151
          ],
          [
            119.866849,
            30.603092
          ],
          [
            119.86696,
            30.603067
          ],
          [
            119.867067,
            30.603022
          ],
          [
            119.867214,
            30.602982
          ],
          [
            119.867342,
            30.602909
          ],
          [
            119.867408,
            30.602837
          ],
          [
            119.867391,
            30.602743
          ],
          [
            119.86743,
            30.602657
          ],
          [
            119.867514,
            30.602588
          ],
          [
            119.867617,
            30.602546
          ],
          [
            119.867721,
            30.602532
          ],
          [
            119.867834,
            30.602522
          ],
          [
            119.867944,
            30.602548
          ],
          [
            119.868053,
            30.602573
          ],
          [
            119.868163,
            30.602583
          ],
          [
            119.868284,
            30.602588
          ],
          [
            119.868372,
            30.602533
          ],
          [
            119.86845,
            30.602467
          ],
          [
            119.868556,
            30.602422
          ],
          [
            119.868646,
            30.602371
          ],
          [
            119.868756,
            30.602315
          ],
          [
            119.868852,
            30.602272
          ],
          [
            119.868949,
            30.602216
          ],
          [
            119.869028,
            30.602145
          ],
          [
            119.869105,
            30.602083
          ],
          [
            119.869187,
            30.602026
          ],
          [
            119.869291,
            30.602003
          ],
          [
            119.869389,
            30.601964
          ],
          [
            119.869448,
            30.601889
          ],
          [
            119.869511,
            30.601811
          ],
          [
            119.869541,
            30.601712
          ],
          [
            119.869618,
            30.601647
          ],
          [
            119.869712,
            30.601591
          ],
          [
            119.869805,
            30.601527
          ],
          [
            119.869853,
            30.601445
          ],
          [
            119.869957,
            30.601411
          ],
          [
            119.870058,
            30.601437
          ],
          [
            119.87016,
            30.601473
          ],
          [
            119.870263,
            30.601457
          ],
          [
            119.870374,
            30.601435
          ],
          [
            119.87048,
            30.601397
          ],
          [
            119.870519,
            30.601313
          ],
          [
            119.870556,
            30.601221
          ],
          [
            119.870538,
            30.601131
          ],
          [
            119.870516,
            30.601038
          ],
          [
            119.870595,
            30.600962
          ],
          [
            119.870675,
            30.60089
          ],
          [
            119.870778,
            30.600855
          ],
          [
            119.870883,
            30.600829
          ],
          [
            119.870983,
            30.600803
          ],
          [
            119.871082,
            30.60077
          ],
          [
            119.87118,
            30.600734
          ],
          [
            119.871255,
            30.60067
          ],
          [
            119.871349,
            30.600623
          ],
          [
            119.871439,
            30.60057
          ],
          [
            119.871524,
            30.600507
          ],
          [
            119.871625,
            30.60048
          ],
          [
            119.871713,
            30.60053
          ],
          [
            119.871754,
            30.60062
          ],
          [
            119.871848,
            30.600691
          ],
          [
            119.871929,
            30.600756
          ],
          [
            119.871978,
            30.600839
          ],
          [
            119.872037,
            30.600926
          ],
          [
            119.872104,
            30.601002
          ],
          [
            119.872203,
            30.60104
          ],
          [
            119.872308,
            30.601071
          ],
          [
            119.872414,
            30.60109
          ],
          [
            119.872516,
            30.601129
          ],
          [
            119.872623,
            30.601163
          ],
          [
            119.872735,
            30.601174
          ],
          [
            119.872846,
            30.601198
          ],
          [
            119.872951,
            30.601208
          ],
          [
            119.873063,
            30.601241
          ],
          [
            119.873167,
            30.601271
          ],
          [
            119.873264,
            30.601312
          ],
          [
            119.873357,
            30.601265
          ],
          [
            119.873462,
            30.601241
          ],
          [
            119.873564,
            30.601215
          ],
          [
            119.873674,
            30.60119
          ],
          [
            119.873787,
            30.601192
          ],
          [
            119.873851,
            30.601265
          ],
          [
            119.873957,
            30.601283
          ],
          [
            119.874061,
            30.601317
          ],
          [
            119.874117,
            30.601396
          ],
          [
            119.874204,
            30.601452
          ],
          [
            119.874294,
            30.601509
          ],
          [
            119.874345,
            30.601594
          ],
          [
            119.874419,
            30.601661
          ],
          [
            119.874481,
            30.601752
          ],
          [
            119.874542,
            30.601838
          ],
          [
            119.874597,
            30.601928
          ],
          [
            119.874628,
            30.602023
          ],
          [
            119.874674,
            30.602122
          ],
          [
            119.874699,
            30.602213
          ],
          [
            119.874723,
            30.602311
          ],
          [
            119.874765,
            30.6024
          ],
          [
            119.87485,
            30.602456
          ],
          [
            119.874928,
            30.602526
          ],
          [
            119.875025,
            30.6026
          ],
          [
            119.875128,
            30.602649
          ],
          [
            119.875233,
            30.602703
          ],
          [
            119.875324,
            30.602762
          ],
          [
            119.875415,
            30.602811
          ],
          [
            119.875519,
            30.602839
          ],
          [
            119.875627,
            30.602883
          ],
          [
            119.875727,
            30.602913
          ],
          [
            119.875839,
            30.602943
          ],
          [
            119.875946,
            30.602937
          ],
          [
            119.876054,
            30.602912
          ],
          [
            119.876165,
            30.602936
          ],
          [
            119.876275,
            30.60293
          ],
          [
            119.876376,
            30.602963
          ],
          [
            119.876467,
            30.603016
          ],
          [
            119.876577,
            30.603021
          ],
          [
            119.876682,
            30.603022
          ],
          [
            119.876786,
            30.603029
          ],
          [
            119.876903,
            30.603046
          ],
          [
            119.877011,
            30.603033
          ],
          [
            119.877117,
            30.603029
          ],
          [
            119.877229,
            30.603013
          ],
          [
            119.877333,
            30.603039
          ],
          [
            119.877437,
            30.603056
          ],
          [
            119.877549,
            30.603047
          ],
          [
            119.877656,
            30.603028
          ],
          [
            119.877757,
            30.603004
          ],
          [
            119.877858,
            30.602954
          ],
          [
            119.87796,
            30.602906
          ],
          [
            119.87805,
            30.602859
          ],
          [
            119.878145,
            30.602802
          ],
          [
            119.878246,
            30.60275
          ],
          [
            119.878338,
            30.602688
          ],
          [
            119.878438,
            30.602647
          ],
          [
            119.878543,
            30.60262
          ],
          [
            119.878651,
            30.602601
          ],
          [
            119.87876,
            30.602597
          ],
          [
            119.878868,
            30.602591
          ],
          [
            119.878978,
            30.602597
          ],
          [
            119.879082,
            30.602577
          ],
          [
            119.879187,
            30.602589
          ],
          [
            119.879285,
            30.602552
          ],
          [
            119.879384,
            30.602508
          ],
          [
            119.87948,
            30.602463
          ],
          [
            119.87957,
            30.602414
          ],
          [
            119.879676,
            30.602395
          ],
          [
            119.879784,
            30.602388
          ],
          [
            119.879885,
            30.602415
          ],
          [
            119.879991,
            30.602443
          ],
          [
            119.880095,
            30.602457
          ],
          [
            119.880193,
            30.602417
          ],
          [
            119.88024,
            30.602499
          ],
          [
            119.880322,
            30.602556
          ],
          [
            119.880402,
            30.602632
          ],
          [
            119.880499,
            30.602596
          ],
          [
            119.880501,
            30.602687
          ],
          [
            119.88051,
            30.60278
          ],
          [
            119.880463,
            30.602864
          ],
          [
            119.880456,
            30.602958
          ],
          [
            119.880447,
            30.603056
          ],
          [
            119.880414,
            30.603154
          ],
          [
            119.880333,
            30.603212
          ],
          [
            119.880252,
            30.603288
          ],
          [
            119.880179,
            30.603371
          ],
          [
            119.880087,
            30.603446
          ],
          [
            119.880001,
            30.603516
          ],
          [
            119.879912,
            30.603577
          ],
          [
            119.87986,
            30.603657
          ],
          [
            119.879933,
            30.603723
          ],
          [
            119.880031,
            30.603759
          ],
          [
            119.880119,
            30.603813
          ],
          [
            119.880209,
            30.603864
          ],
          [
            119.880289,
            30.603922
          ],
          [
            119.880334,
            30.604007
          ],
          [
            119.880395,
            30.604081
          ],
          [
            119.880496,
            30.604109
          ],
          [
            119.880588,
            30.604154
          ],
          [
            119.880678,
            30.604211
          ],
          [
            119.880766,
            30.604262
          ],
          [
            119.880866,
            30.604304
          ],
          [
            119.880971,
            30.604343
          ],
          [
            119.881074,
            30.604359
          ],
          [
            119.881177,
            30.604398
          ],
          [
            119.881283,
            30.604418
          ],
          [
            119.881404,
            30.604418
          ],
          [
            119.881517,
            30.604429
          ],
          [
            119.881469,
            30.604516
          ]
        ]
      }
    }
  ]
}
