{
  "type": "FeatureCollection",
  "features": [
    {
      "type": "Feature",
      "properties": {
        "name": "墨脱徒步参考轨迹",
        "type": "hiking",
        "source": "两步路用户轨迹",
        "segments": 3
      },
      "geometry": {
        "type": "MultiLineString",
        "coordinates": [
          [
            [
              94.88267,
              29.516506
            ],
            [
              94.882935,
              29.516235
            ],
            [
              94.882935,
              29.516235
            ],
            [
              94.882965,
              29.516039
            ],
            [
              94.882965,
              29.516039
            ],
            [
              94.88255,
              29.515326
            ],
            [
              94.88255,
              29.515326
            ],
            [
              94.88267,
              29.515284
            ],
            [
              94.88267,
              29.515284
            ],
            [
              94.88306,
              29.515743
            ],
            [
              94.88306,
              29.515743
            ],
            [
              94.884155,
              29.516169
            ],
            [
              94.884155,
              29.516169
            ],
            [
              94.88516,
              29.516634
            ],
            [
              94.88516,
              29.516634
            ],
            [
              94.88549,
              29.516623
            ],
            [
              94.88549,
              29.516623
            ],
            [
              94.886566,
              29.516115
            ],
            [
              94.886566,
              29.516115
            ],
            [
              94.88748,
              29.515608
            ],
            [
              94.88748,
              29.515608
            ],
            [
              94.88833,
              29.515615
            ],
            [
              94.88833,
              29.515615
            ],
            [
              94.88865,
              29.514906
            ],
            [
              94.88865,
              29.514906
            ],
            [
              94.88878,
              29.51427
            ],
            [
              94.88878,
              29.51427
            ],
            [
              94.88869,
              29.513906
            ],
            [
              94.88869,
              29.513906
            ],
            [
              94.88892,
              29.513334
            ],
            [
              94.88892,
              29.513334
            ],
            [
              94.88898,
              29.512794
            ],
            [
              94.88898,
              29.512794
            ],
            [
              94.88925,
              29.512548
            ],
            [
              94.88925,
              29.512548
            ],
            [
              94.8897,
              29.512552
            ],
            [
              94.8897,
              29.512552
            ],
            [
              94.889854,
              29.512346
            ],
            [
              94.889854,
              29.512346
            ],
            [
              94.88965,
              29.5122
            ],
            [
              94.88965,
              29.5122
            ],
            [
              94.888985,
              29.512123
            ],
            [
              94.888985,
              29.512123
            ],
            [
              94.88865,
              29.51213
            ],
            [
              94.88865,
              29.51213
            ],
            [
              94.888466,
              29.51233
            ],
            [
              94.888466,
              29.51233
            ],
            [
              94.88823,
              29.51294
            ],
            [
              94.88823,
              29.51294
            ],
            [
              94.88792,
              29.512918
            ],
            [
              94.88792,
              29.512918
            ],
            [
              94.88766,
              29.512787
            ],
            [
              94.88766,
              29.512787
            ],
            [
              94.887695,
              29.512506
            ],
            [
              94.887695,
              29.512506
            ],
            [
              94.88767,
              29.512152
            ],
            [
              94.88767,
              29.512152
            ],
            [
              94.88812,
              29.511751
            ],
            [
              94.88812,
              29.511751
            ],
            [
              94.88871,
              29.511364
            ],
            [
              94.88871,
              29.511364
            ],
            [
              94.888885,
              29.511084
            ],
            [
              94.888885,
              29.511084
            ],
            [
              94.88943,
              29.5108
            ],
            [
              94.88943,
              29.5108
            ],
            [
              94.88996,
              29.510818
            ],
            [
              94.88996,
              29.510818
            ],
            [
              94.89053,
              29.510942
            ],
            [
              94.89053,
              29.510942
            ],
            [
              94.891106,
              29.510914
            ],
            [
              94.891106,
              29.510914
            ],
            [
              94.89173,
              29.511194
            ],
            [
              94.89173,
              29.511194
            ],
            [
              94.89191,
              29.51113
            ],
            [
              94.89191,
              29.51113
            ],
            [
              94.891,
              29.509869
            ],
            [
              94.891,
              29.509869
            ],
            [
              94.89101,
              29.509663
            ],
            [
              94.89101,
              29.509663
            ],
            [
              94.89114,
              29.509615
            ],
            [
              94.89114,
              29.509615
            ],
            [
              94.89172,
              29.510057
            ],
            [
              94.89172,
              29.510057
            ],
            [
              94.89287,
              29.510223
            ],
            [
              94.89287,
              29.510223
            ],
            [
              94.8931,
              29.510351
            ],
            [
              94.8931,
              29.510351
            ],
            [
              94.89321,
              29.510262
            ],
            [
              94.89321,
              29.510262
            ],
            [
              94.89318,
              29.510143
            ],
            [
              94.89318,
              29.510143
            ],
            [
              94.89289,
              29.510109
            ],
            [
              94.89289,
              29.510109
            ],
            [
              94.89237,
              29.509876
            ],
            [
              94.89237,
              29.509876
            ],
            [
              94.891716,
              29.509033
            ],
            [
              94.891716,
              29.509033
            ],
            [
              94.89145,
              29.508734
            ],
            [
              94.89145,
              29.508734
            ],
            [
              94.891495,
              29.507345
            ],
            [
              94.891495,
              29.507345
            ],
            [
              94.891556,
              29.507105
            ],
            [
              94.891556,
              29.507105
            ],
            [
              94.891754,
              29.506971
            ],
            [
              94.891754,
              29.506971
            ],
            [
              94.89167,
              29.507362
            ],
            [
              94.89167,
              29.507362
            ],
            [
              94.891785,
              29.507572
            ],
            [
              94.891785,
              29.507572
            ],
            [
              94.891716,
              29.50776
            ],
            [
              94.891716,
              29.50776
            ],
            [
              94.89226,
              29.508726
            ],
            [
              94.89226,
              29.508726
            ],
            [
              94.89306,
              29.509142
            ],
            [
              94.89306,
              29.509142
            ],
            [
              94.893524,
              29.509092
            ],
            [
              94.893524,
              29.509092
            ],
            [
              94.89451,
              29.508783
            ],
            [
              94.89451,
              29.508783
            ],
            [
              94.89545,
              29.50839
            ],
            [
              94.89545,
              29.50839
            ],
            [
              94.895775,
              29.508287
            ],
            [
              94.895775,
              29.508287
            ],
            [
              94.89575,
              29.508116
            ],
            [
              94.89575,
              29.508116
            ],
            [
              94.89554,
              29.508118
            ],
            [
              94.89554,
              29.508118
            ],
            [
              94.89518,
              29.508377
            ],
            [
              94.89518,
              29.508377
            ],
            [
              94.89484,
              29.508322
            ],
            [
              94.89484,
              29.508322
            ],
            [
              94.893845,
              29.50847
            ],
            [
              94.893845,
              29.50847
            ],
            [
              94.89352,
              29.508474
            ],
            [
              94.89352,
              29.508474
            ],
            [
              94.89312,
              29.508356
            ],
            [
              94.89312,
              29.508356
            ],
            [
              94.89301,
              29.50817
            ],
            [
              94.89301,
              29.50817
            ],
            [
              94.89307,
              29.507944
            ],
            [
              94.89307,
              29.507944
            ],
            [
              94.89335,
              29.507845
            ],
            [
              94.89335,
              29.507845
            ],
            [
              94.89383,
              29.507809
            ],
            [
              94.89383,
              29.507809
            ],
            [
              94.895325,
              29.506895
            ],
            [
              94.895325,
              29.506895
            ],
            [
              94.895424,
              29.506615
            ],
            [
              94.895424,
              29.506615
            ],
            [
              94.89565,
              29.506624
            ],
            [
              94.89565,
              29.506624
            ],
            [
              94.89601,
              29.506695
            ],
            [
              94.89601,
              29.506695
            ],
            [
              94.896805,
              29.506388
            ],
            [
              94.896805,
              29.506388
            ],
            [
              94.89743,
              29.505947
            ],
            [
              94.89743,
              29.505947
            ],
            [
              94.89818,
              29.50558
            ],
            [
              94.89818,
              29.50558
            ],
            [
              94.89865,
              29.505327
            ],
            [
              94.89865,
              29.505327
            ],
            [
              94.89867,
              29.505154
            ],
            [
              94.89867,
              29.505154
            ],
            [
              94.898315,
              29.50509
            ],
            [
              94.898315,
              29.50509
            ],
            [
              94.8979,
              29.505066
            ],
            [
              94.8979,
              29.505066
            ],
            [
              94.89777,
              29.504988
            ],
            [
              94.89777,
              29.504988
            ],
            [
              94.89794,
              29.504671
            ],
            [
              94.89794,
              29.504671
            ],
            [
              94.89794,
              29.504484
            ],
            [
              94.89794,
              29.504484
            ],
            [
              94.89786,
              29.504253
            ],
            [
              94.89786,
              29.504253
            ],
            [
              94.89876,
              29.503853
            ],
            [
              94.89876,
              29.503853
            ],
            [
              94.90116,
              29.502544
            ],
            [
              94.90116,
              29.502544
            ],
            [
              94.90345,
              29.500755
            ],
            [
              94.90345,
              29.500755
            ],
            [
              94.904015,
              29.499481
            ],
            [
              94.904015,
              29.499481
            ],
            [
              94.90601,
              29.498001
            ],
            [
              94.90601,
              29.498001
            ],
            [
              94.90869,
              29.49597
            ],
            [
              94.90869,
              29.49597
            ],
            [
              94.91068,
              29.494156
            ],
            [
              94.91068,
              29.494156
            ],
            [
              94.913185,
              29.492636
            ],
            [
              94.913185,
              29.492636
            ],
            [
              94.91396,
              29.491693
            ],
            [
              94.91396,
              29.491693
            ],
            [
              94.91483,
              29.490572
            ],
            [
              94.91483,
              29.490572
            ],
            [
              94.917,
              29.48996
            ],
            [
              94.917,
              29.48996
            ],
            [
              94.91881,
              29.489067
            ],
            [
              94.91881,
              29.489067
            ],
            [
              94.92038,
              29.48868
            ],
            [
              94.92038,
              29.48868
            ],
            [
              94.92145,
              29.488739
            ],
            [
              94.92145,
              29.488739
            ],
            [
              94.92191,
              29.489199
            ],
            [
              94.92191,
              29.489199
            ],
            [
              94.922516,
              29.489296
            ],
            [
              94.922516,
              29.489296
            ],
            [
              94.92247,
              29.489576
            ],
            [
              94.92247,
              29.489576
            ],
            [
              94.92183,
              29.48932
            ],
            [
              94.92183,
              29.48932
            ],
            [
              94.92075,
              29.489098
            ],
            [
              94.92075,
              29.489098
            ],
            [
              94.91997,
              29.48927
            ],
            [
              94.91997,
              29.48927
            ],
            [
              94.91884,
              29.490114
            ],
            [
              94.91884,
              29.490114
            ],
            [
              94.91837,
              29.49029
            ],
            [
              94.91837,
              29.49029
            ],
            [
              94.91864,
              29.490438
            ],
            [
              94.91864,
              29.490438
            ],
            [
              94.91894,
              29.490204
            ],
            [
              94.91894,
              29.490204
            ],
            [
              94.91986,
              29.489964
            ],
            [
              94.91986,
              29.489964
            ],
            [
              94.92008,
              29.489733
            ],
            [
              94.92008,
              29.489733
            ],
            [
              94.920906,
              29.489702
            ],
            [
              94.920906,
              29.489702
            ],
            [
              94.92011,
              29.49008
            ],
            [
              94.92011,
              29.49008
            ],
            [
              94.919785,
              29.490301
            ],
            [
              94.919785,
              29.490301
            ],
            [
              94.91925,
              29.490473
            ],
            [
              94.91925,
              29.490473
            ],
            [
              94.91944,
              29.490625
            ],
            [
              94.91944,
              29.490625
            ],
            [
              94.92068,
              29.490147
            ],
            [
              94.92068,
              29.490147
            ],
            [
              94.92185,
              29.49063
            ],
            [
              94.92185,
              29.49063
            ],
            [
              94.92412,
              29.491308
            ],
            [
              94.92412,
              29.491308
            ],
            [
              94.92513,
              29.4915
            ],
            [
              94.92513,
              29.4915
            ],
            [
              94.92476,
              29.491716
            ],
            [
              94.92476,
              29.491716
            ],
            [
              94.9241,
              29.491642
            ],
            [
              94.9241,
              29.491642
            ],
            [
              94.92278,
              29.491716
            ],
            [
              94.92278,
              29.491716
            ],
            [
              94.92379,
              29.491833
            ],
            [
              94.92379,
              29.491833
            ],
            [
              94.924484,
              29.49215
            ],
            [
              94.924484,
              29.49215
            ],
            [
              94.92618,
              29.492153
            ],
            [
              94.92618,
              29.492153
            ],
            [
              94.92712,
              29.491974
            ],
            [
              94.92712,
              29.491974
            ],
            [
              94.9268,
              29.492281
            ],
            [
              94.9268,
              29.492281
            ],
            [
              94.92605,
              29.49259
            ],
            [
              94.92605,
              29.49259
            ],
            [
              94.927315,
              29.492607
            ],
            [
              94.927315,
              29.492607
            ],
            [
              94.93131,
              29.491283
            ],
            [
              94.93131,
              29.491283
            ],
            [
              94.936165,
              29.490204
            ],
            [
              94.936165,
              29.490204
            ],
            [
              94.93876,
              29.489546
            ],
            [
              94.93876,
              29.489546
            ],
            [
              94.941666,
              29.48951
            ],
            [
              94.941666,
              29.48951
            ],
            [
              94.94571,
              29.487963
            ],
            [
              94.94571,
              29.487963
            ],
            [
              94.950226,
              29.488321
            ],
            [
              94.950226,
              29.488321
            ],
            [
              94.953705,
              29.489958
            ],
            [
              94.953705,
              29.489958
            ],
            [
              94.95642,
              29.489925
            ],
            [
              94.95642,
              29.489925
            ],
            [
              94.959465,
              29.48858
            ],
            [
              94.959465,
              29.48858
            ],
            [
              94.96072,
              29.486647
            ],
            [
              94.96072,
              29.486647
            ],
            [
              94.96306,
              29.486862
            ],
            [
              94.96306,
              29.486862
            ],
            [
              94.96404,
              29.486147
            ],
            [
              94.96404,
              29.486147
            ],
            [
              94.96683,
              29.487448
            ],
            [
              94.96683,
              29.487448
            ],
            [
              94.97074,
              29.484869
            ],
            [
              94.97074,
              29.484869
            ],
            [
              94.973,
              29.482037
            ],
            [
              94.973,
              29.482037
            ],
            [
              94.97724,
              29.479757
            ],
            [
              94.97724,
              29.479757
            ],
            [
              94.97955,
              29.478085
            ],
            [
              94.97955,
              29.478085
            ],
            [
              94.98026,
              29.477055
            ],
            [
              94.98026,
              29.477055
            ],
            [
              94.97939,
              29.474812
            ],
            [
              94.97939,
              29.474812
            ],
            [
              94.9844,
              29.470207
            ],
            [
              94.9844,
              29.470207
            ],
            [
              94.99163,
              29.469776
            ],
            [
              94.99163,
              29.469776
            ],
            [
              94.99667,
              29.47074
            ],
            [
              94.99667,
              29.47074
            ],
            [
              95.00058,
              29.467848
            ],
            [
              95.00058,
              29.467848
            ],
            [
              95.01242,
              29.460821
            ],
            [
              95.01242,
              29.460821
            ],
            [
              95.01666,
              29.451427
            ],
            [
              95.01666,
              29.451427
            ],
            [
              95.02544,
              29.446548
            ],
            [
              95.02544,
              29.446548
            ],
            [
              95.03277,
              29.439148
            ],
            [
              95.03277,
              29.439148
            ],
            [
              95.041176,
              29.433512
            ],
            [
              95.041176,
              29.433512
            ],
            [
              95.043686,
              29.429655
            ],
            [
              95.043686,
              29.429655
            ],
            [
              95.04903,
              29.42849
            ],
            [
              95.04903,
              29.42849
            ],
            [
              95.0499,
              29.423016
            ],
            [
              95.0499,
              29.423016
            ],
            [
              95.058846,
              29.418606
            ],
            [
              95.058846,
              29.418606
            ],
            [
              95.06669,
              29.417679
            ],
            [
              95.06669,
              29.417679
            ]
          ],
          [
            [
              95.08588,
              29.406479
            ],
            [
              95.08588,
              29.406479
            ],
            [
              95.094086,
              29.401453
            ],
            [
              95.094086,
              29.401453
            ],
            [
              95.10741,
              29.38889
            ],
            [
              95.10741,
              29.38889
            ]
          ],
          [
            [
              95.1197,
              29.371702
            ],
            [
              95.1197,
              29.371702
            ],
            [
              95.12776,
              29.3672
            ],
            [
              95.12776,
              29.3672
            ],
            [
              95.134544,
              29.36138
            ],
            [
              95.134544,
              29.36138
            ],
            [
              95.14098,
              29.356157
            ],
            [
              95.14098,
              29.356157
            ],
            [
              95.14634,
              29.35426
            ],
            [
              95.14634,
              29.35426
            ],
            [
              95.14954,
              29.351692
            ],
            [
              95.14954,
              29.351692
            ],
            [
              95.15147,
              29.350979
            ],
            [
              95.15147,
              29.350979
            ],
            [
              95.15687,
              29.350527
            ],
            [
              95.15687,
              29.350527
            ],
            [
              95.15971,
              29.349352
            ],
            [
              95.15971,
              29.349352
            ],
            [
              95.16267,
              29.347137
            ],
            [
              95.16267,
              29.347137
            ],
            [
              95.16542,
              29.34489
            ],
            [
              95.16542,
              29.34489
            ],
            [
              95.17138,
              29.341337
            ],
            [
              95.17138,
              29.341337
            ],
            [
              95.170555,
              29.336788
            ],
            [
              95.170555,
              29.336788
            ],
            [
              95.170944,
              29.333145
            ],
            [
              95.170944,
              29.333145
            ],
            [
              95.17202,
              29.331656
            ],
            [
              95.17202,
              29.331656
            ],
            [
              95.17229,
              29.327255
            ],
            [
              95.17229,
              29.327255
            ],
            [
              95.1749,
              29.326141
            ],
            [
              95.1749,
              29.326141
            ],
            [
              95.17741,
              29.328962
            ],
            [
              95.17741,
              29.328962
            ],
            [
              95.178505,
              29.328573
            ],
            [
              95.178505,
              29.328573
            ],
            [
              95.1756,
              29.323956
            ],
            [
              95.1756,
              29.323956
            ],
            [
              95.17725,
              29.317003
            ],
            [
              95.17725,
              29.317003
            ],
            [
              95.175545,
              29.310417
            ],
            [
              95.175545,
              29.310417
            ],
            [
              95.17692,
              29.308308
            ],
            [
              95.17692,
              29.308308
            ],
            [
              95.17575,
              29.30592
            ],
            [
              95.17575,
              29.30592
            ],
            [
              95.17208,
              29.30366
            ],
            [
              95.17208,
              29.30366
            ],
            [
              95.16771,
              29.29779
            ],
            [
              95.16771,
              29.29779
            ],
            [
              95.16572,
              29.293905
            ],
            [
              95.16572,
              29.293905
            ],
            [
              95.166016,
              29.289917
            ],
            [
              95.166016,
              29.289917
            ],
            [
              95.169525,
              29.284678
            ],
            [
              95.169525,
              29.284678
            ],
            [
              95.168434,
              29.283808
            ],
            [
              95.168434,
              29.283808
            ],
            [
              95.17106,
              29.275743
            ],
            [
              95.17106,
              29.275743
            ],
            [
              95.16898,
              29.271044
            ],
            [
              95.16898,
              29.271044
            ],
            [
              95.167496,
              29.263248
            ],
            [
              95.167496,
              29.263248
            ],
            [
              95.16514,
              29.25874
            ],
            [
              95.16261,
              29.256172
            ],
            [
              95.16353,
              29.251043
            ],
            [
              95.16359,
              29.246857
            ],
            [
              95.16536,
              29.24503
            ],
            [
              95.16534,
              29.243704
            ],
            [
              95.16627,
              29.244322
            ],
            [
              95.16702,
              29.244843
            ],
            [
              95.16634,
              29.243864
            ],
            [
              95.16593,
              29.243065
            ],
            [
              95.16513,
              29.24223
            ],
            [
              95.1665,
              29.242825
            ],
            [
              95.16745,
              29.243744
            ],
            [
              95.16838,
              29.24343
            ],
            [
              95.16943,
              29.243677
            ],
            [
              95.17056,
              29.242828
            ],
            [
              95.17222,
              29.24437
            ],
            [
              95.17284,
              29.24585
            ],
            [
              95.173134,
              29.24679
            ],
            [
              95.17416,
              29.24688
            ],
            [
              95.17508,
              29.247864
            ],
            [
              95.1755,
              29.24943
            ],
            [
              95.17695,
              29.250566
            ],
            [
              95.17926,
              29.251093
            ],
            [
              95.17926,
              29.251093
            ],
            [
              95.18017,
              29.251001
            ],
            [
              95.18122,
              29.251892
            ],
            [
              95.18002,
              29.250961
            ],
            [
              95.18026,
              29.251072
            ],
            [
              95.18026,
              29.251072
            ],
            [
              95.18087,
              29.251724
            ],
            [
              95.18087,
              29.251724
            ],
            [
              95.18135,
              29.251898
            ],
            [
              95.18135,
              29.251898
            ],
            [
              95.181854,
              29.251802
            ],
            [
              95.181854,
              29.251802
            ],
            [
              95.18306,
              29.251413
            ],
            [
              95.18306,
              29.251413
            ],
            [
              95.18366,
              29.251106
            ],
            [
              95.18366,
              29.251106
            ],
            [
              95.183846,
              29.250767
            ],
            [
              95.183846,
              29.250767
            ],
            [
              95.18481,
              29.250511
            ],
            [
              95.18481,
              29.250511
            ],
            [
              95.18676,
              29.250566
            ],
            [
              95.18676,
              29.250566
            ],
            [
              95.18791,
              29.2506
            ],
            [
              95.18791,
              29.2506
            ],
            [
              95.188255,
              29.250717
            ],
            [
              95.188255,
              29.250717
            ],
            [
              95.188385,
              29.25091
            ],
            [
              95.188385,
              29.25091
            ],
            [
              95.18848,
              29.251019
            ],
            [
              95.18848,
              29.251019
            ],
            [
              95.188675,
              29.250797
            ],
            [
              95.188675,
              29.250797
            ],
            [
              95.18882,
              29.250793
            ],
            [
              95.18882,
              29.250793
            ],
            [
              95.18888,
              29.250954
            ],
            [
              95.18888,
              29.250954
            ],
            [
              95.18902,
              29.250957
            ],
            [
              95.18902,
              29.250957
            ],
            [
              95.189224,
              29.250818
            ],
            [
              95.189224,
              29.250818
            ],
            [
              95.1895,
              29.25084
            ],
            [
              95.1895,
              29.25084
            ],
            [
              95.19023,
              29.25111
            ],
            [
              95.19023,
              29.25111
            ],
            [
              95.19064,
              29.25113
            ],
            [
              95.19064,
              29.25113
            ],
            [
              95.19186,
              29.251072
            ],
            [
              95.19186,
              29.251072
            ],
            [
              95.19291,
              29.25104
            ],
            [
              95.19291,
              29.25104
            ],
            [
              95.19324,
              29.251081
            ],
            [
              95.19324,
              29.251081
            ],
            [
              95.19366,
              29.251026
            ],
            [
              95.19366,
              29.251026
            ],
            [
              95.19385,
              29.250757
            ],
            [
              95.19385,
              29.250757
            ],
            [
              95.19404,
              29.250454
            ],
            [
              95.19404,
              29.250454
            ],
            [
              95.194145,
              29.2505
            ],
            [
              95.194145,
              29.2505
            ],
            [
              95.19419,
              29.250729
            ],
            [
              95.19419,
              29.250729
            ],
            [
              95.19412,
              29.25098
            ],
            [
              95.19412,
              29.25098
            ],
            [
              95.19415,
              29.251133
            ],
            [
              95.19415,
              29.251133
            ],
            [
              95.19433,
              29.251238
            ],
            [
              95.19433,
              29.251238
            ],
            [
              95.19465,
              29.251259
            ],
            [
              95.19465,
              29.251259
            ],
            [
              95.19506,
              29.251259
            ],
            [
              95.19506,
              29.251259
            ],
            [
              95.195496,
              29.251265
            ],
            [
              95.195496,
              29.251265
            ],
            [
              95.19595,
              29.251144
            ],
            [
              95.19595,
              29.251144
            ],
            [
              95.19641,
              29.250937
            ],
            [
              95.19641,
              29.250937
            ],
            [
              95.196846,
              29.25068
            ],
            [
              95.196846,
              29.25068
            ],
            [
              95.19733,
              29.250402
            ],
            [
              95.19733,
              29.250402
            ],
            [
              95.19778,
              29.250086
            ],
            [
              95.19778,
              29.250086
            ],
            [
              95.19809,
              29.249928
            ],
            [
              95.19809,
              29.249928
            ],
            [
              95.198456,
              29.249916
            ],
            [
              95.198456,
              29.249916
            ],
            [
              95.19887,
              29.250013
            ],
            [
              95.19887,
              29.250013
            ],
            [
              95.19935,
              29.250296
            ],
            [
              95.19935,
              29.250296
            ],
            [
              95.19955,
              29.250557
            ],
            [
              95.19955,
              29.250557
            ],
            [
              95.19937,
              29.25098
            ],
            [
              95.19937,
              29.25098
            ],
            [
              95.19938,
              29.251205
            ],
            [
              95.19938,
              29.251205
            ],
            [
              95.200005,
              29.25196
            ],
            [
              95.200005,
              29.25196
            ],
            [
              95.20079,
              29.252708
            ],
            [
              95.20079,
              29.252708
            ],
            [
              95.201324,
              29.253601
            ],
            [
              95.201324,
              29.253601
            ],
            [
              95.20187,
              29.254606
            ],
            [
              95.20187,
              29.254606
            ],
            [
              95.2025,
              29.255774
            ],
            [
              95.2025,
              29.255774
            ],
            [
              95.20306,
              29.257233
            ],
            [
              95.20306,
              29.257233
            ],
            [
              95.203224,
              29.258488
            ],
            [
              95.203224,
              29.258488
            ],
            [
              95.20312,
              29.259956
            ],
            [
              95.20312,
              29.259956
            ],
            [
              95.20287,
              29.261436
            ],
            [
              95.20287,
              29.261436
            ],
            [
              95.202484,
              29.263021
            ],
            [
              95.202484,
              29.263021
            ],
            [
              95.20211,
              29.264442
            ],
            [
              95.20211,
              29.264442
            ],
            [
              95.20157,
              29.266106
            ],
            [
              95.20157,
              29.266106
            ],
            [
              95.20116,
              29.26726
            ],
            [
              95.20116,
              29.26726
            ],
            [
              95.2009,
              29.268349
            ],
            [
              95.2009,
              29.268349
            ],
            [
              95.200645,
              29.268888
            ],
            [
              95.200645,
              29.268888
            ],
            [
              95.200165,
              29.269272
            ],
            [
              95.200165,
              29.269272
            ],
            [
              95.19981,
              29.26961
            ],
            [
              95.19981,
              29.26961
            ],
            [
              95.19969,
              29.269909
            ],
            [
              95.19969,
              29.269909
            ],
            [
              95.19986,
              29.270435
            ],
            [
              95.19986,
              29.270435
            ],
            [
              95.20029,
              29.270998
            ],
            [
              95.20029,
              29.270998
            ],
            [
              95.20098,
              29.271364
            ],
            [
              95.20098,
              29.271364
            ],
            [
              95.20246,
              29.271906
            ],
            [
              95.20246,
              29.271906
            ],
            [
              95.203964,
              29.272448
            ],
            [
              95.203964,
              29.272448
            ],
            [
              95.20544,
              29.272823
            ],
            [
              95.20544,
              29.272823
            ],
            [
              95.206085,
              29.272896
            ],
            [
              95.206085,
              29.272896
            ],
            [
              95.20694,
              29.272764
            ],
            [
              95.20694,
              29.272764
            ],
            [
              95.2078,
              29.272572
            ],
            [
              95.2078,
              29.272572
            ],
            [
              95.20876,
              29.2724
            ],
            [
              95.20876,
              29.2724
            ],
            [
              95.21017,
              29.271975
            ],
            [
              95.21017,
              29.271975
            ],
            [
              95.21158,
              29.271372
            ],
            [
              95.21158,
              29.271372
            ],
            [
              95.2129,
              29.27051
            ],
            [
              95.2129,
              29.27051
            ],
            [
              95.21402,
              29.269512
            ],
            [
              95.21402,
              29.269512
            ],
            [
              95.21494,
              29.268679
            ],
            [
              95.21494,
              29.268679
            ],
            [
              95.21493,
              29.268427
            ],
            [
              95.21493,
              29.268427
            ],
            [
              95.214714,
              29.26823
            ],
            [
              95.214714,
              29.26823
            ],
            [
              95.21477,
              29.267817
            ],
            [
              95.21477,
              29.267817
            ],
            [
              95.21563,
              29.267498
            ],
            [
              95.21563,
              29.267498
            ],
            [
              95.21676,
              29.2673
            ],
            [
              95.21676,
              29.2673
            ],
            [
              95.21835,
              29.267124
            ],
            [
              95.21835,
              29.267124
            ],
            [
              95.21995,
              29.266968
            ],
            [
              95.21995,
              29.266968
            ],
            [
              95.22191,
              29.266884
            ],
            [
              95.22191,
              29.266884
            ],
            [
              95.22289,
              29.266945
            ],
            [
              95.22289,
              29.266945
            ],
            [
              95.22422,
              29.267382
            ],
            [
              95.22422,
              29.267382
            ],
            [
              95.22682,
              29.268482
            ],
            [
              95.22682,
              29.268482
            ],
            [
              95.22883,
              29.269497
            ],
            [
              95.22883,
              29.269497
            ],
            [
              95.231476,
              29.27077
            ],
            [
              95.231476,
              29.27077
            ],
            [
              95.23365,
              29.271992
            ],
            [
              95.23365,
              29.271992
            ],
            [
              95.23605,
              29.273611
            ],
            [
              95.23605,
              29.273611
            ],
            [
              95.23855,
              29.274956
            ],
            [
              95.23855,
              29.274956
            ],
            [
              95.24138,
              29.276299
            ],
            [
              95.24138,
              29.276299
            ],
            [
              95.244255,
              29.277328
            ],
            [
              95.244255,
              29.277328
            ],
            [
              95.24734,
              29.277496
            ],
            [
              95.24734,
              29.277496
            ],
            [
              95.24772,
              29.276913
            ],
            [
              95.24772,
              29.276913
            ],
            [
              95.24887,
              29.277046
            ],
            [
              95.24887,
              29.277046
            ],
            [
              95.24945,
              29.276573
            ],
            [
              95.24945,
              29.276573
            ],
            [
              95.25038,
              29.275206
            ],
            [
              95.25038,
              29.275206
            ],
            [
              95.25028,
              29.27482
            ],
            [
              95.25028,
              29.27482
            ],
            [
              95.250725,
              29.274462
            ],
            [
              95.250725,
              29.274462
            ],
            [
              95.25094,
              29.274462
            ],
            [
              95.25094,
              29.274462
            ],
            [
              95.25099,
              29.274693
            ],
            [
              95.25099,
              29.274693
            ],
            [
              95.25083,
              29.274832
            ],
            [
              95.25083,
              29.274832
            ],
            [
              95.251236,
              29.27527
            ],
            [
              95.251236,
              29.27527
            ],
            [
              95.25132,
              29.276123
            ],
            [
              95.25132,
              29.276123
            ],
            [
              95.25102,
              29.276957
            ],
            [
              95.25102,
              29.276957
            ],
            [
              95.25083,
              29.277386
            ],
            [
              95.25083,
              29.277386
            ],
            [
              95.25126,
              29.27814
            ],
            [
              95.25126,
              29.27814
            ],
            [
              95.25194,
              29.278276
            ],
            [
              95.25194,
              29.278276
            ],
            [
              95.25411,
              29.279705
            ],
            [
              95.25411,
              29.279705
            ],
            [
              95.256195,
              29.28182
            ],
            [
              95.256195,
              29.28182
            ],
            [
              95.25818,
              29.283726
            ],
            [
              95.25818,
              29.283726
            ],
            [
              95.26035,
              29.284864
            ],
            [
              95.26035,
              29.284864
            ],
            [
              95.263145,
              29.285872
            ],
            [
              95.263145,
              29.285872
            ],
            [
              95.267555,
              29.287048
            ],
            [
              95.267555,
              29.287048
            ],
            [
              95.2699,
              29.288385
            ],
            [
              95.2699,
              29.288385
            ],
            [
              95.27181,
              29.290064
            ],
            [
              95.27181,
              29.290064
            ],
            [
              95.27408,
              29.292505
            ],
            [
              95.27408,
              29.292505
            ],
            [
              95.27611,
              29.295319
            ],
            [
              95.27611,
              29.295319
            ],
            [
              95.27863,
              29.298681
            ],
            [
              95.27863,
              29.298681
            ],
            [
              95.281906,
              29.298681
            ],
            [
              95.281906,
              29.298681
            ],
            [
              95.28283,
              29.299536
            ],
            [
              95.28283,
              29.299536
            ],
            [
              95.28214,
              29.30038
            ],
            [
              95.28214,
              29.30038
            ],
            [
              95.283485,
              29.301579
            ],
            [
              95.283485,
              29.301579
            ],
            [
              95.28339,
              29.301151
            ],
            [
              95.28339,
              29.301151
            ],
            [
              95.285614,
              29.302303
            ],
            [
              95.285614,
              29.302303
            ],
            [
              95.28895,
              29.303791
            ],
            [
              95.28895,
              29.303791
            ],
            [
              95.2908,
              29.30481
            ],
            [
              95.2908,
              29.30481
            ],
            [
              95.29256,
              29.306713
            ],
            [
              95.29256,
              29.306713
            ],
            [
              95.29356,
              29.307775
            ],
            [
              95.29356,
              29.307775
            ],
            [
              95.29427,
              29.310537
            ],
            [
              95.29427,
              29.310537
            ],
            [
              95.29395,
              29.311047
            ],
            [
              95.29395,
              29.311047
            ],
            [
              95.29395,
              29.311623
            ],
            [
              95.29395,
              29.311623
            ],
            [
              95.2935,
              29.312862
            ],
            [
              95.2935,
              29.312862
            ],
            [
              95.29341,
              29.313559
            ],
            [
              95.29341,
              29.313559
            ],
            [
              95.293,
              29.313953
            ],
            [
              95.293,
              29.313953
            ],
            [
              95.29228,
              29.314276
            ],
            [
              95.29228,
              29.314276
            ],
            [
              95.29121,
              29.314486
            ],
            [
              95.29121,
              29.314486
            ],
            [
              95.29116,
              29.314774
            ],
            [
              95.29116,
              29.314774
            ],
            [
              95.288864,
              29.316034
            ],
            [
              95.288864,
              29.316034
            ],
            [
              95.28777,
              29.31611
            ],
            [
              95.28777,
              29.31611
            ],
            [
              95.28584,
              29.317446
            ],
            [
              95.28584,
              29.317446
            ],
            [
              95.28514,
              29.318773
            ],
            [
              95.28514,
              29.318773
            ],
            [
              95.28466,
              29.319796
            ],
            [
              95.28466,
              29.319796
            ],
            [
              95.28372,
              29.320536
            ],
            [
              95.28372,
              29.320536
            ],
            [
              95.28339,
              29.32131
            ],
            [
              95.28339,
              29.32131
            ],
            [
              95.28264,
              29.322115
            ],
            [
              95.28264,
              29.322115
            ],
            [
              95.28204,
              29.32255
            ],
            [
              95.28204,
              29.32255
            ],
            [
              95.282974,
              29.323534
            ],
            [
              95.282974,
              29.323534
            ],
            [
              95.28481,
              29.323814
            ],
            [
              95.28481,
              29.323814
            ],
            [
              95.28588,
              29.323679
            ],
            [
              95.28588,
              29.323679
            ],
            [
              95.28681,
              29.323057
            ],
            [
              95.28681,
              29.323057
            ],
            [
              95.2881,
              29.322939
            ],
            [
              95.2881,
              29.322939
            ],
            [
              95.288795,
              29.322733
            ],
            [
              95.288795,
              29.322733
            ],
            [
              95.28903,
              29.322893
            ],
            [
              95.28903,
              29.322893
            ],
            [
              95.28945,
              29.322784
            ],
            [
              95.28945,
              29.322784
            ],
            [
              95.28961,
              29.321974
            ],
            [
              95.28961,
              29.321974
            ],
            [
              95.28973,
              29.320951
            ],
            [
              95.28973,
              29.320951
            ],
            [
              95.290405,
              29.320274
            ],
            [
              95.290405,
              29.320274
            ],
            [
              95.29166,
              29.319803
            ],
            [
              95.29166,
              29.319803
            ],
            [
              95.292076,
              29.31989
            ],
            [
              95.292076,
              29.31989
            ],
            [
              95.29226,
              29.319626
            ],
            [
              95.29226,
              29.319626
            ],
            [
              95.294624,
              29.31908
            ],
            [
              95.294624,
              29.31908
            ],
            [
              95.29775,
              29.318224
            ],
            [
              95.29775,
              29.318224
            ],
            [
              95.29976,
              29.318485
            ],
            [
              95.29976,
              29.318485
            ],
            [
              95.305565,
              29.320515
            ],
            [
              95.305565,
              29.320515
            ],
            [
              95.311165,
              29.32257
            ],
            [
              95.311165,
              29.32257
            ],
            [
              95.31252,
              29.3229
            ],
            [
              95.31252,
              29.3229
            ],
            [
              95.31432,
              29.32275
            ],
            [
              95.31701,
              29.324173
            ],
            [
              95.31792,
              29.32471
            ],
            [
              95.31943,
              29.32644
            ],
            [
              95.320526,
              29.32701
            ],
            [
              95.32265,
              29.327457
            ],
            [
              95.32466,
              29.328632
            ],
            [
              95.32557,
              29.328348
            ],
            [
              95.32642,
              29.327078
            ],
            [
              95.32655,
              29.326057
            ],
            [
              95.32603,
              29.324636
            ],
            [
              95.32859,
              29.325277
            ],
            [
              95.32906,
              29.32366
            ]
          ]
        ]
      }
    }
  ]
}
