<?xml version="1.0" encoding="UTF-8"?>
<gpx version="1.1" creator="霞客 · 两步路轨迹" xmlns="http://www.topografix.com/GPX/1/1">
  <metadata><name>墨脱徒步参考轨迹</name></metadata>
  <trk><name>墨脱徒步</name>
    <trkseg>
      <trkpt lat="29.516506" lon="94.88267"><ele>0</ele></trkpt>
      <trkpt lat="29.516235" lon="94.882935"><ele>0</ele></trkpt>
      <trkpt lat="29.516235" lon="94.882935"><ele>0</ele></trkpt>
      <trkpt lat="29.516039" lon="94.882965"><ele>0</ele></trkpt>
      <trkpt lat="29.516039" lon="94.882965"><ele>0</ele></trkpt>
      <trkpt lat="29.515326" lon="94.88255"><ele>0</ele></trkpt>
      <trkpt lat="29.515326" lon="94.88255"><ele>0</ele></trkpt>
      <trkpt lat="29.515284" lon="94.88267"><ele>0</ele></trkpt>
      <trkpt lat="29.515284" lon="94.88267"><ele>0</ele></trkpt>
      <trkpt lat="29.515743" lon="94.88306"><ele>0</ele></trkpt>
      <trkpt lat="29.515743" lon="94.88306"><ele>0</ele></trkpt>
      <trkpt lat="29.516169" lon="94.884155"><ele>0</ele></trkpt>
      <trkpt lat="29.516169" lon="94.884155"><ele>0</ele></trkpt>
      <trkpt lat="29.516634" lon="94.88516"><ele>0</ele></trkpt>
      <trkpt lat="29.516634" lon="94.88516"><ele>0</ele></trkpt>
      <trkpt lat="29.516623" lon="94.88549"><ele>0</ele></trkpt>
      <trkpt lat="29.516623" lon="94.88549"><ele>0</ele></trkpt>
      <trkpt lat="29.516115" lon="94.886566"><ele>0</ele></trkpt>
      <trkpt lat="29.516115" lon="94.886566"><ele>0</ele></trkpt>
      <trkpt lat="29.515608" lon="94.88748"><ele>0</ele></trkpt>
      <trkpt lat="29.515608" lon="94.88748"><ele>0</ele></trkpt>
      <trkpt lat="29.515615" lon="94.88833"><ele>0</ele></trkpt>
      <trkpt lat="29.515615" lon="94.88833"><ele>0</ele></trkpt>
      <trkpt lat="29.514906" lon="94.88865"><ele>0</ele></trkpt>
      <trkpt lat="29.514906" lon="94.88865"><ele>0</ele></trkpt>
      <trkpt lat="29.51427" lon="94.88878"><ele>0</ele></trkpt>
      <trkpt lat="29.51427" lon="94.88878"><ele>0</ele></trkpt>
      <trkpt lat="29.513906" lon="94.88869"><ele>0</ele></trkpt>
      <trkpt lat="29.513906" lon="94.88869"><ele>0</ele></trkpt>
      <trkpt lat="29.513334" lon="94.88892"><ele>0</ele></trkpt>
      <trkpt lat="29.513334" lon="94.88892"><ele>0</ele></trkpt>
      <trkpt lat="29.512794" lon="94.88898"><ele>0</ele></trkpt>
      <trkpt lat="29.512794" lon="94.88898"><ele>0</ele></trkpt>
      <trkpt lat="29.512548" lon="94.88925"><ele>0</ele></trkpt>
      <trkpt lat="29.512548" lon="94.88925"><ele>0</ele></trkpt>
      <trkpt lat="29.512552" lon="94.8897"><ele>0</ele></trkpt>
      <trkpt lat="29.512552" lon="94.8897"><ele>0</ele></trkpt>
      <trkpt lat="29.512346" lon="94.889854"><ele>0</ele></trkpt>
      <trkpt lat="29.512346" lon="94.889854"><ele>0</ele></trkpt>
      <trkpt lat="29.5122" lon="94.88965"><ele>0</ele></trkpt>
      <trkpt lat="29.5122" lon="94.88965"><ele>0</ele></trkpt>
      <trkpt lat="29.512123" lon="94.888985"><ele>0</ele></trkpt>
      <trkpt lat="29.512123" lon="94.888985"><ele>0</ele></trkpt>
      <trkpt lat="29.51213" lon="94.88865"><ele>0</ele></trkpt>
      <trkpt lat="29.51213" lon="94.88865"><ele>0</ele></trkpt>
      <trkpt lat="29.51233" lon="94.888466"><ele>0</ele></trkpt>
      <trkpt lat="29.51233" lon="94.888466"><ele>0</ele></trkpt>
      <trkpt lat="29.51294" lon="94.88823"><ele>0</ele></trkpt>
      <trkpt lat="29.51294" lon="94.88823"><ele>0</ele></trkpt>
      <trkpt lat="29.512918" lon="94.88792"><ele>0</ele></trkpt>
      <trkpt lat="29.512918" lon="94.88792"><ele>0</ele></trkpt>
      <trkpt lat="29.512787" lon="94.88766"><ele>0</ele></trkpt>
      <trkpt lat="29.512787" lon="94.88766"><ele>0</ele></trkpt>
      <trkpt lat="29.512506" lon="94.887695"><ele>0</ele></trkpt>
      <trkpt lat="29.512506" lon="94.887695"><ele>0</ele></trkpt>
      <trkpt lat="29.512152" lon="94.88767"><ele>0</ele></trkpt>
      <trkpt lat="29.512152" lon="94.88767"><ele>0</ele></trkpt>
      <trkpt lat="29.511751" lon="94.88812"><ele>0</ele></trkpt>
      <trkpt lat="29.511751" lon="94.88812"><ele>0</ele></trkpt>
      <trkpt lat="29.511364" lon="94.88871"><ele>0</ele></trkpt>
      <trkpt lat="29.511364" lon="94.88871"><ele>0</ele></trkpt>
      <trkpt lat="29.511084" lon="94.888885"><ele>0</ele></trkpt>
      <trkpt lat="29.511084" lon="94.888885"><ele>0</ele></trkpt>
      <trkpt lat="29.5108" lon="94.88943"><ele>0</ele></trkpt>
      <trkpt lat="29.5108" lon="94.88943"><ele>0</ele></trkpt>
      <trkpt lat="29.510818" lon="94.88996"><ele>0</ele></trkpt>
      <trkpt lat="29.510818" lon="94.88996"><ele>0</ele></trkpt>
      <trkpt lat="29.510942" lon="94.89053"><ele>0</ele></trkpt>
      <trkpt lat="29.510942" lon="94.89053"><ele>0</ele></trkpt>
      <trkpt lat="29.510914" lon="94.891106"><ele>0</ele></trkpt>
      <trkpt lat="29.510914" lon="94.891106"><ele>0</ele></trkpt>
      <trkpt lat="29.511194" lon="94.89173"><ele>0</ele></trkpt>
      <trkpt lat="29.511194" lon="94.89173"><ele>0</ele></trkpt>
      <trkpt lat="29.51113" lon="94.89191"><ele>0</ele></trkpt>
      <trkpt lat="29.51113" lon="94.89191"><ele>0</ele></trkpt>
      <trkpt lat="29.509869" lon="94.891"><ele>0</ele></trkpt>
      <trkpt lat="29.509869" lon="94.891"><ele>0</ele></trkpt>
      <trkpt lat="29.509663" lon="94.89101"><ele>0</ele></trkpt>
      <trkpt lat="29.509663" lon="94.89101"><ele>0</ele></trkpt>
      <trkpt lat="29.509615" lon="94.89114"><ele>0</ele></trkpt>
      <trkpt lat="29.509615" lon="94.89114"><ele>0</ele></trkpt>
      <trkpt lat="29.510057" lon="94.89172"><ele>0</ele></trkpt>
      <trkpt lat="29.510057" lon="94.89172"><ele>0</ele></trkpt>
      <trkpt lat="29.510223" lon="94.89287"><ele>0</ele></trkpt>
      <trkpt lat="29.510223" lon="94.89287"><ele>0</ele></trkpt>
      <trkpt lat="29.510351" lon="94.8931"><ele>0</ele></trkpt>
      <trkpt lat="29.510351" lon="94.8931"><ele>0</ele></trkpt>
      <trkpt lat="29.510262" lon="94.89321"><ele>0</ele></trkpt>
      <trkpt lat="29.510262" lon="94.89321"><ele>0</ele></trkpt>
      <trkpt lat="29.510143" lon="94.89318"><ele>0</ele></trkpt>
      <trkpt lat="29.510143" lon="94.89318"><ele>0</ele></trkpt>
      <trkpt lat="29.510109" lon="94.89289"><ele>0</ele></trkpt>
      <trkpt lat="29.510109" lon="94.89289"><ele>0</ele></trkpt>
      <trkpt lat="29.509876" lon="94.89237"><ele>0</ele></trkpt>
      <trkpt lat="29.509876" lon="94.89237"><ele>0</ele></trkpt>
      <trkpt lat="29.509033" lon="94.891716"><ele>0</ele></trkpt>
      <trkpt lat="29.509033" lon="94.891716"><ele>0</ele></trkpt>
      <trkpt lat="29.508734" lon="94.89145"><ele>0</ele></trkpt>
      <trkpt lat="29.508734" lon="94.89145"><ele>0</ele></trkpt>
      <trkpt lat="29.507345" lon="94.891495"><ele>0</ele></trkpt>
      <trkpt lat="29.507345" lon="94.891495"><ele>0</ele></trkpt>
      <trkpt lat="29.507105" lon="94.891556"><ele>0</ele></trkpt>
      <trkpt lat="29.507105" lon="94.891556"><ele>0</ele></trkpt>
      <trkpt lat="29.506971" lon="94.891754"><ele>0</ele></trkpt>
      <trkpt lat="29.506971" lon="94.891754"><ele>0</ele></trkpt>
      <trkpt lat="29.507362" lon="94.89167"><ele>0</ele></trkpt>
      <trkpt lat="29.507362" lon="94.89167"><ele>0</ele></trkpt>
      <trkpt lat="29.507572" lon="94.891785"><ele>0</ele></trkpt>
      <trkpt lat="29.507572" lon="94.891785"><ele>0</ele></trkpt>
      <trkpt lat="29.50776" lon="94.891716"><ele>0</ele></trkpt>
      <trkpt lat="29.50776" lon="94.891716"><ele>0</ele></trkpt>
      <trkpt lat="29.508726" lon="94.89226"><ele>0</ele></trkpt>
      <trkpt lat="29.508726" lon="94.89226"><ele>0</ele></trkpt>
      <trkpt lat="29.509142" lon="94.89306"><ele>0</ele></trkpt>
      <trkpt lat="29.509142" lon="94.89306"><ele>0</ele></trkpt>
      <trkpt lat="29.509092" lon="94.893524"><ele>0</ele></trkpt>
      <trkpt lat="29.509092" lon="94.893524"><ele>0</ele></trkpt>
      <trkpt lat="29.508783" lon="94.89451"><ele>0</ele></trkpt>
      <trkpt lat="29.508783" lon="94.89451"><ele>0</ele></trkpt>
      <trkpt lat="29.50839" lon="94.89545"><ele>0</ele></trkpt>
      <trkpt lat="29.50839" lon="94.89545"><ele>0</ele></trkpt>
      <trkpt lat="29.508287" lon="94.895775"><ele>0</ele></trkpt>
      <trkpt lat="29.508287" lon="94.895775"><ele>0</ele></trkpt>
      <trkpt lat="29.508116" lon="94.89575"><ele>0</ele></trkpt>
      <trkpt lat="29.508116" lon="94.89575"><ele>0</ele></trkpt>
      <trkpt lat="29.508118" lon="94.89554"><ele>0</ele></trkpt>
      <trkpt lat="29.508118" lon="94.89554"><ele>0</ele></trkpt>
      <trkpt lat="29.508377" lon="94.89518"><ele>0</ele></trkpt>
      <trkpt lat="29.508377" lon="94.89518"><ele>0</ele></trkpt>
      <trkpt lat="29.508322" lon="94.89484"><ele>0</ele></trkpt>
      <trkpt lat="29.508322" lon="94.89484"><ele>0</ele></trkpt>
      <trkpt lat="29.50847" lon="94.893845"><ele>0</ele></trkpt>
      <trkpt lat="29.50847" lon="94.893845"><ele>0</ele></trkpt>
      <trkpt lat="29.508474" lon="94.89352"><ele>0</ele></trkpt>
      <trkpt lat="29.508474" lon="94.89352"><ele>0</ele></trkpt>
      <trkpt lat="29.508356" lon="94.89312"><ele>0</ele></trkpt>
      <trkpt lat="29.508356" lon="94.89312"><ele>0</ele></trkpt>
      <trkpt lat="29.50817" lon="94.89301"><ele>0</ele></trkpt>
      <trkpt lat="29.50817" lon="94.89301"><ele>0</ele></trkpt>
      <trkpt lat="29.507944" lon="94.89307"><ele>0</ele></trkpt>
      <trkpt lat="29.507944" lon="94.89307"><ele>0</ele></trkpt>
      <trkpt lat="29.507845" lon="94.89335"><ele>0</ele></trkpt>
      <trkpt lat="29.507845" lon="94.89335"><ele>0</ele></trkpt>
      <trkpt lat="29.507809" lon="94.89383"><ele>0</ele></trkpt>
      <trkpt lat="29.507809" lon="94.89383"><ele>0</ele></trkpt>
      <trkpt lat="29.506895" lon="94.895325"><ele>0</ele></trkpt>
      <trkpt lat="29.506895" lon="94.895325"><ele>0</ele></trkpt>
      <trkpt lat="29.506615" lon="94.895424"><ele>0</ele></trkpt>
      <trkpt lat="29.506615" lon="94.895424"><ele>0</ele></trkpt>
      <trkpt lat="29.506624" lon="94.89565"><ele>0</ele></trkpt>
      <trkpt lat="29.506624" lon="94.89565"><ele>0</ele></trkpt>
      <trkpt lat="29.506695" lon="94.89601"><ele>0</ele></trkpt>
      <trkpt lat="29.506695" lon="94.89601"><ele>0</ele></trkpt>
      <trkpt lat="29.506388" lon="94.896805"><ele>0</ele></trkpt>
      <trkpt lat="29.506388" lon="94.896805"><ele>0</ele></trkpt>
      <trkpt lat="29.505947" lon="94.89743"><ele>0</ele></trkpt>
      <trkpt lat="29.505947" lon="94.89743"><ele>0</ele></trkpt>
      <trkpt lat="29.50558" lon="94.89818"><ele>0</ele></trkpt>
      <trkpt lat="29.50558" lon="94.89818"><ele>0</ele></trkpt>
      <trkpt lat="29.505327" lon="94.89865"><ele>0</ele></trkpt>
      <trkpt lat="29.505327" lon="94.89865"><ele>0</ele></trkpt>
      <trkpt lat="29.505154" lon="94.89867"><ele>0</ele></trkpt>
      <trkpt lat="29.505154" lon="94.89867"><ele>0</ele></trkpt>
      <trkpt lat="29.50509" lon="94.898315"><ele>0</ele></trkpt>
      <trkpt lat="29.50509" lon="94.898315"><ele>0</ele></trkpt>
      <trkpt lat="29.505066" lon="94.8979"><ele>0</ele></trkpt>
      <trkpt lat="29.505066" lon="94.8979"><ele>0</ele></trkpt>
      <trkpt lat="29.504988" lon="94.89777"><ele>0</ele></trkpt>
      <trkpt lat="29.504988" lon="94.89777"><ele>0</ele></trkpt>
      <trkpt lat="29.504671" lon="94.89794"><ele>0</ele></trkpt>
      <trkpt lat="29.504671" lon="94.89794"><ele>0</ele></trkpt>
      <trkpt lat="29.504484" lon="94.89794"><ele>0</ele></trkpt>
      <trkpt lat="29.504484" lon="94.89794"><ele>0</ele></trkpt>
      <trkpt lat="29.504253" lon="94.89786"><ele>0</ele></trkpt>
      <trkpt lat="29.504253" lon="94.89786"><ele>0</ele></trkpt>
      <trkpt lat="29.503853" lon="94.89876"><ele>0</ele></trkpt>
      <trkpt lat="29.503853" lon="94.89876"><ele>0</ele></trkpt>
      <trkpt lat="29.502544" lon="94.90116"><ele>0</ele></trkpt>
      <trkpt lat="29.502544" lon="94.90116"><ele>0</ele></trkpt>
      <trkpt lat="29.500755" lon="94.90345"><ele>0</ele></trkpt>
      <trkpt lat="29.500755" lon="94.90345"><ele>0</ele></trkpt>
      <trkpt lat="29.499481" lon="94.904015"><ele>0</ele></trkpt>
      <trkpt lat="29.499481" lon="94.904015"><ele>0</ele></trkpt>
      <trkpt lat="29.498001" lon="94.90601"><ele>0</ele></trkpt>
      <trkpt lat="29.498001" lon="94.90601"><ele>0</ele></trkpt>
      <trkpt lat="29.49597" lon="94.90869"><ele>0</ele></trkpt>
      <trkpt lat="29.49597" lon="94.90869"><ele>0</ele></trkpt>
      <trkpt lat="29.494156" lon="94.91068"><ele>0</ele></trkpt>
      <trkpt lat="29.494156" lon="94.91068"><ele>0</ele></trkpt>
      <trkpt lat="29.492636" lon="94.913185"><ele>0</ele></trkpt>
      <trkpt lat="29.492636" lon="94.913185"><ele>0</ele></trkpt>
      <trkpt lat="29.491693" lon="94.91396"><ele>0</ele></trkpt>
      <trkpt lat="29.491693" lon="94.91396"><ele>0</ele></trkpt>
      <trkpt lat="29.490572" lon="94.91483"><ele>0</ele></trkpt>
      <trkpt lat="29.490572" lon="94.91483"><ele>0</ele></trkpt>
      <trkpt lat="29.48996" lon="94.917"><ele>0</ele></trkpt>
      <trkpt lat="29.48996" lon="94.917"><ele>0</ele></trkpt>
      <trkpt lat="29.489067" lon="94.91881"><ele>0</ele></trkpt>
      <trkpt lat="29.489067" lon="94.91881"><ele>0</ele></trkpt>
      <trkpt lat="29.48868" lon="94.92038"><ele>0</ele></trkpt>
      <trkpt lat="29.48868" lon="94.92038"><ele>0</ele></trkpt>
      <trkpt lat="29.488739" lon="94.92145"><ele>0</ele></trkpt>
      <trkpt lat="29.488739" lon="94.92145"><ele>0</ele></trkpt>
      <trkpt lat="29.489199" lon="94.92191"><ele>0</ele></trkpt>
      <trkpt lat="29.489199" lon="94.92191"><ele>0</ele></trkpt>
      <trkpt lat="29.489296" lon="94.922516"><ele>0</ele></trkpt>
      <trkpt lat="29.489296" lon="94.922516"><ele>0</ele></trkpt>
      <trkpt lat="29.489576" lon="94.92247"><ele>0</ele></trkpt>
      <trkpt lat="29.489576" lon="94.92247"><ele>0</ele></trkpt>
      <trkpt lat="29.48932" lon="94.92183"><ele>0</ele></trkpt>
      <trkpt lat="29.48932" lon="94.92183"><ele>0</ele></trkpt>
      <trkpt lat="29.489098" lon="94.92075"><ele>0</ele></trkpt>
      <trkpt lat="29.489098" lon="94.92075"><ele>0</ele></trkpt>
      <trkpt lat="29.48927" lon="94.91997"><ele>0</ele></trkpt>
      <trkpt lat="29.48927" lon="94.91997"><ele>0</ele></trkpt>
      <trkpt lat="29.490114" lon="94.91884"><ele>0</ele></trkpt>
      <trkpt lat="29.490114" lon="94.91884"><ele>0</ele></trkpt>
      <trkpt lat="29.49029" lon="94.91837"><ele>0</ele></trkpt>
      <trkpt lat="29.49029" lon="94.91837"><ele>0</ele></trkpt>
      <trkpt lat="29.490438" lon="94.91864"><ele>0</ele></trkpt>
      <trkpt lat="29.490438" lon="94.91864"><ele>0</ele></trkpt>
      <trkpt lat="29.490204" lon="94.91894"><ele>0</ele></trkpt>
      <trkpt lat="29.490204" lon="94.91894"><ele>0</ele></trkpt>
      <trkpt lat="29.489964" lon="94.91986"><ele>0</ele></trkpt>
      <trkpt lat="29.489964" lon="94.91986"><ele>0</ele></trkpt>
      <trkpt lat="29.489733" lon="94.92008"><ele>0</ele></trkpt>
      <trkpt lat="29.489733" lon="94.92008"><ele>0</ele></trkpt>
      <trkpt lat="29.489702" lon="94.920906"><ele>0</ele></trkpt>
      <trkpt lat="29.489702" lon="94.920906"><ele>0</ele></trkpt>
      <trkpt lat="29.49008" lon="94.92011"><ele>0</ele></trkpt>
      <trkpt lat="29.49008" lon="94.92011"><ele>0</ele></trkpt>
      <trkpt lat="29.490301" lon="94.919785"><ele>0</ele></trkpt>
      <trkpt lat="29.490301" lon="94.919785"><ele>0</ele></trkpt>
      <trkpt lat="29.490473" lon="94.91925"><ele>0</ele></trkpt>
      <trkpt lat="29.490473" lon="94.91925"><ele>0</ele></trkpt>
      <trkpt lat="29.490625" lon="94.91944"><ele>0</ele></trkpt>
      <trkpt lat="29.490625" lon="94.91944"><ele>0</ele></trkpt>
      <trkpt lat="29.490147" lon="94.92068"><ele>0</ele></trkpt>
      <trkpt lat="29.490147" lon="94.92068"><ele>0</ele></trkpt>
      <trkpt lat="29.49063" lon="94.92185"><ele>0</ele></trkpt>
      <trkpt lat="29.49063" lon="94.92185"><ele>0</ele></trkpt>
      <trkpt lat="29.491308" lon="94.92412"><ele>0</ele></trkpt>
      <trkpt lat="29.491308" lon="94.92412"><ele>0</ele></trkpt>
      <trkpt lat="29.4915" lon="94.92513"><ele>0</ele></trkpt>
      <trkpt lat="29.4915" lon="94.92513"><ele>0</ele></trkpt>
      <trkpt lat="29.491716" lon="94.92476"><ele>0</ele></trkpt>
      <trkpt lat="29.491716" lon="94.92476"><ele>0</ele></trkpt>
      <trkpt lat="29.491642" lon="94.9241"><ele>0</ele></trkpt>
      <trkpt lat="29.491642" lon="94.9241"><ele>0</ele></trkpt>
      <trkpt lat="29.491716" lon="94.92278"><ele>0</ele></trkpt>
      <trkpt lat="29.491716" lon="94.92278"><ele>0</ele></trkpt>
      <trkpt lat="29.491833" lon="94.92379"><ele>0</ele></trkpt>
      <trkpt lat="29.491833" lon="94.92379"><ele>0</ele></trkpt>
      <trkpt lat="29.49215" lon="94.924484"><ele>0</ele></trkpt>
      <trkpt lat="29.49215" lon="94.924484"><ele>0</ele></trkpt>
      <trkpt lat="29.492153" lon="94.92618"><ele>0</ele></trkpt>
      <trkpt lat="29.492153" lon="94.92618"><ele>0</ele></trkpt>
      <trkpt lat="29.491974" lon="94.92712"><ele>0</ele></trkpt>
      <trkpt lat="29.491974" lon="94.92712"><ele>0</ele></trkpt>
      <trkpt lat="29.492281" lon="94.9268"><ele>0</ele></trkpt>
      <trkpt lat="29.492281" lon="94.9268"><ele>0</ele></trkpt>
      <trkpt lat="29.49259" lon="94.92605"><ele>0</ele></trkpt>
      <trkpt lat="29.49259" lon="94.92605"><ele>0</ele></trkpt>
      <trkpt lat="29.492607" lon="94.927315"><ele>0</ele></trkpt>
      <trkpt lat="29.492607" lon="94.927315"><ele>0</ele></trkpt>
      <trkpt lat="29.491283" lon="94.93131"><ele>0</ele></trkpt>
      <trkpt lat="29.491283" lon="94.93131"><ele>0</ele></trkpt>
      <trkpt lat="29.490204" lon="94.936165"><ele>0</ele></trkpt>
      <trkpt lat="29.490204" lon="94.936165"><ele>0</ele></trkpt>
      <trkpt lat="29.489546" lon="94.93876"><ele>0</ele></trkpt>
      <trkpt lat="29.489546" lon="94.93876"><ele>0</ele></trkpt>
      <trkpt lat="29.48951" lon="94.941666"><ele>0</ele></trkpt>
      <trkpt lat="29.48951" lon="94.941666"><ele>0</ele></trkpt>
      <trkpt lat="29.487963" lon="94.94571"><ele>0</ele></trkpt>
      <trkpt lat="29.487963" lon="94.94571"><ele>0</ele></trkpt>
      <trkpt lat="29.488321" lon="94.950226"><ele>0</ele></trkpt>
      <trkpt lat="29.488321" lon="94.950226"><ele>0</ele></trkpt>
      <trkpt lat="29.489958" lon="94.953705"><ele>0</ele></trkpt>
      <trkpt lat="29.489958" lon="94.953705"><ele>0</ele></trkpt>
      <trkpt lat="29.489925" lon="94.95642"><ele>0</ele></trkpt>
      <trkpt lat="29.489925" lon="94.95642"><ele>0</ele></trkpt>
      <trkpt lat="29.48858" lon="94.959465"><ele>0</ele></trkpt>
      <trkpt lat="29.48858" lon="94.959465"><ele>0</ele></trkpt>
      <trkpt lat="29.486647" lon="94.96072"><ele>0</ele></trkpt>
      <trkpt lat="29.486647" lon="94.96072"><ele>0</ele></trkpt>
      <trkpt lat="29.486862" lon="94.96306"><ele>0</ele></trkpt>
      <trkpt lat="29.486862" lon="94.96306"><ele>0</ele></trkpt>
      <trkpt lat="29.486147" lon="94.96404"><ele>0</ele></trkpt>
      <trkpt lat="29.486147" lon="94.96404"><ele>0</ele></trkpt>
      <trkpt lat="29.487448" lon="94.96683"><ele>0</ele></trkpt>
      <trkpt lat="29.487448" lon="94.96683"><ele>0</ele></trkpt>
      <trkpt lat="29.484869" lon="94.97074"><ele>0</ele></trkpt>
      <trkpt lat="29.484869" lon="94.97074"><ele>0</ele></trkpt>
      <trkpt lat="29.482037" lon="94.973"><ele>0</ele></trkpt>
      <trkpt lat="29.482037" lon="94.973"><ele>0</ele></trkpt>
      <trkpt lat="29.479757" lon="94.97724"><ele>0</ele></trkpt>
      <trkpt lat="29.479757" lon="94.97724"><ele>0</ele></trkpt>
      <trkpt lat="29.478085" lon="94.97955"><ele>0</ele></trkpt>
      <trkpt lat="29.478085" lon="94.97955"><ele>0</ele></trkpt>
      <trkpt lat="29.477055" lon="94.98026"><ele>0</ele></trkpt>
      <trkpt lat="29.477055" lon="94.98026"><ele>0</ele></trkpt>
      <trkpt lat="29.474812" lon="94.97939"><ele>0</ele></trkpt>
      <trkpt lat="29.474812" lon="94.97939"><ele>0</ele></trkpt>
      <trkpt lat="29.470207" lon="94.9844"><ele>0</ele></trkpt>
      <trkpt lat="29.470207" lon="94.9844"><ele>0</ele></trkpt>
      <trkpt lat="29.469776" lon="94.99163"><ele>0</ele></trkpt>
      <trkpt lat="29.469776" lon="94.99163"><ele>0</ele></trkpt>
      <trkpt lat="29.47074" lon="94.99667"><ele>0</ele></trkpt>
      <trkpt lat="29.47074" lon="94.99667"><ele>0</ele></trkpt>
      <trkpt lat="29.467848" lon="95.00058"><ele>0</ele></trkpt>
      <trkpt lat="29.467848" lon="95.00058"><ele>0</ele></trkpt>
      <trkpt lat="29.460821" lon="95.01242"><ele>0</ele></trkpt>
      <trkpt lat="29.460821" lon="95.01242"><ele>0</ele></trkpt>
      <trkpt lat="29.451427" lon="95.01666"><ele>0</ele></trkpt>
      <trkpt lat="29.451427" lon="95.01666"><ele>0</ele></trkpt>
      <trkpt lat="29.446548" lon="95.02544"><ele>0</ele></trkpt>
      <trkpt lat="29.446548" lon="95.02544"><ele>0</ele></trkpt>
      <trkpt lat="29.439148" lon="95.03277"><ele>0</ele></trkpt>
      <trkpt lat="29.439148" lon="95.03277"><ele>0</ele></trkpt>
      <trkpt lat="29.433512" lon="95.041176"><ele>0</ele></trkpt>
      <trkpt lat="29.433512" lon="95.041176"><ele>0</ele></trkpt>
      <trkpt lat="29.429655" lon="95.043686"><ele>0</ele></trkpt>
      <trkpt lat="29.429655" lon="95.043686"><ele>0</ele></trkpt>
      <trkpt lat="29.42849" lon="95.04903"><ele>0</ele></trkpt>
      <trkpt lat="29.42849" lon="95.04903"><ele>0</ele></trkpt>
      <trkpt lat="29.423016" lon="95.0499"><ele>0</ele></trkpt>
      <trkpt lat="29.423016" lon="95.0499"><ele>0</ele></trkpt>
      <trkpt lat="29.418606" lon="95.058846"><ele>0</ele></trkpt>
      <trkpt lat="29.418606" lon="95.058846"><ele>0</ele></trkpt>
      <trkpt lat="29.417679" lon="95.06669"><ele>0</ele></trkpt>
      <trkpt lat="29.417679" lon="95.06669"><ele>0</ele></trkpt>
    </trkseg>
    <trkseg>
      <trkpt lat="29.406479" lon="95.08588"><ele>0</ele></trkpt>
      <trkpt lat="29.406479" lon="95.08588"><ele>0</ele></trkpt>
      <trkpt lat="29.401453" lon="95.094086"><ele>0</ele></trkpt>
      <trkpt lat="29.401453" lon="95.094086"><ele>0</ele></trkpt>
      <trkpt lat="29.38889" lon="95.10741"><ele>0</ele></trkpt>
      <trkpt lat="29.38889" lon="95.10741"><ele>0</ele></trkpt>
    </trkseg>
    <trkseg>
      <trkpt lat="29.371702" lon="95.1197"><ele>0</ele></trkpt>
      <trkpt lat="29.371702" lon="95.1197"><ele>0</ele></trkpt>
      <trkpt lat="29.3672" lon="95.12776"><ele>0</ele></trkpt>
      <trkpt lat="29.3672" lon="95.12776"><ele>0</ele></trkpt>
      <trkpt lat="29.36138" lon="95.134544"><ele>0</ele></trkpt>
      <trkpt lat="29.36138" lon="95.134544"><ele>0</ele></trkpt>
      <trkpt lat="29.356157" lon="95.14098"><ele>0</ele></trkpt>
      <trkpt lat="29.356157" lon="95.14098"><ele>0</ele></trkpt>
      <trkpt lat="29.35426" lon="95.14634"><ele>0</ele></trkpt>
      <trkpt lat="29.35426" lon="95.14634"><ele>0</ele></trkpt>
      <trkpt lat="29.351692" lon="95.14954"><ele>0</ele></trkpt>
      <trkpt lat="29.351692" lon="95.14954"><ele>0</ele></trkpt>
      <trkpt lat="29.350979" lon="95.15147"><ele>0</ele></trkpt>
      <trkpt lat="29.350979" lon="95.15147"><ele>0</ele></trkpt>
      <trkpt lat="29.350527" lon="95.15687"><ele>0</ele></trkpt>
      <trkpt lat="29.350527" lon="95.15687"><ele>0</ele></trkpt>
      <trkpt lat="29.349352" lon="95.15971"><ele>0</ele></trkpt>
      <trkpt lat="29.349352" lon="95.15971"><ele>0</ele></trkpt>
      <trkpt lat="29.347137" lon="95.16267"><ele>0</ele></trkpt>
      <trkpt lat="29.347137" lon="95.16267"><ele>0</ele></trkpt>
      <trkpt lat="29.34489" lon="95.16542"><ele>0</ele></trkpt>
      <trkpt lat="29.34489" lon="95.16542"><ele>0</ele></trkpt>
      <trkpt lat="29.341337" lon="95.17138"><ele>0</ele></trkpt>
      <trkpt lat="29.341337" lon="95.17138"><ele>0</ele></trkpt>
      <trkpt lat="29.336788" lon="95.170555"><ele>0</ele></trkpt>
      <trkpt lat="29.336788" lon="95.170555"><ele>0</ele></trkpt>
      <trkpt lat="29.333145" lon="95.170944"><ele>0</ele></trkpt>
      <trkpt lat="29.333145" lon="95.170944"><ele>0</ele></trkpt>
      <trkpt lat="29.331656" lon="95.17202"><ele>0</ele></trkpt>
      <trkpt lat="29.331656" lon="95.17202"><ele>0</ele></trkpt>
      <trkpt lat="29.327255" lon="95.17229"><ele>0</ele></trkpt>
      <trkpt lat="29.327255" lon="95.17229"><ele>0</ele></trkpt>
      <trkpt lat="29.326141" lon="95.1749"><ele>0</ele></trkpt>
      <trkpt lat="29.326141" lon="95.1749"><ele>0</ele></trkpt>
      <trkpt lat="29.328962" lon="95.17741"><ele>0</ele></trkpt>
      <trkpt lat="29.328962" lon="95.17741"><ele>0</ele></trkpt>
      <trkpt lat="29.328573" lon="95.178505"><ele>0</ele></trkpt>
      <trkpt lat="29.328573" lon="95.178505"><ele>0</ele></trkpt>
      <trkpt lat="29.323956" lon="95.1756"><ele>0</ele></trkpt>
      <trkpt lat="29.323956" lon="95.1756"><ele>0</ele></trkpt>
      <trkpt lat="29.317003" lon="95.17725"><ele>0</ele></trkpt>
      <trkpt lat="29.317003" lon="95.17725"><ele>0</ele></trkpt>
      <trkpt lat="29.310417" lon="95.175545"><ele>0</ele></trkpt>
      <trkpt lat="29.310417" lon="95.175545"><ele>0</ele></trkpt>
      <trkpt lat="29.308308" lon="95.17692"><ele>0</ele></trkpt>
      <trkpt lat="29.308308" lon="95.17692"><ele>0</ele></trkpt>
      <trkpt lat="29.30592" lon="95.17575"><ele>0</ele></trkpt>
      <trkpt lat="29.30592" lon="95.17575"><ele>0</ele></trkpt>
      <trkpt lat="29.30366" lon="95.17208"><ele>0</ele></trkpt>
      <trkpt lat="29.30366" lon="95.17208"><ele>0</ele></trkpt>
      <trkpt lat="29.29779" lon="95.16771"><ele>0</ele></trkpt>
      <trkpt lat="29.29779" lon="95.16771"><ele>0</ele></trkpt>
      <trkpt lat="29.293905" lon="95.16572"><ele>0</ele></trkpt>
      <trkpt lat="29.293905" lon="95.16572"><ele>0</ele></trkpt>
      <trkpt lat="29.289917" lon="95.166016"><ele>0</ele></trkpt>
      <trkpt lat="29.289917" lon="95.166016"><ele>0</ele></trkpt>
      <trkpt lat="29.284678" lon="95.169525"><ele>0</ele></trkpt>
      <trkpt lat="29.284678" lon="95.169525"><ele>0</ele></trkpt>
      <trkpt lat="29.283808" lon="95.168434"><ele>0</ele></trkpt>
      <trkpt lat="29.283808" lon="95.168434"><ele>0</ele></trkpt>
      <trkpt lat="29.275743" lon="95.17106"><ele>0</ele></trkpt>
      <trkpt lat="29.275743" lon="95.17106"><ele>0</ele></trkpt>
      <trkpt lat="29.271044" lon="95.16898"><ele>0</ele></trkpt>
      <trkpt lat="29.271044" lon="95.16898"><ele>0</ele></trkpt>
      <trkpt lat="29.263248" lon="95.167496"><ele>0</ele></trkpt>
      <trkpt lat="29.263248" lon="95.167496"><ele>0</ele></trkpt>
      <trkpt lat="29.25874" lon="95.16514"><ele>0</ele></trkpt>
      <trkpt lat="29.256172" lon="95.16261"><ele>0</ele></trkpt>
      <trkpt lat="29.251043" lon="95.16353"><ele>0</ele></trkpt>
      <trkpt lat="29.246857" lon="95.16359"><ele>0</ele></trkpt>
      <trkpt lat="29.24503" lon="95.16536"><ele>0</ele></trkpt>
      <trkpt lat="29.243704" lon="95.16534"><ele>0</ele></trkpt>
      <trkpt lat="29.244322" lon="95.16627"><ele>0</ele></trkpt>
      <trkpt lat="29.244843" lon="95.16702"><ele>0</ele></trkpt>
      <trkpt lat="29.243864" lon="95.16634"><ele>0</ele></trkpt>
      <trkpt lat="29.243065" lon="95.16593"><ele>0</ele></trkpt>
      <trkpt lat="29.24223" lon="95.16513"><ele>0</ele></trkpt>
      <trkpt lat="29.242825" lon="95.1665"><ele>0</ele></trkpt>
      <trkpt lat="29.243744" lon="95.16745"><ele>0</ele></trkpt>
      <trkpt lat="29.24343" lon="95.16838"><ele>0</ele></trkpt>
      <trkpt lat="29.243677" lon="95.16943"><ele>0</ele></trkpt>
      <trkpt lat="29.242828" lon="95.17056"><ele>0</ele></trkpt>
      <trkpt lat="29.24437" lon="95.17222"><ele>0</ele></trkpt>
      <trkpt lat="29.24585" lon="95.17284"><ele>0</ele></trkpt>
      <trkpt lat="29.24679" lon="95.173134"><ele>0</ele></trkpt>
      <trkpt lat="29.24688" lon="95.17416"><ele>0</ele></trkpt>
      <trkpt lat="29.247864" lon="95.17508"><ele>0</ele></trkpt>
      <trkpt lat="29.24943" lon="95.1755"><ele>0</ele></trkpt>
      <trkpt lat="29.250566" lon="95.17695"><ele>0</ele></trkpt>
      <trkpt lat="29.251093" lon="95.17926"><ele>0</ele></trkpt>
      <trkpt lat="29.251093" lon="95.17926"><ele>0</ele></trkpt>
      <trkpt lat="29.251001" lon="95.18017"><ele>0</ele></trkpt>
      <trkpt lat="29.251892" lon="95.18122"><ele>0</ele></trkpt>
      <trkpt lat="29.250961" lon="95.18002"><ele>0</ele></trkpt>
      <trkpt lat="29.251072" lon="95.18026"><ele>0</ele></trkpt>
      <trkpt lat="29.251072" lon="95.18026"><ele>0</ele></trkpt>
      <trkpt lat="29.251724" lon="95.18087"><ele>0</ele></trkpt>
      <trkpt lat="29.251724" lon="95.18087"><ele>0</ele></trkpt>
      <trkpt lat="29.251898" lon="95.18135"><ele>0</ele></trkpt>
      <trkpt lat="29.251898" lon="95.18135"><ele>0</ele></trkpt>
      <trkpt lat="29.251802" lon="95.181854"><ele>0</ele></trkpt>
      <trkpt lat="29.251802" lon="95.181854"><ele>0</ele></trkpt>
      <trkpt lat="29.251413" lon="95.18306"><ele>0</ele></trkpt>
      <trkpt lat="29.251413" lon="95.18306"><ele>0</ele></trkpt>
      <trkpt lat="29.251106" lon="95.18366"><ele>0</ele></trkpt>
      <trkpt lat="29.251106" lon="95.18366"><ele>0</ele></trkpt>
      <trkpt lat="29.250767" lon="95.183846"><ele>0</ele></trkpt>
      <trkpt lat="29.250767" lon="95.183846"><ele>0</ele></trkpt>
      <trkpt lat="29.250511" lon="95.18481"><ele>0</ele></trkpt>
      <trkpt lat="29.250511" lon="95.18481"><ele>0</ele></trkpt>
      <trkpt lat="29.250566" lon="95.18676"><ele>0</ele></trkpt>
      <trkpt lat="29.250566" lon="95.18676"><ele>0</ele></trkpt>
      <trkpt lat="29.2506" lon="95.18791"><ele>0</ele></trkpt>
      <trkpt lat="29.2506" lon="95.18791"><ele>0</ele></trkpt>
      <trkpt lat="29.250717" lon="95.188255"><ele>0</ele></trkpt>
      <trkpt lat="29.250717" lon="95.188255"><ele>0</ele></trkpt>
      <trkpt lat="29.25091" lon="95.188385"><ele>0</ele></trkpt>
      <trkpt lat="29.25091" lon="95.188385"><ele>0</ele></trkpt>
      <trkpt lat="29.251019" lon="95.18848"><ele>0</ele></trkpt>
      <trkpt lat="29.251019" lon="95.18848"><ele>0</ele></trkpt>
      <trkpt lat="29.250797" lon="95.188675"><ele>0</ele></trkpt>
      <trkpt lat="29.250797" lon="95.188675"><ele>0</ele></trkpt>
      <trkpt lat="29.250793" lon="95.18882"><ele>0</ele></trkpt>
      <trkpt lat="29.250793" lon="95.18882"><ele>0</ele></trkpt>
      <trkpt lat="29.250954" lon="95.18888"><ele>0</ele></trkpt>
      <trkpt lat="29.250954" lon="95.18888"><ele>0</ele></trkpt>
      <trkpt lat="29.250957" lon="95.18902"><ele>0</ele></trkpt>
      <trkpt lat="29.250957" lon="95.18902"><ele>0</ele></trkpt>
      <trkpt lat="29.250818" lon="95.189224"><ele>0</ele></trkpt>
      <trkpt lat="29.250818" lon="95.189224"><ele>0</ele></trkpt>
      <trkpt lat="29.25084" lon="95.1895"><ele>0</ele></trkpt>
      <trkpt lat="29.25084" lon="95.1895"><ele>0</ele></trkpt>
      <trkpt lat="29.25111" lon="95.19023"><ele>0</ele></trkpt>
      <trkpt lat="29.25111" lon="95.19023"><ele>0</ele></trkpt>
      <trkpt lat="29.25113" lon="95.19064"><ele>0</ele></trkpt>
      <trkpt lat="29.25113" lon="95.19064"><ele>0</ele></trkpt>
      <trkpt lat="29.251072" lon="95.19186"><ele>0</ele></trkpt>
      <trkpt lat="29.251072" lon="95.19186"><ele>0</ele></trkpt>
      <trkpt lat="29.25104" lon="95.19291"><ele>0</ele></trkpt>
      <trkpt lat="29.25104" lon="95.19291"><ele>0</ele></trkpt>
      <trkpt lat="29.251081" lon="95.19324"><ele>0</ele></trkpt>
      <trkpt lat="29.251081" lon="95.19324"><ele>0</ele></trkpt>
      <trkpt lat="29.251026" lon="95.19366"><ele>0</ele></trkpt>
      <trkpt lat="29.251026" lon="95.19366"><ele>0</ele></trkpt>
      <trkpt lat="29.250757" lon="95.19385"><ele>0</ele></trkpt>
      <trkpt lat="29.250757" lon="95.19385"><ele>0</ele></trkpt>
      <trkpt lat="29.250454" lon="95.19404"><ele>0</ele></trkpt>
      <trkpt lat="29.250454" lon="95.19404"><ele>0</ele></trkpt>
      <trkpt lat="29.2505" lon="95.194145"><ele>0</ele></trkpt>
      <trkpt lat="29.2505" lon="95.194145"><ele>0</ele></trkpt>
      <trkpt lat="29.250729" lon="95.19419"><ele>0</ele></trkpt>
      <trkpt lat="29.250729" lon="95.19419"><ele>0</ele></trkpt>
      <trkpt lat="29.25098" lon="95.19412"><ele>0</ele></trkpt>
      <trkpt lat="29.25098" lon="95.19412"><ele>0</ele></trkpt>
      <trkpt lat="29.251133" lon="95.19415"><ele>0</ele></trkpt>
      <trkpt lat="29.251133" lon="95.19415"><ele>0</ele></trkpt>
      <trkpt lat="29.251238" lon="95.19433"><ele>0</ele></trkpt>
      <trkpt lat="29.251238" lon="95.19433"><ele>0</ele></trkpt>
      <trkpt lat="29.251259" lon="95.19465"><ele>0</ele></trkpt>
      <trkpt lat="29.251259" lon="95.19465"><ele>0</ele></trkpt>
      <trkpt lat="29.251259" lon="95.19506"><ele>0</ele></trkpt>
      <trkpt lat="29.251259" lon="95.19506"><ele>0</ele></trkpt>
      <trkpt lat="29.251265" lon="95.195496"><ele>0</ele></trkpt>
      <trkpt lat="29.251265" lon="95.195496"><ele>0</ele></trkpt>
      <trkpt lat="29.251144" lon="95.19595"><ele>0</ele></trkpt>
      <trkpt lat="29.251144" lon="95.19595"><ele>0</ele></trkpt>
      <trkpt lat="29.250937" lon="95.19641"><ele>0</ele></trkpt>
      <trkpt lat="29.250937" lon="95.19641"><ele>0</ele></trkpt>
      <trkpt lat="29.25068" lon="95.196846"><ele>0</ele></trkpt>
      <trkpt lat="29.25068" lon="95.196846"><ele>0</ele></trkpt>
      <trkpt lat="29.250402" lon="95.19733"><ele>0</ele></trkpt>
      <trkpt lat="29.250402" lon="95.19733"><ele>0</ele></trkpt>
      <trkpt lat="29.250086" lon="95.19778"><ele>0</ele></trkpt>
      <trkpt lat="29.250086" lon="95.19778"><ele>0</ele></trkpt>
      <trkpt lat="29.249928" lon="95.19809"><ele>0</ele></trkpt>
      <trkpt lat="29.249928" lon="95.19809"><ele>0</ele></trkpt>
      <trkpt lat="29.249916" lon="95.198456"><ele>0</ele></trkpt>
      <trkpt lat="29.249916" lon="95.198456"><ele>0</ele></trkpt>
      <trkpt lat="29.250013" lon="95.19887"><ele>0</ele></trkpt>
      <trkpt lat="29.250013" lon="95.19887"><ele>0</ele></trkpt>
      <trkpt lat="29.250296" lon="95.19935"><ele>0</ele></trkpt>
      <trkpt lat="29.250296" lon="95.19935"><ele>0</ele></trkpt>
      <trkpt lat="29.250557" lon="95.19955"><ele>0</ele></trkpt>
      <trkpt lat="29.250557" lon="95.19955"><ele>0</ele></trkpt>
      <trkpt lat="29.25098" lon="95.19937"><ele>0</ele></trkpt>
      <trkpt lat="29.25098" lon="95.19937"><ele>0</ele></trkpt>
      <trkpt lat="29.251205" lon="95.19938"><ele>0</ele></trkpt>
      <trkpt lat="29.251205" lon="95.19938"><ele>0</ele></trkpt>
      <trkpt lat="29.25196" lon="95.200005"><ele>0</ele></trkpt>
      <trkpt lat="29.25196" lon="95.200005"><ele>0</ele></trkpt>
      <trkpt lat="29.252708" lon="95.20079"><ele>0</ele></trkpt>
      <trkpt lat="29.252708" lon="95.20079"><ele>0</ele></trkpt>
      <trkpt lat="29.253601" lon="95.201324"><ele>0</ele></trkpt>
      <trkpt lat="29.253601" lon="95.201324"><ele>0</ele></trkpt>
      <trkpt lat="29.254606" lon="95.20187"><ele>0</ele></trkpt>
      <trkpt lat="29.254606" lon="95.20187"><ele>0</ele></trkpt>
      <trkpt lat="29.255774" lon="95.2025"><ele>0</ele></trkpt>
      <trkpt lat="29.255774" lon="95.2025"><ele>0</ele></trkpt>
      <trkpt lat="29.257233" lon="95.20306"><ele>0</ele></trkpt>
      <trkpt lat="29.257233" lon="95.20306"><ele>0</ele></trkpt>
      <trkpt lat="29.258488" lon="95.203224"><ele>0</ele></trkpt>
      <trkpt lat="29.258488" lon="95.203224"><ele>0</ele></trkpt>
      <trkpt lat="29.259956" lon="95.20312"><ele>0</ele></trkpt>
      <trkpt lat="29.259956" lon="95.20312"><ele>0</ele></trkpt>
      <trkpt lat="29.261436" lon="95.20287"><ele>0</ele></trkpt>
      <trkpt lat="29.261436" lon="95.20287"><ele>0</ele></trkpt>
      <trkpt lat="29.263021" lon="95.202484"><ele>0</ele></trkpt>
      <trkpt lat="29.263021" lon="95.202484"><ele>0</ele></trkpt>
      <trkpt lat="29.264442" lon="95.20211"><ele>0</ele></trkpt>
      <trkpt lat="29.264442" lon="95.20211"><ele>0</ele></trkpt>
      <trkpt lat="29.266106" lon="95.20157"><ele>0</ele></trkpt>
      <trkpt lat="29.266106" lon="95.20157"><ele>0</ele></trkpt>
      <trkpt lat="29.26726" lon="95.20116"><ele>0</ele></trkpt>
      <trkpt lat="29.26726" lon="95.20116"><ele>0</ele></trkpt>
      <trkpt lat="29.268349" lon="95.2009"><ele>0</ele></trkpt>
      <trkpt lat="29.268349" lon="95.2009"><ele>0</ele></trkpt>
      <trkpt lat="29.268888" lon="95.200645"><ele>0</ele></trkpt>
      <trkpt lat="29.268888" lon="95.200645"><ele>0</ele></trkpt>
      <trkpt lat="29.269272" lon="95.200165"><ele>0</ele></trkpt>
      <trkpt lat="29.269272" lon="95.200165"><ele>0</ele></trkpt>
      <trkpt lat="29.26961" lon="95.19981"><ele>0</ele></trkpt>
      <trkpt lat="29.26961" lon="95.19981"><ele>0</ele></trkpt>
      <trkpt lat="29.269909" lon="95.19969"><ele>0</ele></trkpt>
      <trkpt lat="29.269909" lon="95.19969"><ele>0</ele></trkpt>
      <trkpt lat="29.270435" lon="95.19986"><ele>0</ele></trkpt>
      <trkpt lat="29.270435" lon="95.19986"><ele>0</ele></trkpt>
      <trkpt lat="29.270998" lon="95.20029"><ele>0</ele></trkpt>
      <trkpt lat="29.270998" lon="95.20029"><ele>0</ele></trkpt>
      <trkpt lat="29.271364" lon="95.20098"><ele>0</ele></trkpt>
      <trkpt lat="29.271364" lon="95.20098"><ele>0</ele></trkpt>
      <trkpt lat="29.271906" lon="95.20246"><ele>0</ele></trkpt>
      <trkpt lat="29.271906" lon="95.20246"><ele>0</ele></trkpt>
      <trkpt lat="29.272448" lon="95.203964"><ele>0</ele></trkpt>
      <trkpt lat="29.272448" lon="95.203964"><ele>0</ele></trkpt>
      <trkpt lat="29.272823" lon="95.20544"><ele>0</ele></trkpt>
      <trkpt lat="29.272823" lon="95.20544"><ele>0</ele></trkpt>
      <trkpt lat="29.272896" lon="95.206085"><ele>0</ele></trkpt>
      <trkpt lat="29.272896" lon="95.206085"><ele>0</ele></trkpt>
      <trkpt lat="29.272764" lon="95.20694"><ele>0</ele></trkpt>
      <trkpt lat="29.272764" lon="95.20694"><ele>0</ele></trkpt>
      <trkpt lat="29.272572" lon="95.2078"><ele>0</ele></trkpt>
      <trkpt lat="29.272572" lon="95.2078"><ele>0</ele></trkpt>
      <trkpt lat="29.2724" lon="95.20876"><ele>0</ele></trkpt>
      <trkpt lat="29.2724" lon="95.20876"><ele>0</ele></trkpt>
      <trkpt lat="29.271975" lon="95.21017"><ele>0</ele></trkpt>
      <trkpt lat="29.271975" lon="95.21017"><ele>0</ele></trkpt>
      <trkpt lat="29.271372" lon="95.21158"><ele>0</ele></trkpt>
      <trkpt lat="29.271372" lon="95.21158"><ele>0</ele></trkpt>
      <trkpt lat="29.27051" lon="95.2129"><ele>0</ele></trkpt>
      <trkpt lat="29.27051" lon="95.2129"><ele>0</ele></trkpt>
      <trkpt lat="29.269512" lon="95.21402"><ele>0</ele></trkpt>
      <trkpt lat="29.269512" lon="95.21402"><ele>0</ele></trkpt>
      <trkpt lat="29.268679" lon="95.21494"><ele>0</ele></trkpt>
      <trkpt lat="29.268679" lon="95.21494"><ele>0</ele></trkpt>
      <trkpt lat="29.268427" lon="95.21493"><ele>0</ele></trkpt>
      <trkpt lat="29.268427" lon="95.21493"><ele>0</ele></trkpt>
      <trkpt lat="29.26823" lon="95.214714"><ele>0</ele></trkpt>
      <trkpt lat="29.26823" lon="95.214714"><ele>0</ele></trkpt>
      <trkpt lat="29.267817" lon="95.21477"><ele>0</ele></trkpt>
      <trkpt lat="29.267817" lon="95.21477"><ele>0</ele></trkpt>
      <trkpt lat="29.267498" lon="95.21563"><ele>0</ele></trkpt>
      <trkpt lat="29.267498" lon="95.21563"><ele>0</ele></trkpt>
      <trkpt lat="29.2673" lon="95.21676"><ele>0</ele></trkpt>
      <trkpt lat="29.2673" lon="95.21676"><ele>0</ele></trkpt>
      <trkpt lat="29.267124" lon="95.21835"><ele>0</ele></trkpt>
      <trkpt lat="29.267124" lon="95.21835"><ele>0</ele></trkpt>
      <trkpt lat="29.266968" lon="95.21995"><ele>0</ele></trkpt>
      <trkpt lat="29.266968" lon="95.21995"><ele>0</ele></trkpt>
      <trkpt lat="29.266884" lon="95.22191"><ele>0</ele></trkpt>
      <trkpt lat="29.266884" lon="95.22191"><ele>0</ele></trkpt>
      <trkpt lat="29.266945" lon="95.22289"><ele>0</ele></trkpt>
      <trkpt lat="29.266945" lon="95.22289"><ele>0</ele></trkpt>
      <trkpt lat="29.267382" lon="95.22422"><ele>0</ele></trkpt>
      <trkpt lat="29.267382" lon="95.22422"><ele>0</ele></trkpt>
      <trkpt lat="29.268482" lon="95.22682"><ele>0</ele></trkpt>
      <trkpt lat="29.268482" lon="95.22682"><ele>0</ele></trkpt>
      <trkpt lat="29.269497" lon="95.22883"><ele>0</ele></trkpt>
      <trkpt lat="29.269497" lon="95.22883"><ele>0</ele></trkpt>
      <trkpt lat="29.27077" lon="95.231476"><ele>0</ele></trkpt>
      <trkpt lat="29.27077" lon="95.231476"><ele>0</ele></trkpt>
      <trkpt lat="29.271992" lon="95.23365"><ele>0</ele></trkpt>
      <trkpt lat="29.271992" lon="95.23365"><ele>0</ele></trkpt>
      <trkpt lat="29.273611" lon="95.23605"><ele>0</ele></trkpt>
      <trkpt lat="29.273611" lon="95.23605"><ele>0</ele></trkpt>
      <trkpt lat="29.274956" lon="95.23855"><ele>0</ele></trkpt>
      <trkpt lat="29.274956" lon="95.23855"><ele>0</ele></trkpt>
      <trkpt lat="29.276299" lon="95.24138"><ele>0</ele></trkpt>
      <trkpt lat="29.276299" lon="95.24138"><ele>0</ele></trkpt>
      <trkpt lat="29.277328" lon="95.244255"><ele>0</ele></trkpt>
      <trkpt lat="29.277328" lon="95.244255"><ele>0</ele></trkpt>
      <trkpt lat="29.277496" lon="95.24734"><ele>0</ele></trkpt>
      <trkpt lat="29.277496" lon="95.24734"><ele>0</ele></trkpt>
      <trkpt lat="29.276913" lon="95.24772"><ele>0</ele></trkpt>
      <trkpt lat="29.276913" lon="95.24772"><ele>0</ele></trkpt>
      <trkpt lat="29.277046" lon="95.24887"><ele>0</ele></trkpt>
      <trkpt lat="29.277046" lon="95.24887"><ele>0</ele></trkpt>
      <trkpt lat="29.276573" lon="95.24945"><ele>0</ele></trkpt>
      <trkpt lat="29.276573" lon="95.24945"><ele>0</ele></trkpt>
      <trkpt lat="29.275206" lon="95.25038"><ele>0</ele></trkpt>
      <trkpt lat="29.275206" lon="95.25038"><ele>0</ele></trkpt>
      <trkpt lat="29.27482" lon="95.25028"><ele>0</ele></trkpt>
      <trkpt lat="29.27482" lon="95.25028"><ele>0</ele></trkpt>
      <trkpt lat="29.274462" lon="95.250725"><ele>0</ele></trkpt>
      <trkpt lat="29.274462" lon="95.250725"><ele>0</ele></trkpt>
      <trkpt lat="29.274462" lon="95.25094"><ele>0</ele></trkpt>
      <trkpt lat="29.274462" lon="95.25094"><ele>0</ele></trkpt>
      <trkpt lat="29.274693" lon="95.25099"><ele>0</ele></trkpt>
      <trkpt lat="29.274693" lon="95.25099"><ele>0</ele></trkpt>
      <trkpt lat="29.274832" lon="95.25083"><ele>0</ele></trkpt>
      <trkpt lat="29.274832" lon="95.25083"><ele>0</ele></trkpt>
      <trkpt lat="29.27527" lon="95.251236"><ele>0</ele></trkpt>
      <trkpt lat="29.27527" lon="95.251236"><ele>0</ele></trkpt>
      <trkpt lat="29.276123" lon="95.25132"><ele>0</ele></trkpt>
      <trkpt lat="29.276123" lon="95.25132"><ele>0</ele></trkpt>
      <trkpt lat="29.276957" lon="95.25102"><ele>0</ele></trkpt>
      <trkpt lat="29.276957" lon="95.25102"><ele>0</ele></trkpt>
      <trkpt lat="29.277386" lon="95.25083"><ele>0</ele></trkpt>
      <trkpt lat="29.277386" lon="95.25083"><ele>0</ele></trkpt>
      <trkpt lat="29.27814" lon="95.25126"><ele>0</ele></trkpt>
      <trkpt lat="29.27814" lon="95.25126"><ele>0</ele></trkpt>
      <trkpt lat="29.278276" lon="95.25194"><ele>0</ele></trkpt>
      <trkpt lat="29.278276" lon="95.25194"><ele>0</ele></trkpt>
      <trkpt lat="29.279705" lon="95.25411"><ele>0</ele></trkpt>
      <trkpt lat="29.279705" lon="95.25411"><ele>0</ele></trkpt>
      <trkpt lat="29.28182" lon="95.256195"><ele>0</ele></trkpt>
      <trkpt lat="29.28182" lon="95.256195"><ele>0</ele></trkpt>
      <trkpt lat="29.283726" lon="95.25818"><ele>0</ele></trkpt>
      <trkpt lat="29.283726" lon="95.25818"><ele>0</ele></trkpt>
      <trkpt lat="29.284864" lon="95.26035"><ele>0</ele></trkpt>
      <trkpt lat="29.284864" lon="95.26035"><ele>0</ele></trkpt>
      <trkpt lat="29.285872" lon="95.263145"><ele>0</ele></trkpt>
      <trkpt lat="29.285872" lon="95.263145"><ele>0</ele></trkpt>
      <trkpt lat="29.287048" lon="95.267555"><ele>0</ele></trkpt>
      <trkpt lat="29.287048" lon="95.267555"><ele>0</ele></trkpt>
      <trkpt lat="29.288385" lon="95.2699"><ele>0</ele></trkpt>
      <trkpt lat="29.288385" lon="95.2699"><ele>0</ele></trkpt>
      <trkpt lat="29.290064" lon="95.27181"><ele>0</ele></trkpt>
      <trkpt lat="29.290064" lon="95.27181"><ele>0</ele></trkpt>
      <trkpt lat="29.292505" lon="95.27408"><ele>0</ele></trkpt>
      <trkpt lat="29.292505" lon="95.27408"><ele>0</ele></trkpt>
      <trkpt lat="29.295319" lon="95.27611"><ele>0</ele></trkpt>
      <trkpt lat="29.295319" lon="95.27611"><ele>0</ele></trkpt>
      <trkpt lat="29.298681" lon="95.27863"><ele>0</ele></trkpt>
      <trkpt lat="29.298681" lon="95.27863"><ele>0</ele></trkpt>
      <trkpt lat="29.298681" lon="95.281906"><ele>0</ele></trkpt>
      <trkpt lat="29.298681" lon="95.281906"><ele>0</ele></trkpt>
      <trkpt lat="29.299536" lon="95.28283"><ele>0</ele></trkpt>
      <trkpt lat="29.299536" lon="95.28283"><ele>0</ele></trkpt>
      <trkpt lat="29.30038" lon="95.28214"><ele>0</ele></trkpt>
      <trkpt lat="29.30038" lon="95.28214"><ele>0</ele></trkpt>
      <trkpt lat="29.301579" lon="95.283485"><ele>0</ele></trkpt>
      <trkpt lat="29.301579" lon="95.283485"><ele>0</ele></trkpt>
      <trkpt lat="29.301151" lon="95.28339"><ele>0</ele></trkpt>
      <trkpt lat="29.301151" lon="95.28339"><ele>0</ele></trkpt>
      <trkpt lat="29.302303" lon="95.285614"><ele>0</ele></trkpt>
      <trkpt lat="29.302303" lon="95.285614"><ele>0</ele></trkpt>
      <trkpt lat="29.303791" lon="95.28895"><ele>0</ele></trkpt>
      <trkpt lat="29.303791" lon="95.28895"><ele>0</ele></trkpt>
      <trkpt lat="29.30481" lon="95.2908"><ele>0</ele></trkpt>
      <trkpt lat="29.30481" lon="95.2908"><ele>0</ele></trkpt>
      <trkpt lat="29.306713" lon="95.29256"><ele>0</ele></trkpt>
      <trkpt lat="29.306713" lon="95.29256"><ele>0</ele></trkpt>
      <trkpt lat="29.307775" lon="95.29356"><ele>0</ele></trkpt>
      <trkpt lat="29.307775" lon="95.29356"><ele>0</ele></trkpt>
      <trkpt lat="29.310537" lon="95.29427"><ele>0</ele></trkpt>
      <trkpt lat="29.310537" lon="95.29427"><ele>0</ele></trkpt>
      <trkpt lat="29.311047" lon="95.29395"><ele>0</ele></trkpt>
      <trkpt lat="29.311047" lon="95.29395"><ele>0</ele></trkpt>
      <trkpt lat="29.311623" lon="95.29395"><ele>0</ele></trkpt>
      <trkpt lat="29.311623" lon="95.29395"><ele>0</ele></trkpt>
      <trkpt lat="29.312862" lon="95.2935"><ele>0</ele></trkpt>
      <trkpt lat="29.312862" lon="95.2935"><ele>0</ele></trkpt>
      <trkpt lat="29.313559" lon="95.29341"><ele>0</ele></trkpt>
      <trkpt lat="29.313559" lon="95.29341"><ele>0</ele></trkpt>
      <trkpt lat="29.313953" lon="95.293"><ele>0</ele></trkpt>
      <trkpt lat="29.313953" lon="95.293"><ele>0</ele></trkpt>
      <trkpt lat="29.314276" lon="95.29228"><ele>0</ele></trkpt>
      <trkpt lat="29.314276" lon="95.29228"><ele>0</ele></trkpt>
      <trkpt lat="29.314486" lon="95.29121"><ele>0</ele></trkpt>
      <trkpt lat="29.314486" lon="95.29121"><ele>0</ele></trkpt>
      <trkpt lat="29.314774" lon="95.29116"><ele>0</ele></trkpt>
      <trkpt lat="29.314774" lon="95.29116"><ele>0</ele></trkpt>
      <trkpt lat="29.316034" lon="95.288864"><ele>0</ele></trkpt>
      <trkpt lat="29.316034" lon="95.288864"><ele>0</ele></trkpt>
      <trkpt lat="29.31611" lon="95.28777"><ele>0</ele></trkpt>
      <trkpt lat="29.31611" lon="95.28777"><ele>0</ele></trkpt>
      <trkpt lat="29.317446" lon="95.28584"><ele>0</ele></trkpt>
      <trkpt lat="29.317446" lon="95.28584"><ele>0</ele></trkpt>
      <trkpt lat="29.318773" lon="95.28514"><ele>0</ele></trkpt>
      <trkpt lat="29.318773" lon="95.28514"><ele>0</ele></trkpt>
      <trkpt lat="29.319796" lon="95.28466"><ele>0</ele></trkpt>
      <trkpt lat="29.319796" lon="95.28466"><ele>0</ele></trkpt>
      <trkpt lat="29.320536" lon="95.28372"><ele>0</ele></trkpt>
      <trkpt lat="29.320536" lon="95.28372"><ele>0</ele></trkpt>
      <trkpt lat="29.32131" lon="95.28339"><ele>0</ele></trkpt>
      <trkpt lat="29.32131" lon="95.28339"><ele>0</ele></trkpt>
      <trkpt lat="29.322115" lon="95.28264"><ele>0</ele></trkpt>
      <trkpt lat="29.322115" lon="95.28264"><ele>0</ele></trkpt>
      <trkpt lat="29.32255" lon="95.28204"><ele>0</ele></trkpt>
      <trkpt lat="29.32255" lon="95.28204"><ele>0</ele></trkpt>
      <trkpt lat="29.323534" lon="95.282974"><ele>0</ele></trkpt>
      <trkpt lat="29.323534" lon="95.282974"><ele>0</ele></trkpt>
      <trkpt lat="29.323814" lon="95.28481"><ele>0</ele></trkpt>
      <trkpt lat="29.323814" lon="95.28481"><ele>0</ele></trkpt>
      <trkpt lat="29.323679" lon="95.28588"><ele>0</ele></trkpt>
      <trkpt lat="29.323679" lon="95.28588"><ele>0</ele></trkpt>
      <trkpt lat="29.323057" lon="95.28681"><ele>0</ele></trkpt>
      <trkpt lat="29.323057" lon="95.28681"><ele>0</ele></trkpt>
      <trkpt lat="29.322939" lon="95.2881"><ele>0</ele></trkpt>
      <trkpt lat="29.322939" lon="95.2881"><ele>0</ele></trkpt>
      <trkpt lat="29.322733" lon="95.288795"><ele>0</ele></trkpt>
      <trkpt lat="29.322733" lon="95.288795"><ele>0</ele></trkpt>
      <trkpt lat="29.322893" lon="95.28903"><ele>0</ele></trkpt>
      <trkpt lat="29.322893" lon="95.28903"><ele>0</ele></trkpt>
      <trkpt lat="29.322784" lon="95.28945"><ele>0</ele></trkpt>
      <trkpt lat="29.322784" lon="95.28945"><ele>0</ele></trkpt>
      <trkpt lat="29.321974" lon="95.28961"><ele>0</ele></trkpt>
      <trkpt lat="29.321974" lon="95.28961"><ele>0</ele></trkpt>
      <trkpt lat="29.320951" lon="95.28973"><ele>0</ele></trkpt>
      <trkpt lat="29.320951" lon="95.28973"><ele>0</ele></trkpt>
      <trkpt lat="29.320274" lon="95.290405"><ele>0</ele></trkpt>
      <trkpt lat="29.320274" lon="95.290405"><ele>0</ele></trkpt>
      <trkpt lat="29.319803" lon="95.29166"><ele>0</ele></trkpt>
      <trkpt lat="29.319803" lon="95.29166"><ele>0</ele></trkpt>
      <trkpt lat="29.31989" lon="95.292076"><ele>0</ele></trkpt>
      <trkpt lat="29.31989" lon="95.292076"><ele>0</ele></trkpt>
      <trkpt lat="29.319626" lon="95.29226"><ele>0</ele></trkpt>
      <trkpt lat="29.319626" lon="95.29226"><ele>0</ele></trkpt>
      <trkpt lat="29.31908" lon="95.294624"><ele>0</ele></trkpt>
      <trkpt lat="29.31908" lon="95.294624"><ele>0</ele></trkpt>
      <trkpt lat="29.318224" lon="95.29775"><ele>0</ele></trkpt>
      <trkpt lat="29.318224" lon="95.29775"><ele>0</ele></trkpt>
      <trkpt lat="29.318485" lon="95.29976"><ele>0</ele></trkpt>
      <trkpt lat="29.318485" lon="95.29976"><ele>0</ele></trkpt>
      <trkpt lat="29.320515" lon="95.305565"><ele>0</ele></trkpt>
      <trkpt lat="29.320515" lon="95.305565"><ele>0</ele></trkpt>
      <trkpt lat="29.32257" lon="95.311165"><ele>0</ele></trkpt>
      <trkpt lat="29.32257" lon="95.311165"><ele>0</ele></trkpt>
      <trkpt lat="29.3229" lon="95.31252"><ele>0</ele></trkpt>
      <trkpt lat="29.3229" lon="95.31252"><ele>0</ele></trkpt>
      <trkpt lat="29.32275" lon="95.31432"><ele>0</ele></trkpt>
      <trkpt lat="29.324173" lon="95.31701"><ele>0</ele></trkpt>
      <trkpt lat="29.32471" lon="95.31792"><ele>0</ele></trkpt>
      <trkpt lat="29.32644" lon="95.31943"><ele>0</ele></trkpt>
      <trkpt lat="29.32701" lon="95.320526"><ele>0</ele></trkpt>
      <trkpt lat="29.327457" lon="95.32265"><ele>0</ele></trkpt>
      <trkpt lat="29.328632" lon="95.32466"><ele>0</ele></trkpt>
      <trkpt lat="29.328348" lon="95.32557"><ele>0</ele></trkpt>
      <trkpt lat="29.327078" lon="95.32642"><ele>0</ele></trkpt>
      <trkpt lat="29.326057" lon="95.32655"><ele>0</ele></trkpt>
      <trkpt lat="29.324636" lon="95.32603"><ele>0</ele></trkpt>
      <trkpt lat="29.325277" lon="95.32859"><ele>0</ele></trkpt>
      <trkpt lat="29.32366" lon="95.32906"><ele>0</ele></trkpt>
    </trkseg>
  </trk>
</gpx>
