<?xml version="1.0" encoding="UTF-8"?>
<gpx version="1.1" creator="霞客 · 两步路轨迹" xmlns="http://www.topografix.com/GPX/1/1">
  <metadata><name>清凉峰参考轨迹</name></metadata>
  <trk><name>清凉峰</name>
    <trkseg>
      <trkpt lat="30.15575" lon="118.86564"><ele>688</ele></trkpt>
      <trkpt lat="30.15596" lon="118.86514"><ele>690</ele></trkpt>
      <trkpt lat="30.155975" lon="118.86455"><ele>691</ele></trkpt>
      <trkpt lat="30.155746" lon="118.864235"><ele>690</ele></trkpt>
      <trkpt lat="30.155397" lon="118.86401"><ele>692</ele></trkpt>
      <trkpt lat="30.155106" lon="118.86297"><ele>693</ele></trkpt>
      <trkpt lat="30.154873" lon="118.86274"><ele>693</ele></trkpt>
      <trkpt lat="30.154621" lon="118.86232"><ele>694</ele></trkpt>
      <trkpt lat="30.15445" lon="118.861115"><ele>697</ele></trkpt>
      <trkpt lat="30.154327" lon="118.86077"><ele>697</ele></trkpt>
      <trkpt lat="30.153282" lon="118.85944"><ele>697</ele></trkpt>
      <trkpt lat="30.153185" lon="118.85902"><ele>696</ele></trkpt>
      <trkpt lat="30.153334" lon="118.85833"><ele>694</ele></trkpt>
      <trkpt lat="30.153301" lon="118.85814"><ele>697</ele></trkpt>
      <trkpt lat="30.153057" lon="118.85796"><ele>695</ele></trkpt>
      <trkpt lat="30.152988" lon="118.85774"><ele>697</ele></trkpt>
      <trkpt lat="30.1526" lon="118.85732"><ele>697</ele></trkpt>
      <trkpt lat="30.152433" lon="118.857285"><ele>696</ele></trkpt>
      <trkpt lat="30.152493" lon="118.857056"><ele>697</ele></trkpt>
      <trkpt lat="30.152407" lon="118.8569"><ele>697</ele></trkpt>
      <trkpt lat="30.152056" lon="118.856766"><ele>697</ele></trkpt>
      <trkpt lat="30.15191" lon="118.85684"><ele>697</ele></trkpt>
      <trkpt lat="30.151812" lon="118.85677"><ele>697</ele></trkpt>
      <trkpt lat="30.151798" lon="118.856575"><ele>697</ele></trkpt>
      <trkpt lat="30.151493" lon="118.85615"><ele>698</ele></trkpt>
      <trkpt lat="30.15141" lon="118.85577"><ele>699</ele></trkpt>
      <trkpt lat="30.150854" lon="118.85471"><ele>699</ele></trkpt>
      <trkpt lat="30.150791" lon="118.85384"><ele>699</ele></trkpt>
      <trkpt lat="30.150625" lon="118.85346"><ele>700</ele></trkpt>
      <trkpt lat="30.150518" lon="118.85297"><ele>699</ele></trkpt>
      <trkpt lat="30.150291" lon="118.85246"><ele>700</ele></trkpt>
      <trkpt lat="30.150036" lon="118.85222"><ele>700</ele></trkpt>
      <trkpt lat="30.150019" lon="118.85208"><ele>701</ele></trkpt>
      <trkpt lat="30.150091" lon="118.85214"><ele>701</ele></trkpt>
      <trkpt lat="30.150131" lon="118.852425"><ele>700</ele></trkpt>
      <trkpt lat="30.150211" lon="118.852486"><ele>700</ele></trkpt>
      <trkpt lat="30.150202" lon="118.85233"><ele>700</ele></trkpt>
      <trkpt lat="30.150297" lon="118.85215"><ele>700</ele></trkpt>
      <trkpt lat="30.150274" lon="118.8518"><ele>702</ele></trkpt>
      <trkpt lat="30.15015" lon="118.851585"><ele>701</ele></trkpt>
      <trkpt lat="30.15007" lon="118.85111"><ele>702</ele></trkpt>
      <trkpt lat="30.150242" lon="118.85082"><ele>706</ele></trkpt>
      <trkpt lat="30.150536" lon="118.850624"><ele>705</ele></trkpt>
      <trkpt lat="30.150938" lon="118.85055"><ele>706</ele></trkpt>
      <trkpt lat="30.151262" lon="118.85065"><ele>708</ele></trkpt>
      <trkpt lat="30.15176" lon="118.85066"><ele>714</ele></trkpt>
      <trkpt lat="30.152012" lon="118.85079"><ele>715</ele></trkpt>
      <trkpt lat="30.152584" lon="118.85065"><ele>714</ele></trkpt>
      <trkpt lat="30.152811" lon="118.85078"><ele>716</ele></trkpt>
      <trkpt lat="30.153416" lon="118.85071"><ele>722</ele></trkpt>
      <trkpt lat="30.153498" lon="118.850784"><ele>724</ele></trkpt>
      <trkpt lat="30.153784" lon="118.85065"><ele>726</ele></trkpt>
      <trkpt lat="30.153936" lon="118.850426"><ele>734</ele></trkpt>
      <trkpt lat="30.154156" lon="118.85039"><ele>737</ele></trkpt>
      <trkpt lat="30.154589" lon="118.85006"><ele>744</ele></trkpt>
      <trkpt lat="30.154936" lon="118.849945"><ele>746</ele></trkpt>
      <trkpt lat="30.155188" lon="118.85"><ele>753</ele></trkpt>
      <trkpt lat="30.155548" lon="118.84975"><ele>778</ele></trkpt>
      <trkpt lat="30.155731" lon="118.84921"><ele>785</ele></trkpt>
      <trkpt lat="30.156015" lon="118.84899"><ele>794</ele></trkpt>
      <trkpt lat="30.156162" lon="118.84855"><ele>800</ele></trkpt>
      <trkpt lat="30.157108" lon="118.84764"><ele>824</ele></trkpt>
      <trkpt lat="30.15723" lon="118.84727"><ele>836</ele></trkpt>
      <trkpt lat="30.157337" lon="118.8472"><ele>841</ele></trkpt>
      <trkpt lat="30.157286" lon="118.8471"><ele>843</ele></trkpt>
      <trkpt lat="30.157448" lon="118.84688"><ele>853</ele></trkpt>
      <trkpt lat="30.157434" lon="118.84655"><ele>868</ele></trkpt>
      <trkpt lat="30.157282" lon="118.84655"><ele>874</ele></trkpt>
      <trkpt lat="30.15729" lon="118.8461"><ele>888</ele></trkpt>
      <trkpt lat="30.157429" lon="118.8457"><ele>897</ele></trkpt>
      <trkpt lat="30.157398" lon="118.8455"><ele>901</ele></trkpt>
      <trkpt lat="30.157194" lon="118.84512"><ele>922</ele></trkpt>
      <trkpt lat="30.157032" lon="118.84429"><ele>959</ele></trkpt>
      <trkpt lat="30.156744" lon="118.843414"><ele>996</ele></trkpt>
      <trkpt lat="30.156569" lon="118.84324"><ele>1001</ele></trkpt>
      <trkpt lat="30.156387" lon="118.84273"><ele>1023</ele></trkpt>
      <trkpt lat="30.15655" lon="118.84261"><ele>1036</ele></trkpt>
      <trkpt lat="30.15626" lon="118.841675"><ele>1102</ele></trkpt>
      <trkpt lat="30.1564" lon="118.84149"><ele>1105</ele></trkpt>
      <trkpt lat="30.156292" lon="118.841576"><ele>1106</ele></trkpt>
      <trkpt lat="30.156235" lon="118.84114"><ele>1141</ele></trkpt>
      <trkpt lat="30.156792" lon="118.84143"><ele>1151</ele></trkpt>
      <trkpt lat="30.15705" lon="118.84143"><ele>1154</ele></trkpt>
      <trkpt lat="30.157831" lon="118.841866"><ele>1154</ele></trkpt>
      <trkpt lat="30.15816" lon="118.84181"><ele>1145</ele></trkpt>
      <trkpt lat="30.158287" lon="118.841644"><ele>1146</ele></trkpt>
      <trkpt lat="30.158173" lon="118.84176"><ele>1145</ele></trkpt>
      <trkpt lat="30.15821" lon="118.841705"><ele>1145</ele></trkpt>
      <trkpt lat="30.158035" lon="118.841545"><ele>1136</ele></trkpt>
      <trkpt lat="30.15808" lon="118.841515"><ele>1130</ele></trkpt>
      <trkpt lat="30.157913" lon="118.84069"><ele>1096</ele></trkpt>
      <trkpt lat="30.157434" lon="118.839745"><ele>1046</ele></trkpt>
      <trkpt lat="30.157383" lon="118.83914"><ele>1028</ele></trkpt>
      <trkpt lat="30.157074" lon="118.83843"><ele>1009</ele></trkpt>
      <trkpt lat="30.156933" lon="118.838425"><ele>998</ele></trkpt>
      <trkpt lat="30.15667" lon="118.838"><ele>991</ele></trkpt>
      <trkpt lat="30.156479" lon="118.838005"><ele>983</ele></trkpt>
      <trkpt lat="30.156399" lon="118.83811"><ele>975</ele></trkpt>
      <trkpt lat="30.155851" lon="118.83752"><ele>959</ele></trkpt>
      <trkpt lat="30.15563" lon="118.83711"><ele>950</ele></trkpt>
      <trkpt lat="30.155605" lon="118.83685"><ele>943</ele></trkpt>
      <trkpt lat="30.155272" lon="118.83657"><ele>936</ele></trkpt>
      <trkpt lat="30.155012" lon="118.83647"><ele>934</ele></trkpt>
      <trkpt lat="30.154886" lon="118.83606"><ele>932</ele></trkpt>
      <trkpt lat="30.154995" lon="118.8355"><ele>918</ele></trkpt>
      <trkpt lat="30.155052" lon="118.8355"><ele>916</ele></trkpt>
      <trkpt lat="30.155014" lon="118.83513"><ele>910</ele></trkpt>
      <trkpt lat="30.155079" lon="118.834785"><ele>897</ele></trkpt>
      <trkpt lat="30.15519" lon="118.834694"><ele>891</ele></trkpt>
      <trkpt lat="30.155561" lon="118.833916"><ele>874</ele></trkpt>
      <trkpt lat="30.155527" lon="118.83358"><ele>862</ele></trkpt>
      <trkpt lat="30.15562" lon="118.833206"><ele>853</ele></trkpt>
      <trkpt lat="30.15551" lon="118.83218"><ele>849</ele></trkpt>
      <trkpt lat="30.155682" lon="118.83172"><ele>846</ele></trkpt>
      <trkpt lat="30.155525" lon="118.83149"><ele>842</ele></trkpt>
      <trkpt lat="30.155561" lon="118.83128"><ele>839</ele></trkpt>
      <trkpt lat="30.15548" lon="118.83106"><ele>836</ele></trkpt>
      <trkpt lat="30.155067" lon="118.83095"><ele>826</ele></trkpt>
      <trkpt lat="30.15502" lon="118.830574"><ele>819</ele></trkpt>
      <trkpt lat="30.154945" lon="118.830475"><ele>819</ele></trkpt>
      <trkpt lat="30.154915" lon="118.83012"><ele>813</ele></trkpt>
      <trkpt lat="30.15497" lon="118.82997"><ele>813</ele></trkpt>
      <trkpt lat="30.154871" lon="118.8298"><ele>811</ele></trkpt>
      <trkpt lat="30.154848" lon="118.829475"><ele>805</ele></trkpt>
      <trkpt lat="30.154747" lon="118.82942"><ele>801</ele></trkpt>
      <trkpt lat="30.154785" lon="118.82929"><ele>796</ele></trkpt>
      <trkpt lat="30.154625" lon="118.82915"><ele>793</ele></trkpt>
      <trkpt lat="30.154428" lon="118.82861"><ele>786</ele></trkpt>
      <trkpt lat="30.154266" lon="118.828384"><ele>777</ele></trkpt>
      <trkpt lat="30.154316" lon="118.82823"><ele>776</ele></trkpt>
      <trkpt lat="30.154016" lon="118.827644"><ele>767</ele></trkpt>
      <trkpt lat="30.153284" lon="118.82662"><ele>758</ele></trkpt>
      <trkpt lat="30.153189" lon="118.82603"><ele>756</ele></trkpt>
      <trkpt lat="30.153303" lon="118.825745"><ele>752</ele></trkpt>
      <trkpt lat="30.153461" lon="118.82558"><ele>750</ele></trkpt>
      <trkpt lat="30.153717" lon="118.8248"><ele>747</ele></trkpt>
      <trkpt lat="30.153868" lon="118.8246"><ele>747</ele></trkpt>
      <trkpt lat="30.153494" lon="118.82403"><ele>742</ele></trkpt>
      <trkpt lat="30.153383" lon="118.82366"><ele>741</ele></trkpt>
      <trkpt lat="30.153427" lon="118.82334"><ele>741</ele></trkpt>
      <trkpt lat="30.153563" lon="118.8231"><ele>738</ele></trkpt>
      <trkpt lat="30.153572" lon="118.822845"><ele>737</ele></trkpt>
      <trkpt lat="30.153374" lon="118.82256"><ele>734</ele></trkpt>
      <trkpt lat="30.15315" lon="118.82166"><ele>731</ele></trkpt>
      <trkpt lat="30.153193" lon="118.821335"><ele>729</ele></trkpt>
      <trkpt lat="30.15293" lon="118.820755"><ele>727</ele></trkpt>
      <trkpt lat="30.152847" lon="118.82016"><ele>721</ele></trkpt>
      <trkpt lat="30.152597" lon="118.82014"><ele>720</ele></trkpt>
      <trkpt lat="30.15248" lon="118.8199"><ele>720</ele></trkpt>
      <trkpt lat="30.152227" lon="118.819664"><ele>718</ele></trkpt>
      <trkpt lat="30.152193" lon="118.81948"><ele>717</ele></trkpt>
      <trkpt lat="30.15232" lon="118.81928"><ele>714</ele></trkpt>
      <trkpt lat="30.15195" lon="118.819275"><ele>714</ele></trkpt>
      <trkpt lat="30.151583" lon="118.818825"><ele>712</ele></trkpt>
      <trkpt lat="30.1513" lon="118.81868"><ele>711</ele></trkpt>
      <trkpt lat="30.151201" lon="118.818825"><ele>711</ele></trkpt>
      <trkpt lat="30.151215" lon="118.81901"><ele>710</ele></trkpt>
      <trkpt lat="30.151031" lon="118.819496"><ele>708</ele></trkpt>
      <trkpt lat="30.150642" lon="118.81972"><ele>706</ele></trkpt>
      <trkpt lat="30.150183" lon="118.81964"><ele>705</ele></trkpt>
      <trkpt lat="30.149723" lon="118.81916"><ele>704</ele></trkpt>
      <trkpt lat="30.149792" lon="118.81849"><ele>702</ele></trkpt>
      <trkpt lat="30.14957" lon="118.81796"><ele>700</ele></trkpt>
      <trkpt lat="30.149343" lon="118.8177"><ele>699</ele></trkpt>
      <trkpt lat="30.148882" lon="118.81678"><ele>696</ele></trkpt>
      <trkpt lat="30.148846" lon="118.816505"><ele>696</ele></trkpt>
      <trkpt lat="30.14878" lon="118.816475"><ele>695</ele></trkpt>
      <trkpt lat="30.148767" lon="118.81634"><ele>695</ele></trkpt>
      <trkpt lat="30.14849" lon="118.81591"><ele>695</ele></trkpt>
      <trkpt lat="30.14814" lon="118.81581"><ele>695</ele></trkpt>
      <trkpt lat="30.147814" lon="118.81536"><ele>693</ele></trkpt>
      <trkpt lat="30.147676" lon="118.815285"><ele>692</ele></trkpt>
      <trkpt lat="30.14751" lon="118.81481"><ele>688</ele></trkpt>
      <trkpt lat="30.147272" lon="118.814445"><ele>686</ele></trkpt>
      <trkpt lat="30.147299" lon="118.814224"><ele>685</ele></trkpt>
      <trkpt lat="30.147232" lon="118.814186"><ele>684</ele></trkpt>
      <trkpt lat="30.147057" lon="118.8135"><ele>682</ele></trkpt>
      <trkpt lat="30.146893" lon="118.813194"><ele>684</ele></trkpt>
      <trkpt lat="30.146006" lon="118.812416"><ele>672</ele></trkpt>
      <trkpt lat="30.145828" lon="118.811966"><ele>670</ele></trkpt>
      <trkpt lat="30.145409" lon="118.81157"><ele>667</ele></trkpt>
      <trkpt lat="30.144983" lon="118.81166"><ele>665</ele></trkpt>
      <trkpt lat="30.144287" lon="118.81125"><ele>662</ele></trkpt>
      <trkpt lat="30.143908" lon="118.81119"><ele>660</ele></trkpt>
      <trkpt lat="30.14369" lon="118.81095"><ele>659</ele></trkpt>
      <trkpt lat="30.143553" lon="118.81065"><ele>658</ele></trkpt>
      <trkpt lat="30.14341" lon="118.8107"><ele>654</ele></trkpt>
      <trkpt lat="30.14312" lon="118.81047"><ele>656</ele></trkpt>
      <trkpt lat="30.142916" lon="118.809685"><ele>660</ele></trkpt>
      <trkpt lat="30.142895" lon="118.80929"><ele>660</ele></trkpt>
      <trkpt lat="30.14256" lon="118.80883"><ele>662</ele></trkpt>
      <trkpt lat="30.142366" lon="118.80874"><ele>662</ele></trkpt>
      <trkpt lat="30.142134" lon="118.808495"><ele>665</ele></trkpt>
      <trkpt lat="30.141804" lon="118.80849"><ele>668</ele></trkpt>
      <trkpt lat="30.141785" lon="118.80807"><ele>671</ele></trkpt>
      <trkpt lat="30.14156" lon="118.80785"><ele>671</ele></trkpt>
      <trkpt lat="30.141563" lon="118.80762"><ele>674</ele></trkpt>
      <trkpt lat="30.140928" lon="118.80715"><ele>682</ele></trkpt>
      <trkpt lat="30.14085" lon="118.80691"><ele>685</ele></trkpt>
      <trkpt lat="30.140547" lon="118.806526"><ele>690</ele></trkpt>
      <trkpt lat="30.14053" lon="118.806046"><ele>695</ele></trkpt>
      <trkpt lat="30.14044" lon="118.80589"><ele>697</ele></trkpt>
      <trkpt lat="30.139137" lon="118.805145"><ele>707</ele></trkpt>
      <trkpt lat="30.1379" lon="118.80499"><ele>718</ele></trkpt>
      <trkpt lat="30.137732" lon="118.80507"><ele>720</ele></trkpt>
      <trkpt lat="30.137123" lon="118.8059"><ele>728</ele></trkpt>
      <trkpt lat="30.137041" lon="118.80614"><ele>729</ele></trkpt>
      <trkpt lat="30.136513" lon="118.80646"><ele>734</ele></trkpt>
      <trkpt lat="30.136309" lon="118.80681"><ele>739</ele></trkpt>
      <trkpt lat="30.136114" lon="118.80799"><ele>750</ele></trkpt>
      <trkpt lat="30.136152" lon="118.80831"><ele>754</ele></trkpt>
      <trkpt lat="30.13599" lon="118.808426"><ele>754</ele></trkpt>
      <trkpt lat="30.13584" lon="118.80808"><ele>757</ele></trkpt>
      <trkpt lat="30.135769" lon="118.80768"><ele>761</ele></trkpt>
      <trkpt lat="30.135895" lon="118.80726"><ele>763</ele></trkpt>
      <trkpt lat="30.135818" lon="118.80711"><ele>765</ele></trkpt>
      <trkpt lat="30.135206" lon="118.80688"><ele>768</ele></trkpt>
      <trkpt lat="30.135212" lon="118.80671"><ele>771</ele></trkpt>
      <trkpt lat="30.135246" lon="118.80674"><ele>768</ele></trkpt>
      <trkpt lat="30.135477" lon="118.80621"><ele>770</ele></trkpt>
      <trkpt lat="30.135185" lon="118.80681"><ele>799</ele></trkpt>
      <trkpt lat="30.13528" lon="118.806725"><ele>806</ele></trkpt>
      <trkpt lat="30.135204" lon="118.80683"><ele>791</ele></trkpt>
      <trkpt lat="30.135324" lon="118.806984"><ele>789</ele></trkpt>
      <trkpt lat="30.135767" lon="118.80716"><ele>788</ele></trkpt>
      <trkpt lat="30.13581" lon="118.80728"><ele>787</ele></trkpt>
      <trkpt lat="30.135756" lon="118.80789"><ele>781</ele></trkpt>
      <trkpt lat="30.135876" lon="118.808304"><ele>778</ele></trkpt>
      <trkpt lat="30.13599" lon="118.80844"><ele>777</ele></trkpt>
      <trkpt lat="30.136135" lon="118.80843"><ele>778</ele></trkpt>
      <trkpt lat="30.136011" lon="118.80887"><ele>785</ele></trkpt>
      <trkpt lat="30.13608" lon="118.80912"><ele>789</ele></trkpt>
      <trkpt lat="30.135914" lon="118.809525"><ele>801</ele></trkpt>
      <trkpt lat="30.13595" lon="118.810005"><ele>812</ele></trkpt>
      <trkpt lat="30.135756" lon="118.810585"><ele>825</ele></trkpt>
      <trkpt lat="30.135702" lon="118.81109"><ele>836</ele></trkpt>
      <trkpt lat="30.135725" lon="118.81104"><ele>839</ele></trkpt>
      <trkpt lat="30.135756" lon="118.81111"><ele>843</ele></trkpt>
      <trkpt lat="30.135567" lon="118.8116"><ele>852</ele></trkpt>
      <trkpt lat="30.135393" lon="118.81177"><ele>855</ele></trkpt>
      <trkpt lat="30.135504" lon="118.81223"><ele>867</ele></trkpt>
      <trkpt lat="30.135326" lon="118.81253"><ele>879</ele></trkpt>
      <trkpt lat="30.135256" lon="118.813065"><ele>894</ele></trkpt>
      <trkpt lat="30.135319" lon="118.81424"><ele>926</ele></trkpt>
      <trkpt lat="30.135193" lon="118.81463"><ele>934</ele></trkpt>
      <trkpt lat="30.13535" lon="118.81517"><ele>942</ele></trkpt>
      <trkpt lat="30.135515" lon="118.815254"><ele>945</ele></trkpt>
      <trkpt lat="30.135633" lon="118.81555"><ele>948</ele></trkpt>
      <trkpt lat="30.136013" lon="118.815636"><ele>953</ele></trkpt>
      <trkpt lat="30.136364" lon="118.81607"><ele>960</ele></trkpt>
      <trkpt lat="30.136553" lon="118.81691"><ele>963</ele></trkpt>
      <trkpt lat="30.136972" lon="118.81767"><ele>970</ele></trkpt>
      <trkpt lat="30.137123" lon="118.81854"><ele>974</ele></trkpt>
      <trkpt lat="30.137005" lon="118.81921"><ele>980</ele></trkpt>
      <trkpt lat="30.136906" lon="118.81937"><ele>984</ele></trkpt>
      <trkpt lat="30.13694" lon="118.81947"><ele>985</ele></trkpt>
      <trkpt lat="30.136822" lon="118.819695"><ele>986</ele></trkpt>
      <trkpt lat="30.136818" lon="118.81988"><ele>989</ele></trkpt>
      <trkpt lat="30.136576" lon="118.82016"><ele>994</ele></trkpt>
      <trkpt lat="30.136456" lon="118.82048"><ele>998</ele></trkpt>
      <trkpt lat="30.136448" lon="118.82159"><ele>1006</ele></trkpt>
      <trkpt lat="30.136318" lon="118.82178"><ele>1007</ele></trkpt>
      <trkpt lat="30.136194" lon="118.82222"><ele>1009</ele></trkpt>
      <trkpt lat="30.136332" lon="118.822845"><ele>1012</ele></trkpt>
      <trkpt lat="30.136557" lon="118.823166"><ele>1014</ele></trkpt>
      <trkpt lat="30.136927" lon="118.8241"><ele>1018</ele></trkpt>
      <trkpt lat="30.137186" lon="118.82453"><ele>1020</ele></trkpt>
      <trkpt lat="30.13705" lon="118.82488"><ele>1022</ele></trkpt>
      <trkpt lat="30.136911" lon="118.825905"><ele>1036</ele></trkpt>
      <trkpt lat="30.13676" lon="118.82622"><ele>1039</ele></trkpt>
      <trkpt lat="30.136702" lon="118.82675"><ele>1044</ele></trkpt>
      <trkpt lat="30.136814" lon="118.82698"><ele>1048</ele></trkpt>
      <trkpt lat="30.136719" lon="118.82709"><ele>1047</ele></trkpt>
      <trkpt lat="30.136366" lon="118.82699"><ele>1058</ele></trkpt>
      <trkpt lat="30.136305" lon="118.827065"><ele>1061</ele></trkpt>
      <trkpt lat="30.13626" lon="118.827"><ele>1064</ele></trkpt>
      <trkpt lat="30.13613" lon="118.82705"><ele>1068</ele></trkpt>
      <trkpt lat="30.136116" lon="118.827156"><ele>1073</ele></trkpt>
      <trkpt lat="30.135805" lon="118.82733"><ele>1084</ele></trkpt>
      <trkpt lat="30.13566" lon="118.827644"><ele>1093</ele></trkpt>
      <trkpt lat="30.135492" lon="118.82778"><ele>1094</ele></trkpt>
      <trkpt lat="30.135487" lon="118.82787"><ele>1097</ele></trkpt>
      <trkpt lat="30.134863" lon="118.82769"><ele>1084</ele></trkpt>
      <trkpt lat="30.134726" lon="118.82789"><ele>1083</ele></trkpt>
      <trkpt lat="30.13427" lon="118.828224"><ele>1085</ele></trkpt>
      <trkpt lat="30.133913" lon="118.82818"><ele>1086</ele></trkpt>
      <trkpt lat="30.133434" lon="118.82828"><ele>1086</ele></trkpt>
      <trkpt lat="30.132242" lon="118.82928"><ele>1094</ele></trkpt>
      <trkpt lat="30.13183" lon="118.830124"><ele>1105</ele></trkpt>
      <trkpt lat="30.131868" lon="118.830246"><ele>1110</ele></trkpt>
      <trkpt lat="30.131683" lon="118.83077"><ele>1124</ele></trkpt>
      <trkpt lat="30.131325" lon="118.83106"><ele>1131</ele></trkpt>
      <trkpt lat="30.13088" lon="118.83166"><ele>1147</ele></trkpt>
      <trkpt lat="30.130669" lon="118.83355"><ele>1218</ele></trkpt>
      <trkpt lat="30.130499" lon="118.83375"><ele>1224</ele></trkpt>
      <trkpt lat="30.130201" lon="118.83381"><ele>1231</ele></trkpt>
      <trkpt lat="30.12981" lon="118.83374"><ele>1235</ele></trkpt>
      <trkpt lat="30.129103" lon="118.834"><ele>1241</ele></trkpt>
      <trkpt lat="30.128326" lon="118.833755"><ele>1239</ele></trkpt>
      <trkpt lat="30.127758" lon="118.83385"><ele>1248</ele></trkpt>
      <trkpt lat="30.127613" lon="118.833984"><ele>1250</ele></trkpt>
      <trkpt lat="30.127373" lon="118.83398"><ele>1251</ele></trkpt>
      <trkpt lat="30.127209" lon="118.834175"><ele>1243</ele></trkpt>
      <trkpt lat="30.126642" lon="118.83433"><ele>1253</ele></trkpt>
      <trkpt lat="30.126694" lon="118.83455"><ele>1270</ele></trkpt>
      <trkpt lat="30.126574" lon="118.83461"><ele>1278</ele></trkpt>
      <trkpt lat="30.12648" lon="118.83538"><ele>1304</ele></trkpt>
      <trkpt lat="30.12656" lon="118.83618"><ele>1310</ele></trkpt>
      <trkpt lat="30.12625" lon="118.83652"><ele>1301</ele></trkpt>
      <trkpt lat="30.126184" lon="118.83702"><ele>1301</ele></trkpt>
      <trkpt lat="30.126055" lon="118.83739"><ele>1301</ele></trkpt>
      <trkpt lat="30.125414" lon="118.83816"><ele>1339</ele></trkpt>
      <trkpt lat="30.125572" lon="118.83856"><ele>1358</ele></trkpt>
      <trkpt lat="30.125648" lon="118.83908"><ele>1362</ele></trkpt>
      <trkpt lat="30.12594" lon="118.83963"><ele>1374</ele></trkpt>
      <trkpt lat="30.125996" lon="118.83995"><ele>1375</ele></trkpt>
      <trkpt lat="30.125904" lon="118.84049"><ele>1388</ele></trkpt>
      <trkpt lat="30.125854" lon="118.84048"><ele>1391</ele></trkpt>
      <trkpt lat="30.125753" lon="118.84072"><ele>1405</ele></trkpt>
      <trkpt lat="30.125132" lon="118.8408"><ele>1397</ele></trkpt>
      <trkpt lat="30.124994" lon="118.84096"><ele>1397</ele></trkpt>
      <trkpt lat="30.124891" lon="118.840935"><ele>1395</ele></trkpt>
      <trkpt lat="30.124683" lon="118.8411"><ele>1396</ele></trkpt>
      <trkpt lat="30.12421" lon="118.84114"><ele>1401</ele></trkpt>
      <trkpt lat="30.123598" lon="118.841576"><ele>1409</ele></trkpt>
      <trkpt lat="30.123499" lon="118.84179"><ele>1413</ele></trkpt>
      <trkpt lat="30.12317" lon="118.84202"><ele>1421</ele></trkpt>
      <trkpt lat="30.122864" lon="118.84208"><ele>1425</ele></trkpt>
      <trkpt lat="30.122362" lon="118.84236"><ele>1439</ele></trkpt>
      <trkpt lat="30.122105" lon="118.842255"><ele>1445</ele></trkpt>
      <trkpt lat="30.12165" lon="118.8424"><ele>1453</ele></trkpt>
      <trkpt lat="30.121202" lon="118.84279"><ele>1453</ele></trkpt>
      <trkpt lat="30.121029" lon="118.843094"><ele>1453</ele></trkpt>
      <trkpt lat="30.120834" lon="118.84307"><ele>1456</ele></trkpt>
      <trkpt lat="30.119936" lon="118.843346"><ele>1457</ele></trkpt>
      <trkpt lat="30.11931" lon="118.84368"><ele>1458</ele></trkpt>
      <trkpt lat="30.118723" lon="118.8438"><ele>1461</ele></trkpt>
      <trkpt lat="30.11794" lon="118.84414"><ele>1463</ele></trkpt>
      <trkpt lat="30.117624" lon="118.84458"><ele>1469</ele></trkpt>
      <trkpt lat="30.117664" lon="118.84453"><ele>1468</ele></trkpt>
      <trkpt lat="30.117651" lon="118.844604"><ele>1471</ele></trkpt>
      <trkpt lat="30.117397" lon="118.84472"><ele>1474</ele></trkpt>
      <trkpt lat="30.117207" lon="118.84525"><ele>1495</ele></trkpt>
      <trkpt lat="30.117037" lon="118.845505"><ele>1503</ele></trkpt>
      <trkpt lat="30.116587" lon="118.845894"><ele>1517</ele></trkpt>
      <trkpt lat="30.116093" lon="118.84662"><ele>1523</ele></trkpt>
      <trkpt lat="30.11593" lon="118.84767"><ele>1544</ele></trkpt>
      <trkpt lat="30.115677" lon="118.84818"><ele>1560</ele></trkpt>
      <trkpt lat="30.115509" lon="118.84832"><ele>1569</ele></trkpt>
      <trkpt lat="30.115385" lon="118.84867"><ele>1579</ele></trkpt>
      <trkpt lat="30.115568" lon="118.850395"><ele>1595</ele></trkpt>
      <trkpt lat="30.114588" lon="118.850945"><ele>1572</ele></trkpt>
      <trkpt lat="30.114246" lon="118.85128"><ele>1559</ele></trkpt>
      <trkpt lat="30.113598" lon="118.85287"><ele>1554</ele></trkpt>
      <trkpt lat="30.113396" lon="118.85302"><ele>1567</ele></trkpt>
      <trkpt lat="30.113285" lon="118.853455"><ele>1584</ele></trkpt>
      <trkpt lat="30.112993" lon="118.85346"><ele>1598</ele></trkpt>
      <trkpt lat="30.112438" lon="118.85331"><ele>1600</ele></trkpt>
      <trkpt lat="30.111797" lon="118.853455"><ele>1577</ele></trkpt>
      <trkpt lat="30.111242" lon="118.853455"><ele>1565</ele></trkpt>
      <trkpt lat="30.110744" lon="118.85364"><ele>1554</ele></trkpt>
      <trkpt lat="30.109715" lon="118.8542"><ele>1541</ele></trkpt>
      <trkpt lat="30.109272" lon="118.85502"><ele>1546</ele></trkpt>
      <trkpt lat="30.10851" lon="118.855385"><ele>1537</ele></trkpt>
      <trkpt lat="30.108295" lon="118.85589"><ele>1523</ele></trkpt>
      <trkpt lat="30.10803" lon="118.8561"><ele>1537</ele></trkpt>
      <trkpt lat="30.107756" lon="118.856544"><ele>1552</ele></trkpt>
      <trkpt lat="30.107689" lon="118.85678"><ele>1552</ele></trkpt>
      <trkpt lat="30.107124" lon="118.8573"><ele>1555</ele></trkpt>
      <trkpt lat="30.107096" lon="118.85747"><ele>1561</ele></trkpt>
      <trkpt lat="30.106758" lon="118.85793"><ele>1573</ele></trkpt>
      <trkpt lat="30.106752" lon="118.85807"><ele>1571</ele></trkpt>
      <trkpt lat="30.10635" lon="118.85869"><ele>1581</ele></trkpt>
      <trkpt lat="30.105654" lon="118.859"><ele>1602</ele></trkpt>
      <trkpt lat="30.105177" lon="118.85961"><ele>1637</ele></trkpt>
      <trkpt lat="30.10491" lon="118.85972"><ele>1651</ele></trkpt>
      <trkpt lat="30.104328" lon="118.860275"><ele>1690</ele></trkpt>
      <trkpt lat="30.103592" lon="118.860435"><ele>1725</ele></trkpt>
      <trkpt lat="30.1031" lon="118.86075"><ele>1744</ele></trkpt>
      <trkpt lat="30.102913" lon="118.86076"><ele>1748</ele></trkpt>
      <trkpt lat="30.102844" lon="118.86084"><ele>1750</ele></trkpt>
      <trkpt lat="30.102587" lon="118.860855"><ele>1757</ele></trkpt>
      <trkpt lat="30.102493" lon="118.860954"><ele>1758</ele></trkpt>
      <trkpt lat="30.102064" lon="118.86091"><ele>1768</ele></trkpt>
      <trkpt lat="30.10228" lon="118.86098"><ele>1763</ele></trkpt>
      <trkpt lat="30.10189" lon="118.86149"><ele>1756</ele></trkpt>
      <trkpt lat="30.101294" lon="118.86183"><ele>1761</ele></trkpt>
      <trkpt lat="30.10086" lon="118.86171"><ele>1777</ele></trkpt>
      <trkpt lat="30.101513" lon="118.8619"><ele>1763</ele></trkpt>
      <trkpt lat="30.101995" lon="118.86242"><ele>1756</ele></trkpt>
      <trkpt lat="30.102053" lon="118.862686"><ele>1753</ele></trkpt>
      <trkpt lat="30.102367" lon="118.863144"><ele>1747</ele></trkpt>
      <trkpt lat="30.102913" lon="118.86352"><ele>1741</ele></trkpt>
      <trkpt lat="30.103514" lon="118.86376"><ele>1738</ele></trkpt>
      <trkpt lat="30.103855" lon="118.86344"><ele>1726</ele></trkpt>
      <trkpt lat="30.104298" lon="118.86346"><ele>1718</ele></trkpt>
      <trkpt lat="30.104437" lon="118.863556"><ele>1718</ele></trkpt>
      <trkpt lat="30.105888" lon="118.8639"><ele>1703</ele></trkpt>
      <trkpt lat="30.106085" lon="118.86386"><ele>1703</ele></trkpt>
      <trkpt lat="30.106464" lon="118.86395"><ele>1701</ele></trkpt>
      <trkpt lat="30.106524" lon="118.86388"><ele>1700</ele></trkpt>
      <trkpt lat="30.107115" lon="118.86397"><ele>1691</ele></trkpt>
      <trkpt lat="30.107374" lon="118.864136"><ele>1688</ele></trkpt>
      <trkpt lat="30.107674" lon="118.8642"><ele>1687</ele></trkpt>
      <trkpt lat="30.10858" lon="118.864944"><ele>1654</ele></trkpt>
      <trkpt lat="30.109806" lon="118.86557"><ele>1631</ele></trkpt>
      <trkpt lat="30.110512" lon="118.86577"><ele>1631</ele></trkpt>
      <trkpt lat="30.11094" lon="118.865776"><ele>1631</ele></trkpt>
      <trkpt lat="30.111546" lon="118.866"><ele>1634</ele></trkpt>
      <trkpt lat="30.111855" lon="118.86626"><ele>1634</ele></trkpt>
      <trkpt lat="30.11223" lon="118.86676"><ele>1631</ele></trkpt>
      <trkpt lat="30.113455" lon="118.8676"><ele>1634</ele></trkpt>
      <trkpt lat="30.11371" lon="118.86765"><ele>1633</ele></trkpt>
      <trkpt lat="30.114025" lon="118.86795"><ele>1632</ele></trkpt>
      <trkpt lat="30.114239" lon="118.86835"><ele>1633</ele></trkpt>
      <trkpt lat="30.11467" lon="118.868835"><ele>1630</ele></trkpt>
      <trkpt lat="30.114721" lon="118.869156"><ele>1626</ele></trkpt>
      <trkpt lat="30.115208" lon="118.86958"><ele>1613</ele></trkpt>
      <trkpt lat="30.115793" lon="118.86981"><ele>1604</ele></trkpt>
      <trkpt lat="30.116013" lon="118.869736"><ele>1606</ele></trkpt>
      <trkpt lat="30.11598" lon="118.8697"><ele>1604</ele></trkpt>
      <trkpt lat="30.116146" lon="118.86965"><ele>1602</ele></trkpt>
      <trkpt lat="30.116394" lon="118.87044"><ele>1606</ele></trkpt>
      <trkpt lat="30.117123" lon="118.87172"><ele>1602</ele></trkpt>
      <trkpt lat="30.11719" lon="118.872314"><ele>1586</ele></trkpt>
      <trkpt lat="30.117252" lon="118.8724"><ele>1583</ele></trkpt>
      <trkpt lat="30.11715" lon="118.87266"><ele>1575</ele></trkpt>
      <trkpt lat="30.117258" lon="118.87274"><ele>1569</ele></trkpt>
      <trkpt lat="30.117329" lon="118.87311"><ele>1559</ele></trkpt>
      <trkpt lat="30.117277" lon="118.87324"><ele>1557</ele></trkpt>
      <trkpt lat="30.11732" lon="118.873375"><ele>1550</ele></trkpt>
      <trkpt lat="30.11708" lon="118.87381"><ele>1528</ele></trkpt>
      <trkpt lat="30.11734" lon="118.874054"><ele>1509</ele></trkpt>
      <trkpt lat="30.117266" lon="118.874405"><ele>1498</ele></trkpt>
      <trkpt lat="30.11742" lon="118.874435"><ele>1491</ele></trkpt>
      <trkpt lat="30.117338" lon="118.87452"><ele>1488</ele></trkpt>
      <trkpt lat="30.11756" lon="118.874916"><ele>1472</ele></trkpt>
      <trkpt lat="30.117598" lon="118.87522"><ele>1460</ele></trkpt>
      <trkpt lat="30.117313" lon="118.875175"><ele>1454</ele></trkpt>
      <trkpt lat="30.117678" lon="118.875404"><ele>1442</ele></trkpt>
      <trkpt lat="30.117514" lon="118.87549"><ele>1435</ele></trkpt>
      <trkpt lat="30.117535" lon="118.876"><ele>1416</ele></trkpt>
      <trkpt lat="30.117771" lon="118.876656"><ele>1390</ele></trkpt>
      <trkpt lat="30.117949" lon="118.876785"><ele>1383</ele></trkpt>
      <trkpt lat="30.117975" lon="118.877625"><ele>1372</ele></trkpt>
      <trkpt lat="30.117836" lon="118.8778"><ele>1373</ele></trkpt>
      <trkpt lat="30.117916" lon="118.87786"><ele>1369</ele></trkpt>
      <trkpt lat="30.11782" lon="118.87782"><ele>1369</ele></trkpt>
      <trkpt lat="30.117985" lon="118.87758"><ele>1367</ele></trkpt>
      <trkpt lat="30.117954" lon="118.87741"><ele>1365</ele></trkpt>
      <trkpt lat="30.118525" lon="118.877365"><ele>1358</ele></trkpt>
      <trkpt lat="30.118683" lon="118.87726"><ele>1355</ele></trkpt>
      <trkpt lat="30.119349" lon="118.87711"><ele>1346</ele></trkpt>
      <trkpt lat="30.119581" lon="118.877174"><ele>1339</ele></trkpt>
      <trkpt lat="30.119947" lon="118.87702"><ele>1333</ele></trkpt>
      <trkpt lat="30.120228" lon="118.87701"><ele>1327</ele></trkpt>
      <trkpt lat="30.12055" lon="118.876785"><ele>1323</ele></trkpt>
      <trkpt lat="30.120958" lon="118.87693"><ele>1310</ele></trkpt>
      <trkpt lat="30.121368" lon="118.87694"><ele>1301</ele></trkpt>
      <trkpt lat="30.121765" lon="118.87676"><ele>1296</ele></trkpt>
      <trkpt lat="30.122381" lon="118.8767"><ele>1284</ele></trkpt>
      <trkpt lat="30.122795" lon="118.87684"><ele>1268</ele></trkpt>
      <trkpt lat="30.12315" lon="118.87679"><ele>1262</ele></trkpt>
      <trkpt lat="30.123348" lon="118.87685"><ele>1258</ele></trkpt>
      <trkpt lat="30.123789" lon="118.87675"><ele>1248</ele></trkpt>
      <trkpt lat="30.124134" lon="118.876884"><ele>1235</ele></trkpt>
      <trkpt lat="30.124231" lon="118.87707"><ele>1227</ele></trkpt>
      <trkpt lat="30.12456" lon="118.877075"><ele>1212</ele></trkpt>
      <trkpt lat="30.124672" lon="118.87719"><ele>1209</ele></trkpt>
      <trkpt lat="30.125103" lon="118.87726"><ele>1200</ele></trkpt>
      <trkpt lat="30.1253" lon="118.87719"><ele>1195</ele></trkpt>
      <trkpt lat="30.125412" lon="118.877045"><ele>1192</ele></trkpt>
      <trkpt lat="30.125637" lon="118.87696"><ele>1185</ele></trkpt>
      <trkpt lat="30.125895" lon="118.87701"><ele>1183</ele></trkpt>
      <trkpt lat="30.12635" lon="118.876724"><ele>1165</ele></trkpt>
      <trkpt lat="30.126717" lon="118.87667"><ele>1162</ele></trkpt>
      <trkpt lat="30.127136" lon="118.87683"><ele>1157</ele></trkpt>
      <trkpt lat="30.127485" lon="118.876526"><ele>1149</ele></trkpt>
      <trkpt lat="30.128168" lon="118.87625"><ele>1145</ele></trkpt>
      <trkpt lat="30.128466" lon="118.87598"><ele>1140</ele></trkpt>
      <trkpt lat="30.128714" lon="118.87592"><ele>1141</ele></trkpt>
      <trkpt lat="30.128923" lon="118.875404"><ele>1138</ele></trkpt>
      <trkpt lat="30.129143" lon="118.875206"><ele>1132</ele></trkpt>
      <trkpt lat="30.129269" lon="118.87471"><ele>1134</ele></trkpt>
      <trkpt lat="30.129726" lon="118.874374"><ele>1134</ele></trkpt>
      <trkpt lat="30.129784" lon="118.87414"><ele>1135</ele></trkpt>
      <trkpt lat="30.130274" lon="118.87365"><ele>1130</ele></trkpt>
      <trkpt lat="30.130434" lon="118.873726"><ele>1123</ele></trkpt>
      <trkpt lat="30.131353" lon="118.87381"><ele>1120</ele></trkpt>
      <trkpt lat="30.131424" lon="118.8737"><ele>1122</ele></trkpt>
      <trkpt lat="30.131374" lon="118.87292"><ele>1126</ele></trkpt>
      <trkpt lat="30.131565" lon="118.872505"><ele>1127</ele></trkpt>
      <trkpt lat="30.132322" lon="118.87219"><ele>1128</ele></trkpt>
      <trkpt lat="30.132584" lon="118.872185"><ele>1129</ele></trkpt>
      <trkpt lat="30.13268" lon="118.87206"><ele>1131</ele></trkpt>
      <trkpt lat="30.132746" lon="118.87164"><ele>1134</ele></trkpt>
      <trkpt lat="30.133018" lon="118.87164"><ele>1132</ele></trkpt>
      <trkpt lat="30.133348" lon="118.87145"><ele>1131</ele></trkpt>
      <trkpt lat="30.133385" lon="118.87151"><ele>1129</ele></trkpt>
      <trkpt lat="30.134237" lon="118.87118"><ele>1121</ele></trkpt>
      <trkpt lat="30.134949" lon="118.87076"><ele>1127</ele></trkpt>
      <trkpt lat="30.135242" lon="118.87094"><ele>1122</ele></trkpt>
      <trkpt lat="30.13559" lon="118.87094"><ele>1115</ele></trkpt>
      <trkpt lat="30.13559" lon="118.871086"><ele>1111</ele></trkpt>
      <trkpt lat="30.135809" lon="118.871315"><ele>1107</ele></trkpt>
      <trkpt lat="30.135872" lon="118.87174"><ele>1094</ele></trkpt>
      <trkpt lat="30.13602" lon="118.8718"><ele>1091</ele></trkpt>
      <trkpt lat="30.136332" lon="118.87171"><ele>1090</ele></trkpt>
      <trkpt lat="30.13656" lon="118.87189"><ele>1088</ele></trkpt>
      <trkpt lat="30.136812" lon="118.87184"><ele>1089</ele></trkpt>
      <trkpt lat="30.137178" lon="118.87199"><ele>1088</ele></trkpt>
      <trkpt lat="30.137278" lon="118.87193"><ele>1088</ele></trkpt>
      <trkpt lat="30.137491" lon="118.87214"><ele>1083</ele></trkpt>
      <trkpt lat="30.138376" lon="118.87192"><ele>1077</ele></trkpt>
      <trkpt lat="30.138683" lon="118.87169"><ele>1078</ele></trkpt>
      <trkpt lat="30.139967" lon="118.87033"><ele>1031</ele></trkpt>
      <trkpt lat="30.140285" lon="118.87037"><ele>1018</ele></trkpt>
      <trkpt lat="30.140474" lon="118.870186"><ele>1009</ele></trkpt>
      <trkpt lat="30.140509" lon="118.87046"><ele>1002</ele></trkpt>
      <trkpt lat="30.140312" lon="118.87087"><ele>989</ele></trkpt>
      <trkpt lat="30.140274" lon="118.87125"><ele>978</ele></trkpt>
      <trkpt lat="30.140434" lon="118.871956"><ele>962</ele></trkpt>
      <trkpt lat="30.140696" lon="118.87182"><ele>951</ele></trkpt>
      <trkpt lat="30.14088" lon="118.87151"><ele>945</ele></trkpt>
      <trkpt lat="30.141401" lon="118.87116"><ele>936</ele></trkpt>
      <trkpt lat="30.141535" lon="118.871346"><ele>928</ele></trkpt>
      <trkpt lat="30.142242" lon="118.871796"><ele>917</ele></trkpt>
      <trkpt lat="30.14284" lon="118.87143"><ele>898</ele></trkpt>
      <trkpt lat="30.143064" lon="118.87106"><ele>891</ele></trkpt>
      <trkpt lat="30.142937" lon="118.871025"><ele>885</ele></trkpt>
      <trkpt lat="30.143013" lon="118.87087"><ele>878</ele></trkpt>
      <trkpt lat="30.142956" lon="118.870804"><ele>872</ele></trkpt>
      <trkpt lat="30.143307" lon="118.87035"><ele>856</ele></trkpt>
      <trkpt lat="30.143385" lon="118.870445"><ele>853</ele></trkpt>
      <trkpt lat="30.14353" lon="118.87038"><ele>854</ele></trkpt>
      <trkpt lat="30.143723" lon="118.87044"><ele>846</ele></trkpt>
      <trkpt lat="30.14379" lon="118.87025"><ele>833</ele></trkpt>
      <trkpt lat="30.143713" lon="118.87021"><ele>830</ele></trkpt>
      <trkpt lat="30.144016" lon="118.87003"><ele>812</ele></trkpt>
      <trkpt lat="30.144192" lon="118.86982"><ele>807</ele></trkpt>
      <trkpt lat="30.144388" lon="118.869804"><ele>799</ele></trkpt>
      <trkpt lat="30.14439" lon="118.86987"><ele>799</ele></trkpt>
      <trkpt lat="30.144358" lon="118.869804"><ele>796</ele></trkpt>
      <trkpt lat="30.144548" lon="118.86948"><ele>792</ele></trkpt>
      <trkpt lat="30.144976" lon="118.869225"><ele>779</ele></trkpt>
      <trkpt lat="30.145227" lon="118.86882"><ele>768</ele></trkpt>
      <trkpt lat="30.14545" lon="118.867966"><ele>760</ele></trkpt>
      <trkpt lat="30.14573" lon="118.8677"><ele>750</ele></trkpt>
      <trkpt lat="30.146067" lon="118.866936"><ele>737</ele></trkpt>
      <trkpt lat="30.146406" lon="118.86671"><ele>726</ele></trkpt>
      <trkpt lat="30.146467" lon="118.866585"><ele>724</ele></trkpt>
      <trkpt lat="30.146906" lon="118.866356"><ele>712</ele></trkpt>
      <trkpt lat="30.14722" lon="118.86634"><ele>704</ele></trkpt>
      <trkpt lat="30.147352" lon="118.86619"><ele>702</ele></trkpt>
      <trkpt lat="30.147814" lon="118.86621"><ele>695</ele></trkpt>
      <trkpt lat="30.148022" lon="118.86613"><ele>691</ele></trkpt>
      <trkpt lat="30.148024" lon="118.86595"><ele>691</ele></trkpt>
      <trkpt lat="30.148129" lon="118.865746"><ele>690</ele></trkpt>
      <trkpt lat="30.148453" lon="118.86576"><ele>681</ele></trkpt>
      <trkpt lat="30.148458" lon="118.86563"><ele>681</ele></trkpt>
      <trkpt lat="30.148348" lon="118.86544"><ele>678</ele></trkpt>
      <trkpt lat="30.148424" lon="118.86529"><ele>675</ele></trkpt>
    </trkseg>
  </trk>
</gpx>
