{
  "type": "FeatureCollection",
  "features": [
    {
      "type": "Feature",
      "properties": {
        "name": "清凉峰参考轨迹",
        "type": "hiking",
        "source": "两步路用户轨迹",
        "segments": 1
      },
      "geometry": {
        "type": "LineString",
        "coordinates": [
          [
            118.86564,
            30.15575
          ],
          [
            118.86514,
            30.15596
          ],
          [
            118.86455,
            30.155975
          ],
          [
            118.864235,
            30.155746
          ],
          [
            118.86401,
            30.155397
          ],
          [
            118.86297,
            30.155106
          ],
          [
            118.86274,
            30.154873
          ],
          [
            118.86232,
            30.154621
          ],
          [
            118.861115,
            30.15445
          ],
          [
            118.86077,
            30.154327
          ],
          [
            118.85944,
            30.153282
          ],
          [
            118.85902,
            30.153185
          ],
          [
            118.85833,
            30.153334
          ],
          [
            118.85814,
            30.153301
          ],
          [
            118.85796,
            30.153057
          ],
          [
            118.85774,
            30.152988
          ],
          [
            118.85732,
            30.1526
          ],
          [
            118.857285,
            30.152433
          ],
          [
            118.857056,
            30.152493
          ],
          [
            118.8569,
            30.152407
          ],
          [
            118.856766,
            30.152056
          ],
          [
            118.85684,
            30.15191
          ],
          [
            118.85677,
            30.151812
          ],
          [
            118.856575,
            30.151798
          ],
          [
            118.85615,
            30.151493
          ],
          [
            118.85577,
            30.15141
          ],
          [
            118.85471,
            30.150854
          ],
          [
            118.85384,
            30.150791
          ],
          [
            118.85346,
            30.150625
          ],
          [
            118.85297,
            30.150518
          ],
          [
            118.85246,
            30.150291
          ],
          [
            118.85222,
            30.150036
          ],
          [
            118.85208,
            30.150019
          ],
          [
            118.85214,
            30.150091
          ],
          [
            118.852425,
            30.150131
          ],
          [
            118.852486,
            30.150211
          ],
          [
            118.85233,
            30.150202
          ],
          [
            118.85215,
            30.150297
          ],
          [
            118.8518,
            30.150274
          ],
          [
            118.851585,
            30.15015
          ],
          [
            118.85111,
            30.15007
          ],
          [
            118.85082,
            30.150242
          ],
          [
            118.850624,
            30.150536
          ],
          [
            118.85055,
            30.150938
          ],
          [
            118.85065,
            30.151262
          ],
          [
            118.85066,
            30.15176
          ],
          [
            118.85079,
            30.152012
          ],
          [
            118.85065,
            30.152584
          ],
          [
            118.85078,
            30.152811
          ],
          [
            118.85071,
            30.153416
          ],
          [
            118.850784,
            30.153498
          ],
          [
            118.85065,
            30.153784
          ],
          [
            118.850426,
            30.153936
          ],
          [
            118.85039,
            30.154156
          ],
          [
            118.85006,
            30.154589
          ],
          [
            118.849945,
            30.154936
          ],
          [
            118.85,
            30.155188
          ],
          [
            118.84975,
            30.155548
          ],
          [
            118.84921,
            30.155731
          ],
          [
            118.84899,
            30.156015
          ],
          [
            118.84855,
            30.156162
          ],
          [
            118.84764,
            30.157108
          ],
          [
            118.84727,
            30.15723
          ],
          [
            118.8472,
            30.157337
          ],
          [
            118.8471,
            30.157286
          ],
          [
            118.84688,
            30.157448
          ],
          [
            118.84655,
            30.157434
          ],
          [
            118.84655,
            30.157282
          ],
          [
            118.8461,
            30.15729
          ],
          [
            118.8457,
            30.157429
          ],
          [
            118.8455,
            30.157398
          ],
          [
            118.84512,
            30.157194
          ],
          [
            118.84429,
            30.157032
          ],
          [
            118.843414,
            30.156744
          ],
          [
            118.84324,
            30.156569
          ],
          [
            118.84273,
            30.156387
          ],
          [
            118.84261,
            30.15655
          ],
          [
            118.841675,
            30.15626
          ],
          [
            118.84149,
            30.1564
          ],
          [
            118.841576,
            30.156292
          ],
          [
            118.84114,
            30.156235
          ],
          [
            118.84143,
            30.156792
          ],
          [
            118.84143,
            30.15705
          ],
          [
            118.841866,
            30.157831
          ],
          [
            118.84181,
            30.15816
          ],
          [
            118.841644,
            30.158287
          ],
          [
            118.84176,
            30.158173
          ],
          [
            118.841705,
            30.15821
          ],
          [
            118.841545,
            30.158035
          ],
          [
            118.841515,
            30.15808
          ],
          [
            118.84069,
            30.157913
          ],
          [
            118.839745,
            30.157434
          ],
          [
            118.83914,
            30.157383
          ],
          [
            118.83843,
            30.157074
          ],
          [
            118.838425,
            30.156933
          ],
          [
            118.838,
            30.15667
          ],
          [
            118.838005,
            30.156479
          ],
          [
            118.83811,
            30.156399
          ],
          [
            118.83752,
            30.155851
          ],
          [
            118.83711,
            30.15563
          ],
          [
            118.83685,
            30.155605
          ],
          [
            118.83657,
            30.155272
          ],
          [
            118.83647,
            30.155012
          ],
          [
            118.83606,
            30.154886
          ],
          [
            118.8355,
            30.154995
          ],
          [
            118.8355,
            30.155052
          ],
          [
            118.83513,
            30.155014
          ],
          [
            118.834785,
            30.155079
          ],
          [
            118.834694,
            30.15519
          ],
          [
            118.833916,
            30.155561
          ],
          [
            118.83358,
            30.155527
          ],
          [
            118.833206,
            30.15562
          ],
          [
            118.83218,
            30.15551
          ],
          [
            118.83172,
            30.155682
          ],
          [
            118.83149,
            30.155525
          ],
          [
            118.83128,
            30.155561
          ],
          [
            118.83106,
            30.15548
          ],
          [
            118.83095,
            30.155067
          ],
          [
            118.830574,
            30.15502
          ],
          [
            118.830475,
            30.154945
          ],
          [
            118.83012,
            30.154915
          ],
          [
            118.82997,
            30.15497
          ],
          [
            118.8298,
            30.154871
          ],
          [
            118.829475,
            30.154848
          ],
          [
            118.82942,
            30.154747
          ],
          [
            118.82929,
            30.154785
          ],
          [
            118.82915,
            30.154625
          ],
          [
            118.82861,
            30.154428
          ],
          [
            118.828384,
            30.154266
          ],
          [
            118.82823,
            30.154316
          ],
          [
            118.827644,
            30.154016
          ],
          [
            118.82662,
            30.153284
          ],
          [
            118.82603,
            30.153189
          ],
          [
            118.825745,
            30.153303
          ],
          [
            118.82558,
            30.153461
          ],
          [
            118.8248,
            30.153717
          ],
          [
            118.8246,
            30.153868
          ],
          [
            118.82403,
            30.153494
          ],
          [
            118.82366,
            30.153383
          ],
          [
            118.82334,
            30.153427
          ],
          [
            118.8231,
            30.153563
          ],
          [
            118.822845,
            30.153572
          ],
          [
            118.82256,
            30.153374
          ],
          [
            118.82166,
            30.15315
          ],
          [
            118.821335,
            30.153193
          ],
          [
            118.820755,
            30.15293
          ],
          [
            118.82016,
            30.152847
          ],
          [
            118.82014,
            30.152597
          ],
          [
            118.8199,
            30.15248
          ],
          [
            118.819664,
            30.152227
          ],
          [
            118.81948,
            30.152193
          ],
          [
            118.81928,
            30.15232
          ],
          [
            118.819275,
            30.15195
          ],
          [
            118.818825,
            30.151583
          ],
          [
            118.81868,
            30.1513
          ],
          [
            118.818825,
            30.151201
          ],
          [
            118.81901,
            30.151215
          ],
          [
            118.819496,
            30.151031
          ],
          [
            118.81972,
            30.150642
          ],
          [
            118.81964,
            30.150183
          ],
          [
            118.81916,
            30.149723
          ],
          [
            118.81849,
            30.149792
          ],
          [
            118.81796,
            30.14957
          ],
          [
            118.8177,
            30.149343
          ],
          [
            118.81678,
            30.148882
          ],
          [
            118.816505,
            30.148846
          ],
          [
            118.816475,
            30.14878
          ],
          [
            118.81634,
            30.148767
          ],
          [
            118.81591,
            30.14849
          ],
          [
            118.81581,
            30.14814
          ],
          [
            118.81536,
            30.147814
          ],
          [
            118.815285,
            30.147676
          ],
          [
            118.81481,
            30.14751
          ],
          [
            118.814445,
            30.147272
          ],
          [
            118.814224,
            30.147299
          ],
          [
            118.814186,
            30.147232
          ],
          [
            118.8135,
            30.147057
          ],
          [
            118.813194,
            30.146893
          ],
          [
            118.812416,
            30.146006
          ],
          [
            118.811966,
            30.145828
          ],
          [
            118.81157,
            30.145409
          ],
          [
            118.81166,
            30.144983
          ],
          [
            118.81125,
            30.144287
          ],
          [
            118.81119,
            30.143908
          ],
          [
            118.81095,
            30.14369
          ],
          [
            118.81065,
            30.143553
          ],
          [
            118.8107,
            30.14341
          ],
          [
            118.81047,
            30.14312
          ],
          [
            118.809685,
            30.142916
          ],
          [
            118.80929,
            30.142895
          ],
          [
            118.80883,
            30.14256
          ],
          [
            118.80874,
            30.142366
          ],
          [
            118.808495,
            30.142134
          ],
          [
            118.80849,
            30.141804
          ],
          [
            118.80807,
            30.141785
          ],
          [
            118.80785,
            30.14156
          ],
          [
            118.80762,
            30.141563
          ],
          [
            118.80715,
            30.140928
          ],
          [
            118.80691,
            30.14085
          ],
          [
            118.806526,
            30.140547
          ],
          [
            118.806046,
            30.14053
          ],
          [
            118.80589,
            30.14044
          ],
          [
            118.805145,
            30.139137
          ],
          [
            118.80499,
            30.1379
          ],
          [
            118.80507,
            30.137732
          ],
          [
            118.8059,
            30.137123
          ],
          [
            118.80614,
            30.137041
          ],
          [
            118.80646,
            30.136513
          ],
          [
            118.80681,
            30.136309
          ],
          [
            118.80799,
            30.136114
          ],
          [
            118.80831,
            30.136152
          ],
          [
            118.808426,
            30.13599
          ],
          [
            118.80808,
            30.13584
          ],
          [
            118.80768,
            30.135769
          ],
          [
            118.80726,
            30.135895
          ],
          [
            118.80711,
            30.135818
          ],
          [
            118.80688,
            30.135206
          ],
          [
            118.80671,
            30.135212
          ],
          [
            118.80674,
            30.135246
          ],
          [
            118.80621,
            30.135477
          ],
          [
            118.80681,
            30.135185
          ],
          [
            118.806725,
            30.13528
          ],
          [
            118.80683,
            30.135204
          ],
          [
            118.806984,
            30.135324
          ],
          [
            118.80716,
            30.135767
          ],
          [
            118.80728,
            30.13581
          ],
          [
            118.80789,
            30.135756
          ],
          [
            118.808304,
            30.135876
          ],
          [
            118.80844,
            30.13599
          ],
          [
            118.80843,
            30.136135
          ],
          [
            118.80887,
            30.136011
          ],
          [
            118.80912,
            30.13608
          ],
          [
            118.809525,
            30.135914
          ],
          [
            118.810005,
            30.13595
          ],
          [
            118.810585,
            30.135756
          ],
          [
            118.81109,
            30.135702
          ],
          [
            118.81104,
            30.135725
          ],
          [
            118.81111,
            30.135756
          ],
          [
            118.8116,
            30.135567
          ],
          [
            118.81177,
            30.135393
          ],
          [
            118.81223,
            30.135504
          ],
          [
            118.81253,
            30.135326
          ],
          [
            118.813065,
            30.135256
          ],
          [
            118.81424,
            30.135319
          ],
          [
            118.81463,
            30.135193
          ],
          [
            118.81517,
            30.13535
          ],
          [
            118.815254,
            30.135515
          ],
          [
            118.81555,
            30.135633
          ],
          [
            118.815636,
            30.136013
          ],
          [
            118.81607,
            30.136364
          ],
          [
            118.81691,
            30.136553
          ],
          [
            118.81767,
            30.136972
          ],
          [
            118.81854,
            30.137123
          ],
          [
            118.81921,
            30.137005
          ],
          [
            118.81937,
            30.136906
          ],
          [
            118.81947,
            30.13694
          ],
          [
            118.819695,
            30.136822
          ],
          [
            118.81988,
            30.136818
          ],
          [
            118.82016,
            30.136576
          ],
          [
            118.82048,
            30.136456
          ],
          [
            118.82159,
            30.136448
          ],
          [
            118.82178,
            30.136318
          ],
          [
            118.82222,
            30.136194
          ],
          [
            118.822845,
            30.136332
          ],
          [
            118.823166,
            30.136557
          ],
          [
            118.8241,
            30.136927
          ],
          [
            118.82453,
            30.137186
          ],
          [
            118.82488,
            30.13705
          ],
          [
            118.825905,
            30.136911
          ],
          [
            118.82622,
            30.13676
          ],
          [
            118.82675,
            30.136702
          ],
          [
            118.82698,
            30.136814
          ],
          [
            118.82709,
            30.136719
          ],
          [
            118.82699,
            30.136366
          ],
          [
            118.827065,
            30.136305
          ],
          [
            118.827,
            30.13626
          ],
          [
            118.82705,
            30.13613
          ],
          [
            118.827156,
            30.136116
          ],
          [
            118.82733,
            30.135805
          ],
          [
            118.827644,
            30.13566
          ],
          [
            118.82778,
            30.135492
          ],
          [
            118.82787,
            30.135487
          ],
          [
            118.82769,
            30.134863
          ],
          [
            118.82789,
            30.134726
          ],
          [
            118.828224,
            30.13427
          ],
          [
            118.82818,
            30.133913
          ],
          [
            118.82828,
            30.133434
          ],
          [
            118.82928,
            30.132242
          ],
          [
            118.830124,
            30.13183
          ],
          [
            118.830246,
            30.131868
          ],
          [
            118.83077,
            30.131683
          ],
          [
            118.83106,
            30.131325
          ],
          [
            118.83166,
            30.13088
          ],
          [
            118.83355,
            30.130669
          ],
          [
            118.83375,
            30.130499
          ],
          [
            118.83381,
            30.130201
          ],
          [
            118.83374,
            30.12981
          ],
          [
            118.834,
            30.129103
          ],
          [
            118.833755,
            30.128326
          ],
          [
            118.83385,
            30.127758
          ],
          [
            118.833984,
            30.127613
          ],
          [
            118.83398,
            30.127373
          ],
          [
            118.834175,
            30.127209
          ],
          [
            118.83433,
            30.126642
          ],
          [
            118.83455,
            30.126694
          ],
          [
            118.83461,
            30.126574
          ],
          [
            118.83538,
            30.12648
          ],
          [
            118.83618,
            30.12656
          ],
          [
            118.83652,
            30.12625
          ],
          [
            118.83702,
            30.126184
          ],
          [
            118.83739,
            30.126055
          ],
          [
            118.83816,
            30.125414
          ],
          [
            118.83856,
            30.125572
          ],
          [
            118.83908,
            30.125648
          ],
          [
            118.83963,
            30.12594
          ],
          [
            118.83995,
            30.125996
          ],
          [
            118.84049,
            30.125904
          ],
          [
            118.84048,
            30.125854
          ],
          [
            118.84072,
            30.125753
          ],
          [
            118.8408,
            30.125132
          ],
          [
            118.84096,
            30.124994
          ],
          [
            118.840935,
            30.124891
          ],
          [
            118.8411,
            30.124683
          ],
          [
            118.84114,
            30.12421
          ],
          [
            118.841576,
            30.123598
          ],
          [
            118.84179,
            30.123499
          ],
          [
            118.84202,
            30.12317
          ],
          [
            118.84208,
            30.122864
          ],
          [
            118.84236,
            30.122362
          ],
          [
            118.842255,
            30.122105
          ],
          [
            118.8424,
            30.12165
          ],
          [
            118.84279,
            30.121202
          ],
          [
            118.843094,
            30.121029
          ],
          [
            118.84307,
            30.120834
          ],
          [
            118.843346,
            30.119936
          ],
          [
            118.84368,
            30.11931
          ],
          [
            118.8438,
            30.118723
          ],
          [
            118.84414,
            30.11794
          ],
          [
            118.84458,
            30.117624
          ],
          [
            118.84453,
            30.117664
          ],
          [
            118.844604,
            30.117651
          ],
          [
            118.84472,
            30.117397
          ],
          [
            118.84525,
            30.117207
          ],
          [
            118.845505,
            30.117037
          ],
          [
            118.845894,
            30.116587
          ],
          [
            118.84662,
            30.116093
          ],
          [
            118.84767,
            30.11593
          ],
          [
            118.84818,
            30.115677
          ],
          [
            118.84832,
            30.115509
          ],
          [
            118.84867,
            30.115385
          ],
          [
            118.850395,
            30.115568
          ],
          [
            118.850945,
            30.114588
          ],
          [
            118.85128,
            30.114246
          ],
          [
            118.85287,
            30.113598
          ],
          [
            118.85302,
            30.113396
          ],
          [
            118.853455,
            30.113285
          ],
          [
            118.85346,
            30.112993
          ],
          [
            118.85331,
            30.112438
          ],
          [
            118.853455,
            30.111797
          ],
          [
            118.853455,
            30.111242
          ],
          [
            118.85364,
            30.110744
          ],
          [
            118.8542,
            30.109715
          ],
          [
            118.85502,
            30.109272
          ],
          [
            118.855385,
            30.10851
          ],
          [
            118.85589,
            30.108295
          ],
          [
            118.8561,
            30.10803
          ],
          [
            118.856544,
            30.107756
          ],
          [
            118.85678,
            30.107689
          ],
          [
            118.8573,
            30.107124
          ],
          [
            118.85747,
            30.107096
          ],
          [
            118.85793,
            30.106758
          ],
          [
            118.85807,
            30.106752
          ],
          [
            118.85869,
            30.10635
          ],
          [
            118.859,
            30.105654
          ],
          [
            118.85961,
            30.105177
          ],
          [
            118.85972,
            30.10491
          ],
          [
            118.860275,
            30.104328
          ],
          [
            118.860435,
            30.103592
          ],
          [
            118.86075,
            30.1031
          ],
          [
            118.86076,
            30.102913
          ],
          [
            118.86084,
            30.102844
          ],
          [
            118.860855,
            30.102587
          ],
          [
            118.860954,
            30.102493
          ],
          [
            118.86091,
            30.102064
          ],
          [
            118.86098,
            30.10228
          ],
          [
            118.86149,
            30.10189
          ],
          [
            118.86183,
            30.101294
          ],
          [
            118.86171,
            30.10086
          ],
          [
            118.8619,
            30.101513
          ],
          [
            118.86242,
            30.101995
          ],
          [
            118.862686,
            30.102053
          ],
          [
            118.863144,
            30.102367
          ],
          [
            118.86352,
            30.102913
          ],
          [
            118.86376,
            30.103514
          ],
          [
            118.86344,
            30.103855
          ],
          [
            118.86346,
            30.104298
          ],
          [
            118.863556,
            30.104437
          ],
          [
            118.8639,
            30.105888
          ],
          [
            118.86386,
            30.106085
          ],
          [
            118.86395,
            30.106464
          ],
          [
            118.86388,
            30.106524
          ],
          [
            118.86397,
            30.107115
          ],
          [
            118.864136,
            30.107374
          ],
          [
            118.8642,
            30.107674
          ],
          [
            118.864944,
            30.10858
          ],
          [
            118.86557,
            30.109806
          ],
          [
            118.86577,
            30.110512
          ],
          [
            118.865776,
            30.11094
          ],
          [
            118.866,
            30.111546
          ],
          [
            118.86626,
            30.111855
          ],
          [
            118.86676,
            30.11223
          ],
          [
            118.8676,
            30.113455
          ],
          [
            118.86765,
            30.11371
          ],
          [
            118.86795,
            30.114025
          ],
          [
            118.86835,
            30.114239
          ],
          [
            118.868835,
            30.11467
          ],
          [
            118.869156,
            30.114721
          ],
          [
            118.86958,
            30.115208
          ],
          [
            118.86981,
            30.115793
          ],
          [
            118.869736,
            30.116013
          ],
          [
            118.8697,
            30.11598
          ],
          [
            118.86965,
            30.116146
          ],
          [
            118.87044,
            30.116394
          ],
          [
            118.87172,
            30.117123
          ],
          [
            118.872314,
            30.11719
          ],
          [
            118.8724,
            30.117252
          ],
          [
            118.87266,
            30.11715
          ],
          [
            118.87274,
            30.117258
          ],
          [
            118.87311,
            30.117329
          ],
          [
            118.87324,
            30.117277
          ],
          [
            118.873375,
            30.11732
          ],
          [
            118.87381,
            30.11708
          ],
          [
            118.874054,
            30.11734
          ],
          [
            118.874405,
            30.117266
          ],
          [
            118.874435,
            30.11742
          ],
          [
            118.87452,
            30.117338
          ],
          [
            118.874916,
            30.11756
          ],
          [
            118.87522,
            30.117598
          ],
          [
            118.875175,
            30.117313
          ],
          [
            118.875404,
            30.117678
          ],
          [
            118.87549,
            30.117514
          ],
          [
            118.876,
            30.117535
          ],
          [
            118.876656,
            30.117771
          ],
          [
            118.876785,
            30.117949
          ],
          [
            118.877625,
            30.117975
          ],
          [
            118.8778,
            30.117836
          ],
          [
            118.87786,
            30.117916
          ],
          [
            118.87782,
            30.11782
          ],
          [
            118.87758,
            30.117985
          ],
          [
            118.87741,
            30.117954
          ],
          [
            118.877365,
            30.118525
          ],
          [
            118.87726,
            30.118683
          ],
          [
            118.87711,
            30.119349
          ],
          [
            118.877174,
            30.119581
          ],
          [
            118.87702,
            30.119947
          ],
          [
            118.87701,
            30.120228
          ],
          [
            118.876785,
            30.12055
          ],
          [
            118.87693,
            30.120958
          ],
          [
            118.87694,
            30.121368
          ],
          [
            118.87676,
            30.121765
          ],
          [
            118.8767,
            30.122381
          ],
          [
            118.87684,
            30.122795
          ],
          [
            118.87679,
            30.12315
          ],
          [
            118.87685,
            30.123348
          ],
          [
            118.87675,
            30.123789
          ],
          [
            118.876884,
            30.124134
          ],
          [
            118.87707,
            30.124231
          ],
          [
            118.877075,
            30.12456
          ],
          [
            118.87719,
            30.124672
          ],
          [
            118.87726,
            30.125103
          ],
          [
            118.87719,
            30.1253
          ],
          [
            118.877045,
            30.125412
          ],
          [
            118.87696,
            30.125637
          ],
          [
            118.87701,
            30.125895
          ],
          [
            118.876724,
            30.12635
          ],
          [
            118.87667,
            30.126717
          ],
          [
            118.87683,
            30.127136
          ],
          [
            118.876526,
            30.127485
          ],
          [
            118.87625,
            30.128168
          ],
          [
            118.87598,
            30.128466
          ],
          [
            118.87592,
            30.128714
          ],
          [
            118.875404,
            30.128923
          ],
          [
            118.875206,
            30.129143
          ],
          [
            118.87471,
            30.129269
          ],
          [
            118.874374,
            30.129726
          ],
          [
            118.87414,
            30.129784
          ],
          [
            118.87365,
            30.130274
          ],
          [
            118.873726,
            30.130434
          ],
          [
            118.87381,
            30.131353
          ],
          [
            118.8737,
            30.131424
          ],
          [
            118.87292,
            30.131374
          ],
          [
            118.872505,
            30.131565
          ],
          [
            118.87219,
            30.132322
          ],
          [
            118.872185,
            30.132584
          ],
          [
            118.87206,
            30.13268
          ],
          [
            118.87164,
            30.132746
          ],
          [
            118.87164,
            30.133018
          ],
          [
            118.87145,
            30.133348
          ],
          [
            118.87151,
            30.133385
          ],
          [
            118.87118,
            30.134237
          ],
          [
            118.87076,
            30.134949
          ],
          [
            118.87094,
            30.135242
          ],
          [
            118.87094,
            30.13559
          ],
          [
            118.871086,
            30.13559
          ],
          [
            118.871315,
            30.135809
          ],
          [
            118.87174,
            30.135872
          ],
          [
            118.8718,
            30.13602
          ],
          [
            118.87171,
            30.136332
          ],
          [
            118.87189,
            30.13656
          ],
          [
            118.87184,
            30.136812
          ],
          [
            118.87199,
            30.137178
          ],
          [
            118.87193,
            30.137278
          ],
          [
            118.87214,
            30.137491
          ],
          [
            118.87192,
            30.138376
          ],
          [
            118.87169,
            30.138683
          ],
          [
            118.87033,
            30.139967
          ],
          [
            118.87037,
            30.140285
          ],
          [
            118.870186,
            30.140474
          ],
          [
            118.87046,
            30.140509
          ],
          [
            118.87087,
            30.140312
          ],
          [
            118.87125,
            30.140274
          ],
          [
            118.871956,
            30.140434
          ],
          [
            118.87182,
            30.140696
          ],
          [
            118.87151,
            30.14088
          ],
          [
            118.87116,
            30.141401
          ],
          [
            118.871346,
            30.141535
          ],
          [
            118.871796,
            30.142242
          ],
          [
            118.87143,
            30.14284
          ],
          [
            118.87106,
            30.143064
          ],
          [
            118.871025,
            30.142937
          ],
          [
            118.87087,
            30.143013
          ],
          [
            118.870804,
            30.142956
          ],
          [
            118.87035,
            30.143307
          ],
          [
            118.870445,
            30.143385
          ],
          [
            118.87038,
            30.14353
          ],
          [
            118.87044,
            30.143723
          ],
          [
            118.87025,
            30.14379
          ],
          [
            118.87021,
            30.143713
          ],
          [
            118.87003,
            30.144016
          ],
          [
            118.86982,
            30.144192
          ],
          [
            118.869804,
            30.144388
          ],
          [
            118.86987,
            30.14439
          ],
          [
            118.869804,
            30.144358
          ],
          [
            118.86948,
            30.144548
          ],
          [
            118.869225,
            30.144976
          ],
          [
            118.86882,
            30.145227
          ],
          [
            118.867966,
            30.14545
          ],
          [
            118.8677,
            30.14573
          ],
          [
            118.866936,
            30.146067
          ],
          [
            118.86671,
            30.146406
          ],
          [
            118.866585,
            30.146467
          ],
          [
            118.866356,
            30.146906
          ],
          [
            118.86634,
            30.14722
          ],
          [
            118.86619,
            30.147352
          ],
          [
            118.86621,
            30.147814
          ],
          [
            118.86613,
            30.148022
          ],
          [
            118.86595,
            30.148024
          ],
          [
            118.865746,
            30.148129
          ],
          [
            118.86576,
            30.148453
          ],
          [
            118.86563,
            30.148458
          ],
          [
            118.86544,
            30.148348
          ],
          [
            118.86529,
            30.148424
          ]
        ]
      }
    }
  ]
}
