{
  "type": "FeatureCollection",
  "features": [
    {
      "type": "Feature",
      "properties": {
        "name": "太姥山参考轨迹",
        "type": "hiking",
        "source": "两步路用户轨迹",
        "segments": 1
      },
      "geometry": {
        "type": "LineString",
        "coordinates": [
          [
            120.2196,
            27.126658
          ],
          [
            120.2196,
            27.126638
          ],
          [
            120.219617,
            27.126683
          ],
          [
            120.219633,
            27.126553
          ],
          [
            120.219545,
            27.12597
          ],
          [
            120.219577,
            27.12587
          ],
          [
            120.219578,
            27.125827
          ],
          [
            120.219548,
            27.125752
          ],
          [
            120.219567,
            27.12556
          ],
          [
            120.219423,
            27.125073
          ],
          [
            120.219405,
            27.124715
          ],
          [
            120.219422,
            27.124642
          ],
          [
            120.219335,
            27.124328
          ],
          [
            120.21919,
            27.124112
          ],
          [
            120.219055,
            27.124047
          ],
          [
            120.218822,
            27.123983
          ],
          [
            120.218585,
            27.123955
          ],
          [
            120.218467,
            27.124002
          ],
          [
            120.21836,
            27.124085
          ],
          [
            120.218195,
            27.12428
          ],
          [
            120.218072,
            27.124387
          ],
          [
            120.21792,
            27.12435
          ],
          [
            120.217768,
            27.124355
          ],
          [
            120.217707,
            27.124335
          ],
          [
            120.21761,
            27.124332
          ],
          [
            120.217558,
            27.124408
          ],
          [
            120.217527,
            27.124512
          ],
          [
            120.21746,
            27.124507
          ],
          [
            120.217273,
            27.124592
          ],
          [
            120.217232,
            27.124592
          ],
          [
            120.217093,
            27.124428
          ],
          [
            120.217047,
            27.124422
          ],
          [
            120.21703,
            27.124398
          ],
          [
            120.216982,
            27.124295
          ],
          [
            120.216992,
            27.124252
          ],
          [
            120.216958,
            27.124137
          ],
          [
            120.216992,
            27.124078
          ],
          [
            120.217118,
            27.124015
          ],
          [
            120.21715,
            27.123978
          ],
          [
            120.217177,
            27.123898
          ],
          [
            120.21717,
            27.123838
          ],
          [
            120.217137,
            27.123815
          ],
          [
            120.217048,
            27.12387
          ],
          [
            120.216975,
            27.123878
          ],
          [
            120.217035,
            27.123827
          ],
          [
            120.21704,
            27.123805
          ],
          [
            120.21699,
            27.12386
          ],
          [
            120.21699,
            27.123745
          ],
          [
            120.216907,
            27.1237
          ],
          [
            120.216893,
            27.12359
          ],
          [
            120.216877,
            27.123572
          ],
          [
            120.216705,
            27.12346
          ],
          [
            120.216683,
            27.123333
          ],
          [
            120.216518,
            27.123202
          ],
          [
            120.216453,
            27.123088
          ],
          [
            120.216367,
            27.123012
          ],
          [
            120.216363,
            27.122973
          ],
          [
            120.216313,
            27.122922
          ],
          [
            120.216212,
            27.122915
          ],
          [
            120.216155,
            27.122885
          ],
          [
            120.216103,
            27.122537
          ],
          [
            120.216167,
            27.12249
          ],
          [
            120.216337,
            27.122492
          ],
          [
            120.216447,
            27.122443
          ],
          [
            120.216487,
            27.12238
          ],
          [
            120.216488,
            27.122318
          ],
          [
            120.216467,
            27.122248
          ],
          [
            120.216348,
            27.122167
          ],
          [
            120.216235,
            27.122022
          ],
          [
            120.216047,
            27.1219
          ],
          [
            120.216047,
            27.12184
          ],
          [
            120.215995,
            27.121725
          ],
          [
            120.215938,
            27.121827
          ],
          [
            120.215838,
            27.121915
          ],
          [
            120.215692,
            27.122023
          ],
          [
            120.21551,
            27.122115
          ],
          [
            120.215347,
            27.122173
          ],
          [
            120.215265,
            27.122222
          ],
          [
            120.21519,
            27.122238
          ],
          [
            120.214972,
            27.12236
          ],
          [
            120.214808,
            27.12239
          ],
          [
            120.214643,
            27.122378
          ],
          [
            120.214382,
            27.12227
          ],
          [
            120.214223,
            27.122177
          ],
          [
            120.214207,
            27.121993
          ],
          [
            120.214185,
            27.121927
          ],
          [
            120.21415,
            27.121893
          ],
          [
            120.214008,
            27.121828
          ],
          [
            120.21385,
            27.121642
          ],
          [
            120.213863,
            27.121467
          ],
          [
            120.213907,
            27.121395
          ],
          [
            120.213883,
            27.12135
          ],
          [
            120.213755,
            27.121322
          ],
          [
            120.21348,
            27.121168
          ],
          [
            120.213388,
            27.121135
          ],
          [
            120.213348,
            27.121112
          ],
          [
            120.213278,
            27.121023
          ],
          [
            120.213125,
            27.120923
          ],
          [
            120.212992,
            27.120888
          ],
          [
            120.21274,
            27.120897
          ],
          [
            120.21259,
            27.120982
          ],
          [
            120.212453,
            27.121008
          ],
          [
            120.212287,
            27.121063
          ],
          [
            120.212202,
            27.121025
          ],
          [
            120.212147,
            27.120978
          ],
          [
            120.21207,
            27.120958
          ],
          [
            120.211973,
            27.120958
          ],
          [
            120.211815,
            27.121008
          ],
          [
            120.211528,
            27.12096
          ],
          [
            120.211352,
            27.120965
          ],
          [
            120.211148,
            27.120947
          ],
          [
            120.211088,
            27.120915
          ],
          [
            120.211073,
            27.120832
          ],
          [
            120.21109,
            27.120793
          ],
          [
            120.211075,
            27.12076
          ],
          [
            120.211053,
            27.120758
          ],
          [
            120.210952,
            27.120825
          ],
          [
            120.210853,
            27.120865
          ],
          [
            120.210827,
            27.120777
          ],
          [
            120.210788,
            27.120727
          ],
          [
            120.210725,
            27.120733
          ],
          [
            120.210677,
            27.120715
          ],
          [
            120.210648,
            27.12068
          ],
          [
            120.210507,
            27.120605
          ],
          [
            120.210462,
            27.120545
          ],
          [
            120.21036,
            27.12048
          ],
          [
            120.210213,
            27.120452
          ],
          [
            120.210043,
            27.120453
          ],
          [
            120.209977,
            27.120468
          ],
          [
            120.209905,
            27.120508
          ],
          [
            120.209855,
            27.120508
          ],
          [
            120.209615,
            27.120662
          ],
          [
            120.209513,
            27.120797
          ],
          [
            120.20951,
            27.120922
          ],
          [
            120.209427,
            27.12105
          ],
          [
            120.209357,
            27.121232
          ],
          [
            120.2092,
            27.12128
          ],
          [
            120.209115,
            27.121343
          ],
          [
            120.20898,
            27.121377
          ],
          [
            120.208717,
            27.121717
          ],
          [
            120.208712,
            27.121755
          ],
          [
            120.208638,
            27.121882
          ],
          [
            120.208497,
            27.122067
          ],
          [
            120.208175,
            27.122298
          ],
          [
            120.208083,
            27.122337
          ],
          [
            120.208003,
            27.122442
          ],
          [
            120.207905,
            27.122502
          ],
          [
            120.207817,
            27.1226
          ],
          [
            120.207697,
            27.122673
          ],
          [
            120.207675,
            27.122712
          ],
          [
            120.207665,
            27.122878
          ],
          [
            120.20738,
            27.122958
          ],
          [
            120.207337,
            27.122988
          ],
          [
            120.207128,
            27.123063
          ],
          [
            120.207053,
            27.123177
          ],
          [
            120.206882,
            27.123325
          ],
          [
            120.206792,
            27.12343
          ],
          [
            120.20677,
            27.123498
          ],
          [
            120.206722,
            27.123537
          ],
          [
            120.206585,
            27.123598
          ],
          [
            120.20614,
            27.123637
          ],
          [
            120.206065,
            27.123657
          ],
          [
            120.205667,
            27.124033
          ],
          [
            120.205187,
            27.124212
          ],
          [
            120.205088,
            27.12427
          ],
          [
            120.20495,
            27.124395
          ],
          [
            120.20489,
            27.124552
          ],
          [
            120.20481,
            27.124627
          ],
          [
            120.204813,
            27.124608
          ],
          [
            120.20477,
            27.124648
          ],
          [
            120.204685,
            27.124657
          ],
          [
            120.204577,
            27.124612
          ],
          [
            120.204513,
            27.12463
          ],
          [
            120.204438,
            27.12469
          ],
          [
            120.204342,
            27.124688
          ],
          [
            120.204262,
            27.124712
          ],
          [
            120.204195,
            27.124822
          ],
          [
            120.204168,
            27.12497
          ],
          [
            120.204148,
            27.12501
          ],
          [
            120.204093,
            27.125053
          ],
          [
            120.203958,
            27.125082
          ],
          [
            120.203935,
            27.125065
          ],
          [
            120.20391,
            27.12496
          ],
          [
            120.203872,
            27.124928
          ],
          [
            120.203785,
            27.124925
          ],
          [
            120.203745,
            27.124945
          ],
          [
            120.203727,
            27.124987
          ],
          [
            120.203678,
            27.125027
          ],
          [
            120.203622,
            27.125048
          ],
          [
            120.203552,
            27.12504
          ],
          [
            120.203532,
            27.125055
          ],
          [
            120.203495,
            27.125103
          ],
          [
            120.203477,
            27.125167
          ],
          [
            120.203393,
            27.12522
          ],
          [
            120.203303,
            27.125352
          ],
          [
            120.20326,
            27.125368
          ],
          [
            120.20308,
            27.125353
          ],
          [
            120.202932,
            27.125418
          ],
          [
            120.202715,
            27.125463
          ],
          [
            120.202558,
            27.125595
          ],
          [
            120.202468,
            27.125618
          ],
          [
            120.202312,
            27.125623
          ],
          [
            120.20225,
            27.125645
          ],
          [
            120.202158,
            27.125692
          ],
          [
            120.20203,
            27.125797
          ],
          [
            120.201812,
            27.125875
          ],
          [
            120.201657,
            27.125982
          ],
          [
            120.20161,
            27.126072
          ],
          [
            120.201557,
            27.126113
          ],
          [
            120.201393,
            27.126187
          ],
          [
            120.201245,
            27.126325
          ],
          [
            120.2012,
            27.126317
          ],
          [
            120.20112,
            27.12622
          ],
          [
            120.201088,
            27.126053
          ],
          [
            120.201053,
            27.126015
          ],
          [
            120.200957,
            27.125985
          ],
          [
            120.200815,
            27.126007
          ],
          [
            120.200732,
            27.126047
          ],
          [
            120.200597,
            27.126018
          ],
          [
            120.200542,
            27.126023
          ],
          [
            120.200458,
            27.126083
          ],
          [
            120.200415,
            27.126135
          ],
          [
            120.200235,
            27.12618
          ],
          [
            120.200215,
            27.12614
          ],
          [
            120.200238,
            27.126107
          ],
          [
            120.200143,
            27.12611
          ],
          [
            120.200132,
            27.126095
          ],
          [
            120.20014,
            27.125845
          ],
          [
            120.200202,
            27.125755
          ],
          [
            120.200275,
            27.125737
          ],
          [
            120.20028,
            27.125717
          ],
          [
            120.200168,
            27.125483
          ],
          [
            120.200102,
            27.125398
          ],
          [
            120.20005,
            27.125407
          ],
          [
            120.199978,
            27.125393
          ],
          [
            120.1998,
            27.125268
          ],
          [
            120.199595,
            27.125197
          ],
          [
            120.199507,
            27.12518
          ],
          [
            120.199452,
            27.125188
          ],
          [
            120.199402,
            27.125217
          ],
          [
            120.199372,
            27.125262
          ],
          [
            120.19931,
            27.12529
          ],
          [
            120.199153,
            27.125112
          ],
          [
            120.198845,
            27.12499
          ],
          [
            120.198703,
            27.125012
          ],
          [
            120.198553,
            27.12501
          ],
          [
            120.198468,
            27.124988
          ],
          [
            120.198162,
            27.124965
          ],
          [
            120.19811,
            27.124973
          ],
          [
            120.198032,
            27.124923
          ],
          [
            120.197933,
            27.124945
          ],
          [
            120.197852,
            27.124918
          ],
          [
            120.197683,
            27.124908
          ],
          [
            120.197542,
            27.124922
          ],
          [
            120.19733,
            27.124883
          ],
          [
            120.197202,
            27.124917
          ],
          [
            120.197142,
            27.124878
          ],
          [
            120.197113,
            27.124877
          ],
          [
            120.197102,
            27.124893
          ],
          [
            120.197052,
            27.124858
          ],
          [
            120.19691,
            27.124895
          ],
          [
            120.196757,
            27.124875
          ],
          [
            120.196743,
            27.124857
          ],
          [
            120.196657,
            27.124862
          ],
          [
            120.196583,
            27.124843
          ],
          [
            120.196512,
            27.124882
          ],
          [
            120.196402,
            27.12483
          ],
          [
            120.196228,
            27.124823
          ],
          [
            120.196165,
            27.124793
          ],
          [
            120.196122,
            27.124688
          ],
          [
            120.196145,
            27.124622
          ],
          [
            120.196277,
            27.124578
          ],
          [
            120.196232,
            27.124532
          ],
          [
            120.196192,
            27.124517
          ],
          [
            120.196138,
            27.124527
          ],
          [
            120.196045,
            27.12451
          ],
          [
            120.19596,
            27.124527
          ],
          [
            120.195912,
            27.12452
          ],
          [
            120.195858,
            27.124473
          ],
          [
            120.195742,
            27.124415
          ],
          [
            120.19565,
            27.124422
          ],
          [
            120.195465,
            27.124403
          ],
          [
            120.195212,
            27.124443
          ],
          [
            120.195192,
            27.124427
          ],
          [
            120.195188,
            27.12436
          ],
          [
            120.195218,
            27.124252
          ],
          [
            120.195133,
            27.124318
          ],
          [
            120.194993,
            27.124255
          ],
          [
            120.194932,
            27.124288
          ],
          [
            120.194847,
            27.124387
          ],
          [
            120.194798,
            27.124418
          ],
          [
            120.194592,
            27.12443
          ],
          [
            120.194535,
            27.124477
          ],
          [
            120.194455,
            27.124612
          ],
          [
            120.194393,
            27.124647
          ],
          [
            120.194462,
            27.124658
          ],
          [
            120.194507,
            27.124688
          ],
          [
            120.19452,
            27.124663
          ],
          [
            120.194522,
            27.124843
          ],
          [
            120.194635,
            27.124982
          ],
          [
            120.194643,
            27.12506
          ],
          [
            120.194612,
            27.125115
          ],
          [
            120.19451,
            27.125213
          ],
          [
            120.194332,
            27.125232
          ],
          [
            120.194247,
            27.125172
          ],
          [
            120.194217,
            27.125168
          ],
          [
            120.19406,
            27.125183
          ],
          [
            120.193985,
            27.125213
          ],
          [
            120.193912,
            27.125183
          ],
          [
            120.193855,
            27.125185
          ],
          [
            120.193712,
            27.125112
          ],
          [
            120.193602,
            27.125095
          ],
          [
            120.193488,
            27.125055
          ],
          [
            120.193433,
            27.125013
          ],
          [
            120.193388,
            27.124955
          ],
          [
            120.193393,
            27.124937
          ],
          [
            120.19337,
            27.124978
          ],
          [
            120.193308,
            27.125022
          ],
          [
            120.1932,
            27.12504
          ],
          [
            120.193177,
            27.125105
          ],
          [
            120.193247,
            27.125278
          ],
          [
            120.193275,
            27.125312
          ],
          [
            120.1933,
            27.125308
          ],
          [
            120.193302,
            27.125395
          ],
          [
            120.19321,
            27.125562
          ],
          [
            120.193035,
            27.125672
          ],
          [
            120.192985,
            27.125738
          ],
          [
            120.192963,
            27.125798
          ],
          [
            120.192967,
            27.125905
          ],
          [
            120.192912,
            27.126032
          ],
          [
            120.192965,
            27.126068
          ],
          [
            120.192995,
            27.126112
          ],
          [
            120.193002,
            27.126177
          ],
          [
            120.192938,
            27.126237
          ],
          [
            120.192685,
            27.126255
          ],
          [
            120.19264,
            27.126275
          ],
          [
            120.192627,
            27.12632
          ],
          [
            120.192603,
            27.126337
          ],
          [
            120.192523,
            27.126343
          ],
          [
            120.192448,
            27.126333
          ],
          [
            120.192407,
            27.126305
          ],
          [
            120.192377,
            27.126252
          ],
          [
            120.192422,
            27.12635
          ],
          [
            120.192225,
            27.126408
          ],
          [
            120.192135,
            27.126465
          ],
          [
            120.19201,
            27.12643
          ],
          [
            120.191968,
            27.12641
          ],
          [
            120.1919,
            27.12634
          ],
          [
            120.191805,
            27.126317
          ],
          [
            120.191712,
            27.126345
          ],
          [
            120.191597,
            27.126353
          ],
          [
            120.19141,
            27.126323
          ],
          [
            120.191287,
            27.126337
          ],
          [
            120.191203,
            27.126278
          ],
          [
            120.191087,
            27.126268
          ],
          [
            120.191072,
            27.126255
          ],
          [
            120.191085,
            27.126213
          ],
          [
            120.191047,
            27.126142
          ],
          [
            120.190947,
            27.126143
          ],
          [
            120.190692,
            27.126107
          ],
          [
            120.190623,
            27.126073
          ],
          [
            120.190595,
            27.126
          ],
          [
            120.190573,
            27.125987
          ],
          [
            120.190575,
            27.125943
          ],
          [
            120.190533,
            27.125888
          ],
          [
            120.190528,
            27.125847
          ],
          [
            120.190465,
            27.125788
          ],
          [
            120.190432,
            27.125695
          ],
          [
            120.19033,
            27.125653
          ],
          [
            120.1903,
            27.125625
          ],
          [
            120.190283,
            27.125575
          ],
          [
            120.190298,
            27.125467
          ],
          [
            120.190265,
            27.125427
          ],
          [
            120.190145,
            27.125433
          ],
          [
            120.19013,
            27.125457
          ],
          [
            120.190142,
            27.125488
          ],
          [
            120.190123,
            27.12558
          ],
          [
            120.190083,
            27.125552
          ],
          [
            120.190083,
            27.125527
          ],
          [
            120.19002,
            27.12549
          ],
          [
            120.190017,
            27.12547
          ],
          [
            120.190042,
            27.125467
          ],
          [
            120.190043,
            27.125448
          ],
          [
            120.190013,
            27.125403
          ],
          [
            120.190013,
            27.125357
          ],
          [
            120.190123,
            27.125327
          ],
          [
            120.190178,
            27.125272
          ],
          [
            120.190137,
            27.12516
          ],
          [
            120.190127,
            27.125072
          ],
          [
            120.19015,
            27.125032
          ],
          [
            120.19014,
            27.125012
          ],
          [
            120.190203,
            27.124998
          ],
          [
            120.190243,
            27.12504
          ],
          [
            120.19025,
            27.124995
          ],
          [
            120.19036,
            27.12506
          ],
          [
            120.190467,
            27.12501
          ],
          [
            120.190668,
            27.125032
          ],
          [
            120.190743,
            27.124995
          ],
          [
            120.19086,
            27.124978
          ],
          [
            120.19085,
            27.124903
          ],
          [
            120.190862,
            27.124887
          ],
          [
            120.190848,
            27.124872
          ],
          [
            120.190823,
            27.124873
          ],
          [
            120.190818,
            27.124892
          ],
          [
            120.190823,
            27.12498
          ],
          [
            120.190758,
            27.12491
          ],
          [
            120.190628,
            27.124887
          ],
          [
            120.19062,
            27.124868
          ],
          [
            120.190573,
            27.124863
          ],
          [
            120.190522,
            27.124827
          ],
          [
            120.190463,
            27.124763
          ],
          [
            120.190468,
            27.124728
          ],
          [
            120.190443,
            27.124723
          ],
          [
            120.190378,
            27.124642
          ],
          [
            120.190338,
            27.124655
          ],
          [
            120.190342,
            27.124693
          ],
          [
            120.190298,
            27.124695
          ],
          [
            120.190223,
            27.124755
          ],
          [
            120.190143,
            27.124685
          ],
          [
            120.190047,
            27.12466
          ],
          [
            120.190037,
            27.12462
          ],
          [
            120.189995,
            27.12464
          ],
          [
            120.189947,
            27.12459
          ],
          [
            120.189855,
            27.124573
          ],
          [
            120.189868,
            27.1246
          ],
          [
            120.189867,
            27.124578
          ],
          [
            120.189732,
            27.124495
          ],
          [
            120.189692,
            27.12441
          ],
          [
            120.189568,
            27.124328
          ],
          [
            120.189482,
            27.124292
          ],
          [
            120.189362,
            27.124278
          ],
          [
            120.18929,
            27.124213
          ],
          [
            120.189247,
            27.124215
          ],
          [
            120.189213,
            27.124192
          ],
          [
            120.189168,
            27.124208
          ],
          [
            120.189045,
            27.12421
          ],
          [
            120.188957,
            27.124152
          ],
          [
            120.189037,
            27.124103
          ],
          [
            120.189043,
            27.12406
          ],
          [
            120.189023,
            27.12402
          ],
          [
            120.188773,
            27.124
          ],
          [
            120.188612,
            27.123883
          ],
          [
            120.188563,
            27.123882
          ],
          [
            120.188522,
            27.123855
          ],
          [
            120.188438,
            27.123872
          ],
          [
            120.18844,
            27.123908
          ],
          [
            120.188488,
            27.123905
          ],
          [
            120.188503,
            27.12397
          ],
          [
            120.188487,
            27.123983
          ],
          [
            120.18835,
            27.123975
          ],
          [
            120.188258,
            27.12399
          ],
          [
            120.188238,
            27.124065
          ],
          [
            120.188382,
            27.124178
          ],
          [
            120.18848,
            27.124217
          ],
          [
            120.188525,
            27.12421
          ],
          [
            120.188542,
            27.124308
          ],
          [
            120.188727,
            27.12437
          ],
          [
            120.188707,
            27.124358
          ],
          [
            120.18873,
            27.12436
          ],
          [
            120.188715,
            27.124347
          ],
          [
            120.188665,
            27.124342
          ],
          [
            120.188617,
            27.124295
          ],
          [
            120.188595,
            27.124302
          ],
          [
            120.188508,
            27.124177
          ],
          [
            120.188485,
            27.12418
          ],
          [
            120.188368,
            27.124127
          ],
          [
            120.188328,
            27.124147
          ],
          [
            120.188305,
            27.124103
          ],
          [
            120.188313,
            27.124085
          ],
          [
            120.188242,
            27.124047
          ],
          [
            120.188193,
            27.123973
          ],
          [
            120.1882,
            27.123943
          ],
          [
            120.188243,
            27.123918
          ],
          [
            120.188237,
            27.1239
          ],
          [
            120.188125,
            27.123803
          ],
          [
            120.188057,
            27.123833
          ],
          [
            120.187988,
            27.123812
          ],
          [
            120.187937,
            27.123815
          ],
          [
            120.187782,
            27.12374
          ],
          [
            120.187682,
            27.12382
          ],
          [
            120.187658,
            27.123822
          ],
          [
            120.187687,
            27.123837
          ],
          [
            120.18772,
            27.123905
          ],
          [
            120.187852,
            27.124045
          ],
          [
            120.18787,
            27.124087
          ],
          [
            120.187967,
            27.124112
          ],
          [
            120.187958,
            27.12407
          ],
          [
            120.187928,
            27.124103
          ],
          [
            120.187858,
            27.1241
          ],
          [
            120.187847,
            27.124083
          ],
          [
            120.187862,
            27.124045
          ],
          [
            120.18767,
            27.12381
          ],
          [
            120.187652,
            27.12374
          ],
          [
            120.187605,
            27.123718
          ],
          [
            120.187537,
            27.123722
          ],
          [
            120.187467,
            27.12369
          ],
          [
            120.187438,
            27.123698
          ],
          [
            120.187465,
            27.123667
          ],
          [
            120.187477,
            27.123683
          ],
          [
            120.187437,
            27.123648
          ],
          [
            120.18738,
            27.123655
          ],
          [
            120.18733,
            27.123642
          ],
          [
            120.187305,
            27.123607
          ],
          [
            120.18684,
            27.12354
          ],
          [
            120.18677,
            27.123517
          ],
          [
            120.186675,
            27.12345
          ],
          [
            120.18649,
            27.123427
          ],
          [
            120.186403,
            27.1234
          ],
          [
            120.186313,
            27.123335
          ],
          [
            120.186285,
            27.123297
          ],
          [
            120.186267,
            27.123215
          ],
          [
            120.186205,
            27.123175
          ],
          [
            120.186138,
            27.123162
          ],
          [
            120.186058,
            27.123217
          ],
          [
            120.185915,
            27.123207
          ],
          [
            120.185653,
            27.123148
          ],
          [
            120.185635,
            27.123125
          ],
          [
            120.185512,
            27.123083
          ],
          [
            120.185478,
            27.123055
          ],
          [
            120.185297,
            27.123042
          ],
          [
            120.185217,
            27.123053
          ],
          [
            120.18505,
            27.123005
          ],
          [
            120.184877,
            27.123077
          ],
          [
            120.184917,
            27.123153
          ],
          [
            120.18489,
            27.123092
          ],
          [
            120.184818,
            27.123093
          ],
          [
            120.18478,
            27.123108
          ],
          [
            120.184748,
            27.123147
          ],
          [
            120.184653,
            27.123157
          ],
          [
            120.184533,
            27.12326
          ],
          [
            120.184373,
            27.12325
          ],
          [
            120.18432,
            27.123292
          ],
          [
            120.184242,
            27.123293
          ],
          [
            120.184158,
            27.123337
          ],
          [
            120.184117,
            27.123365
          ],
          [
            120.18412,
            27.12343
          ],
          [
            120.184102,
            27.123445
          ],
          [
            120.184112,
            27.123488
          ],
          [
            120.184047,
            27.123495
          ],
          [
            120.184018,
            27.123527
          ],
          [
            120.184022,
            27.123548
          ],
          [
            120.183998,
            27.123558
          ],
          [
            120.183643,
            27.123662
          ],
          [
            120.183455,
            27.123675
          ],
          [
            120.18312,
            27.123745
          ],
          [
            120.18304,
            27.123738
          ],
          [
            120.183,
            27.12368
          ],
          [
            120.182975,
            27.123675
          ],
          [
            120.182827,
            27.123728
          ],
          [
            120.182763,
            27.123793
          ],
          [
            120.182727,
            27.123867
          ],
          [
            120.182637,
            27.123852
          ],
          [
            120.182595,
            27.124015
          ],
          [
            120.182597,
            27.124173
          ],
          [
            120.182543,
            27.124268
          ],
          [
            120.182522,
            27.124348
          ],
          [
            120.182453,
            27.124418
          ],
          [
            120.182387,
            27.124542
          ],
          [
            120.182428,
            27.12464
          ],
          [
            120.182522,
            27.124757
          ],
          [
            120.182547,
            27.124753
          ],
          [
            120.182583,
            27.124713
          ],
          [
            120.182598,
            27.124668
          ],
          [
            120.182663,
            27.124678
          ],
          [
            120.182902,
            27.124635
          ],
          [
            120.182927,
            27.124597
          ],
          [
            120.182907,
            27.124587
          ],
          [
            120.182837,
            27.124625
          ],
          [
            120.182922,
            27.12461
          ],
          [
            120.182897,
            27.124602
          ],
          [
            120.182857,
            27.124625
          ],
          [
            120.182723,
            27.124638
          ],
          [
            120.182652,
            27.124663
          ],
          [
            120.182575,
            27.124657
          ],
          [
            120.182518,
            27.124748
          ],
          [
            120.182498,
            27.124743
          ],
          [
            120.18249,
            27.124695
          ],
          [
            120.182417,
            27.124625
          ],
          [
            120.182423,
            27.12456
          ],
          [
            120.182398,
            27.12449
          ],
          [
            120.182413,
            27.124433
          ],
          [
            120.182552,
            27.124285
          ],
          [
            120.182598,
            27.124213
          ],
          [
            120.18256,
            27.124138
          ],
          [
            120.182475,
            27.124053
          ],
          [
            120.181987,
            27.123897
          ],
          [
            120.181877,
            27.123807
          ],
          [
            120.181715,
            27.123768
          ],
          [
            120.181675,
            27.123732
          ],
          [
            120.181613,
            27.123593
          ],
          [
            120.181548,
            27.123552
          ],
          [
            120.181553,
            27.12353
          ],
          [
            120.181567,
            27.123513
          ],
          [
            120.181742,
            27.123482
          ],
          [
            120.181957,
            27.123273
          ],
          [
            120.182012,
            27.123187
          ],
          [
            120.182158,
            27.123137
          ],
          [
            120.182283,
            27.123073
          ],
          [
            120.182518,
            27.123053
          ],
          [
            120.182685,
            27.123083
          ],
          [
            120.182687,
            27.123105
          ],
          [
            120.182663,
            27.123118
          ],
          [
            120.182507,
            27.123125
          ],
          [
            120.182512,
            27.123143
          ],
          [
            120.182427,
            27.123173
          ],
          [
            120.182392,
            27.123202
          ],
          [
            120.18227,
            27.123232
          ],
          [
            120.182273,
            27.123325
          ],
          [
            120.182303,
            27.123342
          ],
          [
            120.182462,
            27.123345
          ],
          [
            120.182602,
            27.123315
          ],
          [
            120.182805,
            27.123233
          ],
          [
            120.182855,
            27.123282
          ],
          [
            120.18297,
            27.123228
          ],
          [
            120.183053,
            27.123157
          ],
          [
            120.183075,
            27.123148
          ],
          [
            120.183085,
            27.123165
          ],
          [
            120.183122,
            27.123097
          ],
          [
            120.183102,
            27.123082
          ],
          [
            120.183088,
            27.123097
          ],
          [
            120.182872,
            27.123092
          ],
          [
            120.18278,
            27.123035
          ],
          [
            120.18273,
            27.123037
          ],
          [
            120.182722,
            27.123053
          ],
          [
            120.182767,
            27.123008
          ],
          [
            120.182743,
            27.122938
          ],
          [
            120.182753,
            27.122873
          ],
          [
            120.182735,
            27.122773
          ],
          [
            120.182707,
            27.122717
          ],
          [
            120.1827,
            27.122758
          ],
          [
            120.182815,
            27.122757
          ],
          [
            120.182832,
            27.122738
          ],
          [
            120.182845,
            27.122757
          ],
          [
            120.182868,
            27.122757
          ],
          [
            120.18302,
            27.122697
          ],
          [
            120.182955,
            27.122668
          ],
          [
            120.182855,
            27.122655
          ],
          [
            120.182865,
            27.122678
          ],
          [
            120.182933,
            27.12271
          ],
          [
            120.1831,
            27.122668
          ],
          [
            120.183185,
            27.122682
          ],
          [
            120.18323,
            27.122662
          ],
          [
            120.183327,
            27.122543
          ],
          [
            120.18333,
            27.122523
          ],
          [
            120.183287,
            27.122507
          ],
          [
            120.183287,
            27.122487
          ],
          [
            120.183312,
            27.122473
          ],
          [
            120.183377,
            27.122525
          ],
          [
            120.183415,
            27.122538
          ],
          [
            120.183435,
            27.122528
          ],
          [
            120.18343,
            27.122462
          ],
          [
            120.183588,
            27.122422
          ],
          [
            120.18366,
            27.122328
          ],
          [
            120.183777,
            27.122277
          ],
          [
            120.18393,
            27.122125
          ],
          [
            120.184017,
            27.122093
          ],
          [
            120.184215,
            27.122077
          ],
          [
            120.184393,
            27.122018
          ],
          [
            120.184442,
            27.12198
          ],
          [
            120.18446,
            27.121942
          ],
          [
            120.18441,
            27.121852
          ],
          [
            120.184428,
            27.121827
          ],
          [
            120.18456,
            27.121725
          ],
          [
            120.184665,
            27.121707
          ],
          [
            120.184673,
            27.121685
          ],
          [
            120.184622,
            27.121683
          ],
          [
            120.18467,
            27.12168
          ],
          [
            120.184672,
            27.121652
          ],
          [
            120.184623,
            27.121572
          ],
          [
            120.184488,
            27.121527
          ],
          [
            120.184412,
            27.121452
          ],
          [
            120.184367,
            27.12145
          ],
          [
            120.184275,
            27.121412
          ],
          [
            120.184182,
            27.121228
          ],
          [
            120.184033,
            27.121065
          ],
          [
            120.184062,
            27.121062
          ],
          [
            120.18409,
            27.121025
          ],
          [
            120.184033,
            27.121072
          ],
          [
            120.183962,
            27.12101
          ],
          [
            120.183955,
            27.120933
          ],
          [
            120.183912,
            27.120898
          ],
          [
            120.183847,
            27.12087
          ],
          [
            120.183773,
            27.120867
          ],
          [
            120.183643,
            27.120793
          ],
          [
            120.183488,
            27.120748
          ],
          [
            120.18331,
            27.120672
          ],
          [
            120.183263,
            27.120665
          ],
          [
            120.183245,
            27.12068
          ],
          [
            120.183223,
            27.120668
          ],
          [
            120.183233,
            27.120623
          ],
          [
            120.183152,
            27.120577
          ],
          [
            120.183085,
            27.120497
          ],
          [
            120.183087,
            27.120473
          ],
          [
            120.183152,
            27.120482
          ],
          [
            120.183172,
            27.120473
          ],
          [
            120.183168,
            27.120453
          ],
          [
            120.182955,
            27.120347
          ],
          [
            120.182938,
            27.120328
          ],
          [
            120.182945,
            27.120308
          ],
          [
            120.182853,
            27.120187
          ],
          [
            120.182875,
            27.120193
          ],
          [
            120.182778,
            27.120207
          ],
          [
            120.182675,
            27.120158
          ],
          [
            120.182607,
            27.12005
          ],
          [
            120.18233,
            27.120015
          ],
          [
            120.18222,
            27.120073
          ],
          [
            120.182152,
            27.12014
          ],
          [
            120.182085,
            27.120158
          ],
          [
            120.181922,
            27.120117
          ],
          [
            120.181827,
            27.120135
          ],
          [
            120.181782,
            27.120117
          ],
          [
            120.181787,
            27.12004
          ],
          [
            120.181762,
            27.120028
          ],
          [
            120.181603,
            27.12004
          ],
          [
            120.181492,
            27.120012
          ],
          [
            120.181405,
            27.120017
          ],
          [
            120.18134,
            27.119973
          ],
          [
            120.181218,
            27.119953
          ],
          [
            120.181173,
            27.119878
          ],
          [
            120.181063,
            27.119865
          ],
          [
            120.18086,
            27.119703
          ],
          [
            120.180908,
            27.119578
          ],
          [
            120.180905,
            27.119503
          ],
          [
            120.180948,
            27.119415
          ],
          [
            120.180957,
            27.119305
          ],
          [
            120.180942,
            27.119235
          ],
          [
            120.180905,
            27.119195
          ],
          [
            120.180742,
            27.119152
          ],
          [
            120.180737,
            27.119127
          ],
          [
            120.180748,
            27.119068
          ],
          [
            120.180765,
            27.119055
          ],
          [
            120.180808,
            27.119062
          ],
          [
            120.180852,
            27.118977
          ],
          [
            120.180953,
            27.11891
          ],
          [
            120.180952,
            27.118863
          ],
          [
            120.180987,
            27.118832
          ],
          [
            120.181252,
            27.118762
          ],
          [
            120.181293,
            27.11881
          ],
          [
            120.18136,
            27.118838
          ],
          [
            120.18156,
            27.11885
          ],
          [
            120.181687,
            27.118788
          ],
          [
            120.181885,
            27.118847
          ],
          [
            120.182113,
            27.118862
          ],
          [
            120.182123,
            27.119072
          ],
          [
            120.182233,
            27.11922
          ],
          [
            120.182285,
            27.119232
          ],
          [
            120.18239,
            27.119197
          ],
          [
            120.182578,
            27.119272
          ],
          [
            120.182847,
            27.119195
          ],
          [
            120.182853,
            27.119177
          ],
          [
            120.18319,
            27.118973
          ],
          [
            120.183197,
            27.11895
          ],
          [
            120.183272,
            27.11895
          ],
          [
            120.183322,
            27.118985
          ],
          [
            120.183377,
            27.119125
          ],
          [
            120.18342,
            27.119177
          ],
          [
            120.183412,
            27.119195
          ],
          [
            120.183518,
            27.119187
          ],
          [
            120.183607,
            27.119223
          ],
          [
            120.183648,
            27.119205
          ],
          [
            120.183665,
            27.11912
          ],
          [
            120.183687,
            27.119108
          ],
          [
            120.183785,
            27.119128
          ],
          [
            120.18389,
            27.119118
          ],
          [
            120.18396,
            27.119083
          ],
          [
            120.184097,
            27.119058
          ],
          [
            120.184118,
            27.119047
          ],
          [
            120.18403,
            27.118882
          ],
          [
            120.183983,
            27.118835
          ],
          [
            120.183988,
            27.118748
          ],
          [
            120.183937,
            27.118703
          ],
          [
            120.183937,
            27.118662
          ],
          [
            120.183907,
            27.118625
          ],
          [
            120.183917,
            27.11859
          ],
          [
            120.183875,
            27.118528
          ],
          [
            120.183873,
            27.11851
          ],
          [
            120.183915,
            27.11848
          ],
          [
            120.184025,
            27.11844
          ],
          [
            120.184047,
            27.118393
          ],
          [
            120.184045,
            27.118348
          ],
          [
            120.183962,
            27.118207
          ],
          [
            120.18384,
            27.11789
          ],
          [
            120.183837,
            27.117685
          ],
          [
            120.183878,
            27.117617
          ],
          [
            120.18387,
            27.117562
          ],
          [
            120.183887,
            27.117505
          ],
          [
            120.184077,
            27.117427
          ],
          [
            120.184363,
            27.117403
          ],
          [
            120.18473,
            27.117402
          ],
          [
            120.184778,
            27.117385
          ],
          [
            120.184845,
            27.117318
          ],
          [
            120.184953,
            27.117252
          ],
          [
            120.18492,
            27.117282
          ],
          [
            120.184942,
            27.117295
          ],
          [
            120.184928,
            27.11732
          ],
          [
            120.185012,
            27.117327
          ],
          [
            120.185097,
            27.117248
          ],
          [
            120.185213,
            27.117177
          ],
          [
            120.185277,
            27.117157
          ],
          [
            120.185625,
            27.117128
          ],
          [
            120.185692,
            27.117138
          ],
          [
            120.185777,
            27.117182
          ],
          [
            120.1858,
            27.117172
          ],
          [
            120.185828,
            27.117087
          ],
          [
            120.185873,
            27.117045
          ],
          [
            120.185928,
            27.117093
          ],
          [
            120.18598,
            27.117252
          ],
          [
            120.18607,
            27.117373
          ],
          [
            120.186002,
            27.117378
          ],
          [
            120.185965,
            27.117283
          ],
          [
            120.185743,
            27.117177
          ],
          [
            120.185653,
            27.117073
          ],
          [
            120.18559,
            27.117028
          ],
          [
            120.18558,
            27.117007
          ],
          [
            120.185602,
            27.116963
          ],
          [
            120.18576,
            27.116933
          ],
          [
            120.185847,
            27.116942
          ],
          [
            120.185993,
            27.117143
          ],
          [
            120.186135,
            27.117235
          ],
          [
            120.186158,
            27.117273
          ],
          [
            120.186153,
            27.117395
          ],
          [
            120.18617,
            27.11744
          ],
          [
            120.186305,
            27.11761
          ],
          [
            120.186413,
            27.11771
          ],
          [
            120.186515,
            27.117865
          ],
          [
            120.186572,
            27.117883
          ],
          [
            120.186727,
            27.117872
          ],
          [
            120.186822,
            27.117913
          ],
          [
            120.186915,
            27.11799
          ],
          [
            120.18707,
            27.118005
          ],
          [
            120.187097,
            27.118042
          ],
          [
            120.1871,
            27.118112
          ],
          [
            120.18714,
            27.11814
          ],
          [
            120.187223,
            27.118163
          ],
          [
            120.187422,
            27.118165
          ],
          [
            120.187568,
            27.118213
          ],
          [
            120.187523,
            27.118232
          ],
          [
            120.18756,
            27.11833
          ],
          [
            120.187555,
            27.118368
          ],
          [
            120.1876,
            27.118405
          ],
          [
            120.18764,
            27.118397
          ],
          [
            120.18771,
            27.11842
          ],
          [
            120.187757,
            27.118398
          ],
          [
            120.18778,
            27.118428
          ],
          [
            120.187913,
            27.118478
          ],
          [
            120.187943,
            27.118512
          ],
          [
            120.188068,
            27.118473
          ],
          [
            120.188125,
            27.118478
          ],
          [
            120.188168,
            27.118508
          ],
          [
            120.188173,
            27.118527
          ],
          [
            120.188147,
            27.11856
          ],
          [
            120.188155,
            27.11858
          ],
          [
            120.188197,
            27.118582
          ],
          [
            120.188208,
            27.118605
          ],
          [
            120.188343,
            27.118618
          ],
          [
            120.188357,
            27.118637
          ],
          [
            120.188323,
            27.118688
          ],
          [
            120.188377,
            27.118727
          ],
          [
            120.188387,
            27.118808
          ],
          [
            120.188448,
            27.118843
          ],
          [
            120.188523,
            27.11892
          ],
          [
            120.188507,
            27.118942
          ],
          [
            120.188442,
            27.118962
          ],
          [
            120.188462,
            27.118968
          ],
          [
            120.18846,
            27.118987
          ],
          [
            120.188393,
            27.11896
          ],
          [
            120.188327,
            27.118893
          ],
          [
            120.188347,
            27.118787
          ],
          [
            120.188323,
            27.118745
          ],
          [
            120.188182,
            27.118643
          ],
          [
            120.188065,
            27.118617
          ],
          [
            120.18802,
            27.118575
          ],
          [
            120.187948,
            27.118568
          ],
          [
            120.187868,
            27.118525
          ],
          [
            120.187847,
            27.118528
          ],
          [
            120.18775,
            27.118625
          ],
          [
            120.187728,
            27.11868
          ],
          [
            120.187742,
            27.1187
          ],
          [
            120.187818,
            27.118733
          ],
          [
            120.187887,
            27.118807
          ],
          [
            120.187835,
            27.11886
          ],
          [
            120.187767,
            27.118875
          ],
          [
            120.18778,
            27.11886
          ],
          [
            120.187755,
            27.118862
          ],
          [
            120.187798,
            27.11895
          ],
          [
            120.187798,
            27.118928
          ],
          [
            120.18778,
            27.118938
          ],
          [
            120.187707,
            27.119015
          ],
          [
            120.187592,
            27.11963
          ],
          [
            120.187568,
            27.119625
          ],
          [
            120.187543,
            27.119668
          ],
          [
            120.187565,
            27.119672
          ],
          [
            120.187553,
            27.119783
          ],
          [
            120.187603,
            27.119872
          ],
          [
            120.187393,
            27.12048
          ],
          [
            120.187413,
            27.120502
          ],
          [
            120.187433,
            27.120498
          ],
          [
            120.18742,
            27.120517
          ],
          [
            120.187452,
            27.120552
          ],
          [
            120.187503,
            27.120562
          ],
          [
            120.187477,
            27.120552
          ],
          [
            120.187465,
            27.120568
          ],
          [
            120.187497,
            27.120602
          ],
          [
            120.187567,
            27.12063
          ],
          [
            120.187578,
            27.120698
          ],
          [
            120.187615,
            27.120723
          ],
          [
            120.18767,
            27.120692
          ],
          [
            120.187692,
            27.120728
          ],
          [
            120.18775,
            27.120763
          ],
          [
            120.187808,
            27.120767
          ],
          [
            120.187855,
            27.12075
          ],
          [
            120.187922,
            27.120765
          ],
          [
            120.187962,
            27.120743
          ],
          [
            120.187948,
            27.120698
          ],
          [
            120.188512,
            27.12067
          ],
          [
            120.188572,
            27.120727
          ],
          [
            120.188735,
            27.120733
          ],
          [
            120.18878,
            27.12073
          ],
          [
            120.18878,
            27.120712
          ],
          [
            120.188812,
            27.120718
          ],
          [
            120.188908,
            27.120805
          ],
          [
            120.189073,
            27.120842
          ],
          [
            120.18915,
            27.120842
          ],
          [
            120.18917,
            27.120875
          ],
          [
            120.18916,
            27.120937
          ],
          [
            120.189188,
            27.121008
          ],
          [
            120.189302,
            27.120915
          ],
          [
            120.189348,
            27.120905
          ],
          [
            120.189415,
            27.12093
          ],
          [
            120.189522,
            27.121007
          ],
          [
            120.189582,
            27.12107
          ],
          [
            120.189717,
            27.121167
          ],
          [
            120.18982,
            27.121515
          ],
          [
            120.18994,
            27.121658
          ],
          [
            120.189977,
            27.12168
          ],
          [
            120.19005,
            27.1218
          ],
          [
            120.190157,
            27.121867
          ],
          [
            120.190158,
            27.121932
          ],
          [
            120.190218,
            27.121967
          ],
          [
            120.190283,
            27.12196
          ],
          [
            120.190433,
            27.122045
          ],
          [
            120.190485,
            27.122033
          ],
          [
            120.190543,
            27.122112
          ],
          [
            120.190625,
            27.122148
          ],
          [
            120.19081,
            27.122282
          ],
          [
            120.190877,
            27.122303
          ],
          [
            120.190925,
            27.122358
          ],
          [
            120.190862,
            27.122438
          ],
          [
            120.190783,
            27.12248
          ],
          [
            120.190735,
            27.122473
          ],
          [
            120.190732,
            27.122428
          ],
          [
            120.190678,
            27.12235
          ],
          [
            120.190607,
            27.122325
          ],
          [
            120.190523,
            27.122348
          ],
          [
            120.190447,
            27.122408
          ],
          [
            120.190317,
            27.122468
          ],
          [
            120.190272,
            27.122465
          ],
          [
            120.190217,
            27.122418
          ],
          [
            120.19006,
            27.122455
          ],
          [
            120.189967,
            27.12245
          ],
          [
            120.189903,
            27.12248
          ],
          [
            120.1899,
            27.122527
          ],
          [
            120.18994,
            27.1226
          ],
          [
            120.189925,
            27.122562
          ],
          [
            120.18992,
            27.122608
          ],
          [
            120.189945,
            27.122588
          ],
          [
            120.190155,
            27.122535
          ],
          [
            120.190392,
            27.122688
          ],
          [
            120.190417,
            27.122727
          ],
          [
            120.190422,
            27.122778
          ],
          [
            120.19054,
            27.122898
          ],
          [
            120.190638,
            27.12292
          ],
          [
            120.190678,
            27.122945
          ],
          [
            120.190725,
            27.122943
          ],
          [
            120.19102,
            27.123108
          ],
          [
            120.19104,
            27.123127
          ],
          [
            120.191047,
            27.123228
          ],
          [
            120.191062,
            27.123242
          ],
          [
            120.191137,
            27.12324
          ],
          [
            120.191212,
            27.123217
          ],
          [
            120.191292,
            27.123255
          ],
          [
            120.191325,
            27.12329
          ],
          [
            120.191468,
            27.123347
          ],
          [
            120.191513,
            27.123392
          ],
          [
            120.191505,
            27.123432
          ],
          [
            120.191492,
            27.123452
          ],
          [
            120.191418,
            27.123467
          ],
          [
            120.191392,
            27.123508
          ],
          [
            120.191407,
            27.123602
          ],
          [
            120.191462,
            27.123687
          ],
          [
            120.19155,
            27.12376
          ],
          [
            120.19165,
            27.123793
          ],
          [
            120.191678,
            27.123827
          ],
          [
            120.191913,
            27.123897
          ],
          [
            120.191888,
            27.123965
          ],
          [
            120.191905,
            27.123988
          ],
          [
            120.192,
            27.12406
          ],
          [
            120.192018,
            27.124108
          ],
          [
            120.192232,
            27.124237
          ],
          [
            120.192305,
            27.124398
          ],
          [
            120.192428,
            27.12452
          ],
          [
            120.192473,
            27.124533
          ],
          [
            120.192583,
            27.124363
          ],
          [
            120.19265,
            27.124323
          ],
          [
            120.192723,
            27.124208
          ],
          [
            120.192727,
            27.124172
          ],
          [
            120.192683,
            27.124073
          ],
          [
            120.19269,
            27.12401
          ],
          [
            120.192703,
            27.123992
          ],
          [
            120.19278,
            27.12399
          ],
          [
            120.192858,
            27.123937
          ],
          [
            120.192905,
            27.123878
          ],
          [
            120.192995,
            27.123952
          ],
          [
            120.193098,
            27.123967
          ],
          [
            120.193203,
            27.124015
          ],
          [
            120.193412,
            27.124018
          ],
          [
            120.19379,
            27.12419
          ],
          [
            120.193987,
            27.124242
          ],
          [
            120.19405,
            27.124282
          ],
          [
            120.19428,
            27.124352
          ],
          [
            120.194432,
            27.124472
          ],
          [
            120.194487,
            27.124468
          ],
          [
            120.194537,
            27.124443
          ],
          [
            120.194562,
            27.1244
          ],
          [
            120.194545,
            27.124388
          ],
          [
            120.194718,
            27.124425
          ],
          [
            120.194842,
            27.124405
          ],
          [
            120.1949,
            27.124353
          ],
          [
            120.194943,
            27.124255
          ],
          [
            120.194948,
            27.124143
          ],
          [
            120.194917,
            27.124
          ],
          [
            120.194917,
            27.123908
          ],
          [
            120.195013,
            27.123558
          ],
          [
            120.195045,
            27.123523
          ],
          [
            120.195185,
            27.12347
          ],
          [
            120.195048,
            27.123512
          ],
          [
            120.195045,
            27.123468
          ],
          [
            120.195087,
            27.12338
          ],
          [
            120.195182,
            27.123343
          ],
          [
            120.195312,
            27.123333
          ],
          [
            120.19534,
            27.123298
          ],
          [
            120.195322,
            27.123257
          ],
          [
            120.195332,
            27.123237
          ],
          [
            120.195403,
            27.123228
          ],
          [
            120.195468,
            27.123197
          ],
          [
            120.195613,
            27.123215
          ],
          [
            120.19566,
            27.1233
          ],
          [
            120.195743,
            27.123345
          ],
          [
            120.19594,
            27.123373
          ],
          [
            120.196067,
            27.12336
          ],
          [
            120.196243,
            27.123372
          ],
          [
            120.196532,
            27.123338
          ],
          [
            120.19674,
            27.123332
          ],
          [
            120.197065,
            27.123252
          ],
          [
            120.19718,
            27.123197
          ],
          [
            120.197247,
            27.123147
          ],
          [
            120.19733,
            27.123048
          ],
          [
            120.1974,
            27.123
          ],
          [
            120.197532,
            27.122833
          ],
          [
            120.197552,
            27.122785
          ],
          [
            120.197538,
            27.122763
          ],
          [
            120.197458,
            27.12273
          ],
          [
            120.197557,
            27.122727
          ],
          [
            120.197622,
            27.122693
          ],
          [
            120.197715,
            27.122705
          ],
          [
            120.197752,
            27.122643
          ],
          [
            120.197745,
            27.122607
          ],
          [
            120.197783,
            27.122587
          ],
          [
            120.197817,
            27.122518
          ],
          [
            120.197963,
            27.122408
          ],
          [
            120.198067,
            27.12237
          ],
          [
            120.198078,
            27.122328
          ],
          [
            120.19803,
            27.122262
          ],
          [
            120.198075,
            27.122133
          ],
          [
            120.19804,
            27.121997
          ],
          [
            120.198033,
            27.121878
          ],
          [
            120.198097,
            27.121855
          ],
          [
            120.198158,
            27.121807
          ],
          [
            120.198243,
            27.121683
          ],
          [
            120.19829,
            27.121555
          ],
          [
            120.198327,
            27.12153
          ],
          [
            120.198387,
            27.121557
          ],
          [
            120.198457,
            27.121712
          ],
          [
            120.19851,
            27.121767
          ],
          [
            120.198767,
            27.12189
          ],
          [
            120.199035,
            27.121912
          ],
          [
            120.199407,
            27.12188
          ],
          [
            120.19973,
            27.121888
          ],
          [
            120.200288,
            27.122103
          ],
          [
            120.200545,
            27.122155
          ],
          [
            120.200678,
            27.122127
          ],
          [
            120.200835,
            27.12217
          ],
          [
            120.200913,
            27.122145
          ],
          [
            120.201623,
            27.12205
          ],
          [
            120.201687,
            27.122007
          ],
          [
            120.201733,
            27.121918
          ],
          [
            120.201735,
            27.121872
          ],
          [
            120.20168,
            27.121832
          ],
          [
            120.201698,
            27.121818
          ],
          [
            120.20176,
            27.121802
          ],
          [
            120.201885,
            27.121825
          ],
          [
            120.20209,
            27.121748
          ],
          [
            120.202087,
            27.121728
          ],
          [
            120.202002,
            27.12176
          ],
          [
            120.202082,
            27.121752
          ],
          [
            120.20207,
            27.121812
          ],
          [
            120.202082,
            27.121908
          ],
          [
            120.202153,
            27.121958
          ],
          [
            120.202495,
            27.12191
          ],
          [
            120.2026,
            27.121903
          ],
          [
            120.202643,
            27.121917
          ],
          [
            120.20273,
            27.121887
          ],
          [
            120.202868,
            27.121863
          ],
          [
            120.202922,
            27.121868
          ],
          [
            120.202938,
            27.121883
          ],
          [
            120.202928,
            27.121965
          ],
          [
            120.202962,
            27.122025
          ],
          [
            120.202985,
            27.12202
          ],
          [
            120.203002,
            27.121953
          ],
          [
            120.203032,
            27.121962
          ],
          [
            120.20322,
            27.122172
          ],
          [
            120.203283,
            27.122217
          ],
          [
            120.20342,
            27.122277
          ],
          [
            120.203575,
            27.122257
          ],
          [
            120.20372,
            27.122158
          ],
          [
            120.203768,
            27.122165
          ],
          [
            120.203768,
            27.12214
          ],
          [
            120.203732,
            27.122102
          ],
          [
            120.203748,
            27.122085
          ],
          [
            120.203897,
            27.122022
          ],
          [
            120.204027,
            27.121938
          ],
          [
            120.204077,
            27.121953
          ],
          [
            120.20414,
            27.122025
          ],
          [
            120.204192,
            27.121987
          ],
          [
            120.204222,
            27.122088
          ],
          [
            120.204337,
            27.122128
          ],
          [
            120.204628,
            27.122032
          ],
          [
            120.204762,
            27.122005
          ],
          [
            120.204842,
            27.121967
          ],
          [
            120.204938,
            27.121952
          ],
          [
            120.205288,
            27.121952
          ],
          [
            120.205398,
            27.12192
          ],
          [
            120.205515,
            27.121908
          ],
          [
            120.205697,
            27.121948
          ],
          [
            120.205897,
            27.121932
          ],
          [
            120.20611,
            27.121863
          ],
          [
            120.206263,
            27.121868
          ],
          [
            120.206355,
            27.121833
          ],
          [
            120.206407,
            27.12179
          ],
          [
            120.206458,
            27.121795
          ],
          [
            120.206527,
            27.121767
          ],
          [
            120.206592,
            27.121732
          ],
          [
            120.206613,
            27.121665
          ],
          [
            120.206652,
            27.12164
          ],
          [
            120.206777,
            27.121632
          ],
          [
            120.206923,
            27.121512
          ],
          [
            120.207017,
            27.12147
          ],
          [
            120.207155,
            27.121378
          ],
          [
            120.207315,
            27.121178
          ],
          [
            120.207387,
            27.121127
          ],
          [
            120.20742,
            27.121082
          ],
          [
            120.207502,
            27.121052
          ],
          [
            120.207803,
            27.120727
          ],
          [
            120.207848,
            27.120648
          ],
          [
            120.207915,
            27.120427
          ],
          [
            120.208017,
            27.12032
          ],
          [
            120.208158,
            27.120288
          ],
          [
            120.208247,
            27.120285
          ],
          [
            120.208402,
            27.120157
          ],
          [
            120.208515,
            27.120105
          ],
          [
            120.208615,
            27.120148
          ],
          [
            120.208778,
            27.120132
          ],
          [
            120.208817,
            27.12015
          ],
          [
            120.208847,
            27.120113
          ],
          [
            120.208903,
            27.120095
          ],
          [
            120.20895,
            27.12005
          ],
          [
            120.208978,
            27.119987
          ],
          [
            120.209018,
            27.119987
          ],
          [
            120.209093,
            27.119937
          ],
          [
            120.209135,
            27.119948
          ],
          [
            120.20917,
            27.119925
          ],
          [
            120.209198,
            27.119887
          ],
          [
            120.20918,
            27.119848
          ],
          [
            120.209253,
            27.11985
          ],
          [
            120.209273,
            27.119805
          ],
          [
            120.209347,
            27.119818
          ],
          [
            120.209402,
            27.119777
          ],
          [
            120.209518,
            27.119843
          ],
          [
            120.209467,
            27.120042
          ],
          [
            120.209498,
            27.120097
          ],
          [
            120.209563,
            27.120087
          ],
          [
            120.209617,
            27.120103
          ],
          [
            120.20973,
            27.120157
          ],
          [
            120.209765,
            27.12019
          ],
          [
            120.209952,
            27.120133
          ],
          [
            120.209982,
            27.120143
          ],
          [
            120.210027,
            27.120197
          ],
          [
            120.210098,
            27.1202
          ],
          [
            120.210185,
            27.120247
          ],
          [
            120.210453,
            27.120338
          ],
          [
            120.210573,
            27.12046
          ],
          [
            120.21067,
            27.1205
          ],
          [
            120.210782,
            27.1206
          ],
          [
            120.210843,
            27.12084
          ],
          [
            120.21087,
            27.12087
          ],
          [
            120.210925,
            27.120863
          ],
          [
            120.211063,
            27.120763
          ],
          [
            120.211092,
            27.120775
          ],
          [
            120.211097,
            27.120912
          ],
          [
            120.21118,
            27.120962
          ],
          [
            120.211273,
            27.120975
          ],
          [
            120.211495,
            27.120962
          ],
          [
            120.211718,
            27.120983
          ],
          [
            120.211817,
            27.121007
          ],
          [
            120.21199,
            27.120967
          ],
          [
            120.212103,
            27.120965
          ],
          [
            120.212152,
            27.120978
          ],
          [
            120.212242,
            27.121053
          ],
          [
            120.212297,
            27.121072
          ],
          [
            120.212598,
            27.120987
          ],
          [
            120.212673,
            27.120948
          ],
          [
            120.212882,
            27.1209
          ],
          [
            120.21302,
            27.120905
          ],
          [
            120.213197,
            27.120952
          ],
          [
            120.213245,
            27.120987
          ],
          [
            120.2133,
            27.121088
          ],
          [
            120.213367,
            27.121142
          ],
          [
            120.213497,
            27.121187
          ],
          [
            120.213753,
            27.121322
          ],
          [
            120.21389,
            27.121365
          ],
          [
            120.213922,
            27.121423
          ],
          [
            120.213893,
            27.121495
          ],
          [
            120.213887,
            27.121632
          ],
          [
            120.213977,
            27.121805
          ],
          [
            120.214035,
            27.121862
          ],
          [
            120.214178,
            27.12195
          ],
          [
            120.214207,
            27.121993
          ],
          [
            120.214203,
            27.122182
          ],
          [
            120.214355,
            27.122287
          ],
          [
            120.214635,
            27.122393
          ],
          [
            120.214763,
            27.12241
          ],
          [
            120.214945,
            27.12238
          ],
          [
            120.215175,
            27.122253
          ],
          [
            120.215582,
            27.122082
          ],
          [
            120.215812,
            27.12195
          ],
          [
            120.215917,
            27.121867
          ],
          [
            120.215947,
            27.121867
          ],
          [
            120.21613,
            27.121968
          ],
          [
            120.21623,
            27.122052
          ],
          [
            120.216293,
            27.122132
          ],
          [
            120.216445,
            27.122247
          ],
          [
            120.216485,
            27.122362
          ],
          [
            120.216465,
            27.122427
          ],
          [
            120.216413,
            27.12247
          ],
          [
            120.216312,
            27.122503
          ],
          [
            120.216143,
            27.122527
          ],
          [
            120.216098,
            27.12257
          ],
          [
            120.216135,
            27.12289
          ],
          [
            120.216155,
            27.122918
          ],
          [
            120.216193,
            27.122932
          ],
          [
            120.216302,
            27.12295
          ],
          [
            120.216533,
            27.123227
          ],
          [
            120.216667,
            27.12335
          ],
          [
            120.216725,
            27.123495
          ],
          [
            120.216867,
            27.123595
          ],
          [
            120.216915,
            27.123725
          ],
          [
            120.216985,
            27.123778
          ],
          [
            120.216967,
            27.12389
          ],
          [
            120.216987,
            27.123912
          ],
          [
            120.217017,
            27.123907
          ],
          [
            120.217092,
            27.123843
          ],
          [
            120.217123,
            27.123835
          ],
          [
            120.217148,
            27.123875
          ],
          [
            120.217127,
            27.123997
          ],
          [
            120.21709,
            27.124037
          ],
          [
            120.216972,
            27.124087
          ],
          [
            120.216938,
            27.124163
          ],
          [
            120.216948,
            27.124245
          ],
          [
            120.216993,
            27.124333
          ],
          [
            120.21703,
            27.124465
          ],
          [
            120.217088,
            27.12444
          ],
          [
            120.217245,
            27.124608
          ],
          [
            120.217403,
            27.124543
          ],
          [
            120.21753,
            27.124527
          ],
          [
            120.217607,
            27.124388
          ],
          [
            120.217652,
            27.12435
          ],
          [
            120.217915,
            27.124357
          ],
          [
            120.218072,
            27.124387
          ],
          [
            120.218127,
            27.124353
          ],
          [
            120.218422,
            27.124048
          ],
          [
            120.21851,
            27.123993
          ],
          [
            120.218612,
            27.123973
          ],
          [
            120.218703,
            27.123978
          ],
          [
            120.219158,
            27.12413
          ],
          [
            120.219225,
            27.124185
          ],
          [
            120.219345,
            27.124328
          ],
          [
            120.21937,
            27.124435
          ],
          [
            120.219358,
            27.12462
          ],
          [
            120.219397,
            27.1248
          ],
          [
            120.219393,
            27.124988
          ],
          [
            120.219477,
            27.125447
          ],
          [
            120.21949,
            27.125572
          ],
          [
            120.219478,
            27.125722
          ],
          [
            120.219505,
            27.12581
          ],
          [
            120.219538,
            27.126257
          ],
          [
            120.219582,
            27.126453
          ]
        ]
      }
    }
  ]
}
