{
  "type": "FeatureCollection",
  "features": [
    {
      "type": "Feature",
      "properties": {
        "name": "腾格里五湖连穿参考轨迹",
        "type": "hiking",
        "source": "两步路用户轨迹",
        "segments": 1
      },
      "geometry": {
        "type": "LineString",
        "coordinates": [
          [
            105.238893,
            38.70266
          ],
          [
            105.239085,
            38.702842
          ],
          [
            105.239215,
            38.7029
          ],
          [
            105.239387,
            38.703062
          ],
          [
            105.239588,
            38.703147
          ],
          [
            105.239678,
            38.70326
          ],
          [
            105.239867,
            38.703355
          ],
          [
            105.239962,
            38.703458
          ],
          [
            105.240107,
            38.703528
          ],
          [
            105.2405,
            38.703563
          ],
          [
            105.241085,
            38.703285
          ],
          [
            105.241162,
            38.703278
          ],
          [
            105.241423,
            38.703073
          ],
          [
            105.241435,
            38.702692
          ],
          [
            105.241658,
            38.70253
          ],
          [
            105.241845,
            38.702565
          ],
          [
            105.24177,
            38.702495
          ],
          [
            105.241813,
            38.702358
          ],
          [
            105.242268,
            38.70218
          ],
          [
            105.242553,
            38.702122
          ],
          [
            105.242708,
            38.702038
          ],
          [
            105.243057,
            38.701942
          ],
          [
            105.24319,
            38.70185
          ],
          [
            105.243425,
            38.701558
          ],
          [
            105.243717,
            38.70152
          ],
          [
            105.244197,
            38.701282
          ],
          [
            105.24477,
            38.701147
          ],
          [
            105.245187,
            38.700968
          ],
          [
            105.245392,
            38.701053
          ],
          [
            105.245622,
            38.700968
          ],
          [
            105.245755,
            38.700975
          ],
          [
            105.245855,
            38.700995
          ],
          [
            105.246033,
            38.701105
          ],
          [
            105.246092,
            38.7011
          ],
          [
            105.24655,
            38.700835
          ],
          [
            105.246778,
            38.700593
          ],
          [
            105.246998,
            38.700442
          ],
          [
            105.247188,
            38.700393
          ],
          [
            105.247505,
            38.700238
          ],
          [
            105.24768,
            38.700273
          ],
          [
            105.24794,
            38.700238
          ],
          [
            105.248198,
            38.700247
          ],
          [
            105.248377,
            38.70023
          ],
          [
            105.248677,
            38.70014
          ],
          [
            105.249797,
            38.700668
          ],
          [
            105.250252,
            38.7007
          ],
          [
            105.2504,
            38.700665
          ],
          [
            105.250813,
            38.70065
          ],
          [
            105.250977,
            38.700813
          ],
          [
            105.25127,
            38.700867
          ],
          [
            105.251513,
            38.700993
          ],
          [
            105.252533,
            38.700922
          ],
          [
            105.252812,
            38.700783
          ],
          [
            105.253052,
            38.70056
          ],
          [
            105.253218,
            38.700502
          ],
          [
            105.253773,
            38.700175
          ],
          [
            105.254047,
            38.700077
          ],
          [
            105.254348,
            38.69983
          ],
          [
            105.255558,
            38.699245
          ],
          [
            105.255815,
            38.699012
          ],
          [
            105.256057,
            38.698878
          ],
          [
            105.25648,
            38.69874
          ],
          [
            105.256563,
            38.698667
          ],
          [
            105.256575,
            38.698565
          ],
          [
            105.256938,
            38.698283
          ],
          [
            105.257428,
            38.698093
          ],
          [
            105.257673,
            38.69775
          ],
          [
            105.257943,
            38.697493
          ],
          [
            105.258168,
            38.697357
          ],
          [
            105.258267,
            38.697328
          ],
          [
            105.258335,
            38.697267
          ],
          [
            105.258583,
            38.697325
          ],
          [
            105.25897,
            38.69711
          ],
          [
            105.259017,
            38.697018
          ],
          [
            105.259153,
            38.69694
          ],
          [
            105.259415,
            38.696947
          ],
          [
            105.259865,
            38.696613
          ],
          [
            105.26022,
            38.696512
          ],
          [
            105.260487,
            38.696175
          ],
          [
            105.260735,
            38.696013
          ],
          [
            105.260975,
            38.695928
          ],
          [
            105.261287,
            38.69569
          ],
          [
            105.261562,
            38.695742
          ],
          [
            105.26182,
            38.69567
          ],
          [
            105.262215,
            38.695157
          ],
          [
            105.26247,
            38.695017
          ],
          [
            105.2627,
            38.694733
          ],
          [
            105.262912,
            38.694615
          ],
          [
            105.26308,
            38.694573
          ],
          [
            105.263403,
            38.69442
          ],
          [
            105.263493,
            38.69434
          ],
          [
            105.263927,
            38.694115
          ],
          [
            105.264173,
            38.694158
          ],
          [
            105.264567,
            38.694038
          ],
          [
            105.264715,
            38.694045
          ],
          [
            105.264847,
            38.694013
          ],
          [
            105.265117,
            38.693908
          ],
          [
            105.265325,
            38.693778
          ],
          [
            105.265717,
            38.693645
          ],
          [
            105.266123,
            38.69344
          ],
          [
            105.266158,
            38.693385
          ],
          [
            105.266462,
            38.69325
          ],
          [
            105.26669,
            38.693165
          ],
          [
            105.266972,
            38.69314
          ],
          [
            105.267203,
            38.69302
          ],
          [
            105.2677,
            38.692842
          ],
          [
            105.26788,
            38.692735
          ],
          [
            105.268295,
            38.69262
          ],
          [
            105.268703,
            38.69265
          ],
          [
            105.268773,
            38.69231
          ],
          [
            105.269105,
            38.692103
          ],
          [
            105.269392,
            38.691988
          ],
          [
            105.269438,
            38.691933
          ],
          [
            105.26942,
            38.691898
          ],
          [
            105.269487,
            38.69184
          ],
          [
            105.269723,
            38.69179
          ],
          [
            105.269972,
            38.691645
          ],
          [
            105.27005,
            38.69163
          ],
          [
            105.270197,
            38.69168
          ],
          [
            105.270358,
            38.691625
          ],
          [
            105.270708,
            38.691448
          ],
          [
            105.27083,
            38.691275
          ],
          [
            105.271043,
            38.691133
          ],
          [
            105.27173,
            38.69099
          ],
          [
            105.271902,
            38.690803
          ],
          [
            105.271997,
            38.69076
          ],
          [
            105.272497,
            38.69063
          ],
          [
            105.272637,
            38.690653
          ],
          [
            105.272862,
            38.690565
          ],
          [
            105.273385,
            38.690442
          ],
          [
            105.273928,
            38.690373
          ],
          [
            105.274152,
            38.690403
          ],
          [
            105.274463,
            38.69031
          ],
          [
            105.274655,
            38.690297
          ],
          [
            105.274837,
            38.690228
          ],
          [
            105.275087,
            38.690233
          ],
          [
            105.275348,
            38.690132
          ],
          [
            105.275425,
            38.690132
          ],
          [
            105.275503,
            38.690177
          ],
          [
            105.275657,
            38.690177
          ],
          [
            105.27599,
            38.69008
          ],
          [
            105.276233,
            38.690032
          ],
          [
            105.276312,
            38.690045
          ],
          [
            105.276482,
            38.689948
          ],
          [
            105.276923,
            38.689928
          ],
          [
            105.277278,
            38.689695
          ],
          [
            105.277443,
            38.68949
          ],
          [
            105.277577,
            38.68944
          ],
          [
            105.277798,
            38.68944
          ],
          [
            105.278167,
            38.689272
          ],
          [
            105.27835,
            38.689132
          ],
          [
            105.278602,
            38.688513
          ],
          [
            105.278648,
            38.688372
          ],
          [
            105.278585,
            38.688418
          ],
          [
            105.278652,
            38.688345
          ],
          [
            105.278658,
            38.68826
          ],
          [
            105.278862,
            38.688113
          ],
          [
            105.279332,
            38.687157
          ],
          [
            105.279522,
            38.68666
          ],
          [
            105.27972,
            38.68631
          ],
          [
            105.279787,
            38.686222
          ],
          [
            105.280075,
            38.68607
          ],
          [
            105.280287,
            38.685858
          ],
          [
            105.280342,
            38.68571
          ],
          [
            105.28067,
            38.685357
          ],
          [
            105.281098,
            38.685053
          ],
          [
            105.281582,
            38.684495
          ],
          [
            105.281965,
            38.684125
          ],
          [
            105.282055,
            38.683983
          ],
          [
            105.282085,
            38.683652
          ],
          [
            105.28229,
            38.683353
          ],
          [
            105.282503,
            38.683125
          ],
          [
            105.282862,
            38.682903
          ],
          [
            105.28307,
            38.682865
          ],
          [
            105.283348,
            38.68289
          ],
          [
            105.283662,
            38.682873
          ],
          [
            105.284397,
            38.683025
          ],
          [
            105.284467,
            38.683233
          ],
          [
            105.284455,
            38.683168
          ],
          [
            105.28433,
            38.68302
          ],
          [
            105.284163,
            38.683028
          ],
          [
            105.284068,
            38.682988
          ],
          [
            105.284272,
            38.682632
          ],
          [
            105.284267,
            38.682485
          ],
          [
            105.284227,
            38.682425
          ],
          [
            105.28415,
            38.68237
          ],
          [
            105.283845,
            38.682342
          ],
          [
            105.283752,
            38.682293
          ],
          [
            105.283875,
            38.682102
          ],
          [
            105.28385,
            38.682005
          ],
          [
            105.284143,
            38.681213
          ],
          [
            105.284352,
            38.680855
          ],
          [
            105.284682,
            38.680493
          ],
          [
            105.284737,
            38.680268
          ],
          [
            105.28393,
            38.679648
          ],
          [
            105.28386,
            38.679537
          ],
          [
            105.283845,
            38.679232
          ],
          [
            105.28377,
            38.679008
          ],
          [
            105.283812,
            38.678825
          ],
          [
            105.283683,
            38.678613
          ],
          [
            105.283678,
            38.67848
          ],
          [
            105.283488,
            38.678217
          ],
          [
            105.283397,
            38.677998
          ],
          [
            105.283045,
            38.67769
          ],
          [
            105.28311,
            38.676897
          ],
          [
            105.282863,
            38.676383
          ],
          [
            105.282735,
            38.676202
          ],
          [
            105.282722,
            38.676085
          ],
          [
            105.281837,
            38.67528
          ],
          [
            105.281478,
            38.675042
          ],
          [
            105.281288,
            38.674963
          ],
          [
            105.281145,
            38.674778
          ],
          [
            105.280937,
            38.674777
          ],
          [
            105.280582,
            38.6747
          ],
          [
            105.28028,
            38.67453
          ],
          [
            105.280132,
            38.674007
          ],
          [
            105.2799,
            38.673437
          ],
          [
            105.279843,
            38.67316
          ],
          [
            105.279847,
            38.67296
          ],
          [
            105.279645,
            38.672517
          ],
          [
            105.27943,
            38.67228
          ],
          [
            105.27944,
            38.672072
          ],
          [
            105.279297,
            38.67178
          ],
          [
            105.279165,
            38.671673
          ],
          [
            105.27898,
            38.671598
          ],
          [
            105.278795,
            38.671437
          ],
          [
            105.27824,
            38.671217
          ],
          [
            105.277742,
            38.670875
          ],
          [
            105.277462,
            38.670528
          ],
          [
            105.277138,
            38.670248
          ],
          [
            105.276855,
            38.669892
          ],
          [
            105.276608,
            38.669668
          ],
          [
            105.276468,
            38.669483
          ],
          [
            105.276232,
            38.669042
          ],
          [
            105.276052,
            38.668843
          ],
          [
            105.275525,
            38.668437
          ],
          [
            105.275242,
            38.66807
          ],
          [
            105.274962,
            38.667918
          ],
          [
            105.274562,
            38.667618
          ],
          [
            105.274525,
            38.667477
          ],
          [
            105.274588,
            38.667207
          ],
          [
            105.27454,
            38.667023
          ],
          [
            105.274543,
            38.666735
          ],
          [
            105.274437,
            38.666437
          ],
          [
            105.274432,
            38.666292
          ],
          [
            105.274288,
            38.666112
          ],
          [
            105.273978,
            38.665848
          ],
          [
            105.273652,
            38.665502
          ],
          [
            105.273585,
            38.665362
          ],
          [
            105.273425,
            38.665282
          ],
          [
            105.273273,
            38.665015
          ],
          [
            105.273123,
            38.66488
          ],
          [
            105.272995,
            38.664598
          ],
          [
            105.27268,
            38.664247
          ],
          [
            105.272712,
            38.663927
          ],
          [
            105.27254,
            38.663808
          ],
          [
            105.272223,
            38.663145
          ],
          [
            105.271963,
            38.662817
          ],
          [
            105.271607,
            38.662685
          ],
          [
            105.271438,
            38.662685
          ],
          [
            105.271338,
            38.662718
          ],
          [
            105.271193,
            38.662697
          ],
          [
            105.271095,
            38.662583
          ],
          [
            105.270897,
            38.662443
          ],
          [
            105.270675,
            38.662338
          ],
          [
            105.270527,
            38.662307
          ],
          [
            105.270262,
            38.662105
          ],
          [
            105.270062,
            38.662063
          ],
          [
            105.270005,
            38.661953
          ],
          [
            105.269522,
            38.661527
          ],
          [
            105.269458,
            38.661323
          ],
          [
            105.26932,
            38.661155
          ],
          [
            105.269053,
            38.660932
          ],
          [
            105.268968,
            38.66092
          ],
          [
            105.268832,
            38.660967
          ],
          [
            105.268487,
            38.660912
          ],
          [
            105.268422,
            38.660785
          ],
          [
            105.268218,
            38.66065
          ],
          [
            105.268048,
            38.660467
          ],
          [
            105.267797,
            38.660042
          ],
          [
            105.2676,
            38.659897
          ],
          [
            105.267245,
            38.659717
          ],
          [
            105.26706,
            38.65946
          ],
          [
            105.266667,
            38.65927
          ],
          [
            105.266377,
            38.659052
          ],
          [
            105.266167,
            38.658665
          ],
          [
            105.265947,
            38.658472
          ],
          [
            105.265897,
            38.65847
          ],
          [
            105.265843,
            38.658367
          ],
          [
            105.265747,
            38.65834
          ],
          [
            105.265662,
            38.657942
          ],
          [
            105.265475,
            38.657695
          ],
          [
            105.265377,
            38.657388
          ],
          [
            105.26523,
            38.657285
          ],
          [
            105.26518,
            38.657162
          ],
          [
            105.264815,
            38.65678
          ],
          [
            105.264678,
            38.656698
          ],
          [
            105.264357,
            38.656305
          ],
          [
            105.26352,
            38.655618
          ],
          [
            105.263493,
            38.655553
          ],
          [
            105.263272,
            38.655348
          ],
          [
            105.263177,
            38.655188
          ],
          [
            105.262892,
            38.654982
          ],
          [
            105.262852,
            38.654897
          ],
          [
            105.262713,
            38.65489
          ],
          [
            105.26249,
            38.654647
          ],
          [
            105.262508,
            38.654707
          ],
          [
            105.262587,
            38.654703
          ],
          [
            105.262588,
            38.65461
          ],
          [
            105.262328,
            38.654427
          ],
          [
            105.261937,
            38.653998
          ],
          [
            105.261778,
            38.653738
          ],
          [
            105.261508,
            38.653443
          ],
          [
            105.260952,
            38.652982
          ],
          [
            105.260365,
            38.652713
          ],
          [
            105.259437,
            38.652505
          ],
          [
            105.259062,
            38.652265
          ],
          [
            105.25859,
            38.651775
          ],
          [
            105.258563,
            38.651628
          ],
          [
            105.258468,
            38.651463
          ],
          [
            105.258233,
            38.651322
          ],
          [
            105.258063,
            38.651057
          ],
          [
            105.257947,
            38.650997
          ],
          [
            105.257785,
            38.650832
          ],
          [
            105.257598,
            38.65054
          ],
          [
            105.257542,
            38.650277
          ],
          [
            105.257457,
            38.650142
          ],
          [
            105.257257,
            38.650015
          ],
          [
            105.256968,
            38.649902
          ],
          [
            105.256658,
            38.649845
          ],
          [
            105.256412,
            38.649515
          ],
          [
            105.255745,
            38.649152
          ],
          [
            105.255135,
            38.648973
          ],
          [
            105.254975,
            38.648802
          ],
          [
            105.254713,
            38.648643
          ],
          [
            105.254445,
            38.648327
          ],
          [
            105.254177,
            38.648193
          ],
          [
            105.25404,
            38.648042
          ],
          [
            105.253652,
            38.647767
          ],
          [
            105.253282,
            38.647363
          ],
          [
            105.252692,
            38.64701
          ],
          [
            105.252453,
            38.64674
          ],
          [
            105.252435,
            38.646637
          ],
          [
            105.252362,
            38.64657
          ],
          [
            105.251728,
            38.646258
          ],
          [
            105.251578,
            38.646152
          ],
          [
            105.251455,
            38.645925
          ],
          [
            105.250862,
            38.645357
          ],
          [
            105.250748,
            38.645092
          ],
          [
            105.250398,
            38.64475
          ],
          [
            105.25034,
            38.644618
          ],
          [
            105.250227,
            38.644497
          ],
          [
            105.249838,
            38.644322
          ],
          [
            105.24973,
            38.644142
          ],
          [
            105.249108,
            38.643713
          ],
          [
            105.24876,
            38.64352
          ],
          [
            105.248538,
            38.64324
          ],
          [
            105.248282,
            38.643077
          ],
          [
            105.248207,
            38.642925
          ],
          [
            105.248047,
            38.64279
          ],
          [
            105.247783,
            38.64261
          ],
          [
            105.247238,
            38.642322
          ],
          [
            105.246872,
            38.641983
          ],
          [
            105.246793,
            38.64197
          ],
          [
            105.246568,
            38.64183
          ],
          [
            105.246237,
            38.641735
          ],
          [
            105.245787,
            38.641207
          ],
          [
            105.245223,
            38.640785
          ],
          [
            105.244657,
            38.640565
          ],
          [
            105.244247,
            38.640512
          ],
          [
            105.244295,
            38.640538
          ],
          [
            105.244278,
            38.640517
          ],
          [
            105.24438,
            38.640487
          ],
          [
            105.244342,
            38.64041
          ],
          [
            105.244002,
            38.640222
          ],
          [
            105.24378,
            38.639872
          ],
          [
            105.243247,
            38.639503
          ],
          [
            105.243127,
            38.63937
          ],
          [
            105.242948,
            38.639083
          ],
          [
            105.242583,
            38.638248
          ],
          [
            105.242402,
            38.638095
          ],
          [
            105.24201,
            38.637885
          ],
          [
            105.241795,
            38.637722
          ],
          [
            105.241458,
            38.637218
          ],
          [
            105.241335,
            38.637097
          ],
          [
            105.241195,
            38.637025
          ],
          [
            105.241102,
            38.636925
          ],
          [
            105.240947,
            38.636873
          ],
          [
            105.240702,
            38.636688
          ],
          [
            105.240495,
            38.636402
          ],
          [
            105.240342,
            38.636085
          ],
          [
            105.240223,
            38.635948
          ],
          [
            105.239773,
            38.63568
          ],
          [
            105.239313,
            38.63548
          ],
          [
            105.238637,
            38.635322
          ],
          [
            105.238555,
            38.635277
          ],
          [
            105.23838,
            38.635145
          ],
          [
            105.238188,
            38.634822
          ],
          [
            105.237718,
            38.63449
          ],
          [
            105.237358,
            38.633975
          ],
          [
            105.237285,
            38.633798
          ],
          [
            105.237108,
            38.63356
          ],
          [
            105.236925,
            38.633403
          ],
          [
            105.236828,
            38.633207
          ],
          [
            105.236758,
            38.633147
          ],
          [
            105.236668,
            38.632778
          ],
          [
            105.236562,
            38.63259
          ],
          [
            105.236372,
            38.63245
          ],
          [
            105.236113,
            38.632352
          ],
          [
            105.235363,
            38.631133
          ],
          [
            105.2352,
            38.630972
          ],
          [
            105.234888,
            38.630855
          ],
          [
            105.234725,
            38.630708
          ],
          [
            105.234617,
            38.630105
          ],
          [
            105.234502,
            38.629835
          ],
          [
            105.234328,
            38.629608
          ],
          [
            105.234158,
            38.629562
          ],
          [
            105.233728,
            38.629187
          ],
          [
            105.233228,
            38.629047
          ],
          [
            105.232325,
            38.628513
          ],
          [
            105.232277,
            38.628393
          ],
          [
            105.231808,
            38.627863
          ],
          [
            105.231648,
            38.627552
          ],
          [
            105.231708,
            38.627323
          ],
          [
            105.231675,
            38.627203
          ],
          [
            105.23158,
            38.627038
          ],
          [
            105.231247,
            38.626722
          ],
          [
            105.231033,
            38.626317
          ],
          [
            105.230825,
            38.626118
          ],
          [
            105.230633,
            38.62585
          ],
          [
            105.230455,
            38.625698
          ],
          [
            105.230212,
            38.625563
          ],
          [
            105.230082,
            38.62539
          ],
          [
            105.229498,
            38.624932
          ],
          [
            105.229082,
            38.624508
          ],
          [
            105.228998,
            38.624315
          ],
          [
            105.228932,
            38.624282
          ],
          [
            105.228843,
            38.624138
          ],
          [
            105.228448,
            38.623917
          ],
          [
            105.228403,
            38.62375
          ],
          [
            105.228227,
            38.623603
          ],
          [
            105.22813,
            38.623232
          ],
          [
            105.22788,
            38.622673
          ],
          [
            105.227695,
            38.62247
          ],
          [
            105.227463,
            38.622383
          ],
          [
            105.227175,
            38.622215
          ],
          [
            105.2271,
            38.622067
          ],
          [
            105.227082,
            38.621898
          ],
          [
            105.226955,
            38.621807
          ],
          [
            105.226665,
            38.621225
          ],
          [
            105.226477,
            38.62073
          ],
          [
            105.226463,
            38.6205
          ],
          [
            105.226293,
            38.620252
          ],
          [
            105.226242,
            38.620038
          ],
          [
            105.226153,
            38.619947
          ],
          [
            105.226167,
            38.61977
          ],
          [
            105.226102,
            38.619623
          ],
          [
            105.22576,
            38.6191
          ],
          [
            105.225535,
            38.61891
          ],
          [
            105.225162,
            38.618298
          ],
          [
            105.22504,
            38.618222
          ],
          [
            105.22492,
            38.618067
          ],
          [
            105.224838,
            38.617835
          ],
          [
            105.2247,
            38.617603
          ],
          [
            105.224657,
            38.617408
          ],
          [
            105.224527,
            38.617335
          ],
          [
            105.22409,
            38.617193
          ],
          [
            105.223862,
            38.616975
          ],
          [
            105.223723,
            38.616748
          ],
          [
            105.22366,
            38.616477
          ],
          [
            105.223597,
            38.616425
          ],
          [
            105.223558,
            38.616275
          ],
          [
            105.22346,
            38.616168
          ],
          [
            105.223348,
            38.615772
          ],
          [
            105.223058,
            38.615315
          ],
          [
            105.222578,
            38.614837
          ],
          [
            105.222477,
            38.614807
          ],
          [
            105.222038,
            38.614492
          ],
          [
            105.221632,
            38.614275
          ],
          [
            105.221447,
            38.61413
          ],
          [
            105.221318,
            38.614087
          ],
          [
            105.221238,
            38.613997
          ],
          [
            105.221082,
            38.613955
          ],
          [
            105.22099,
            38.613963
          ],
          [
            105.220843,
            38.6139
          ],
          [
            105.220647,
            38.61361
          ],
          [
            105.220608,
            38.613412
          ],
          [
            105.220455,
            38.613217
          ],
          [
            105.220348,
            38.613
          ],
          [
            105.220212,
            38.612877
          ],
          [
            105.220045,
            38.612625
          ],
          [
            105.219662,
            38.61246
          ],
          [
            105.21901,
            38.611895
          ],
          [
            105.218898,
            38.61176
          ],
          [
            105.218695,
            38.61161
          ],
          [
            105.218348,
            38.611432
          ],
          [
            105.217523,
            38.610665
          ],
          [
            105.217453,
            38.610568
          ],
          [
            105.217418,
            38.610423
          ],
          [
            105.217418,
            38.610117
          ],
          [
            105.21734,
            38.610017
          ],
          [
            105.217148,
            38.609933
          ],
          [
            105.216998,
            38.609815
          ],
          [
            105.216702,
            38.60916
          ],
          [
            105.21666,
            38.608895
          ],
          [
            105.216267,
            38.608235
          ],
          [
            105.21619,
            38.608045
          ],
          [
            105.216123,
            38.608008
          ],
          [
            105.215938,
            38.60772
          ],
          [
            105.215487,
            38.607205
          ],
          [
            105.214963,
            38.60675
          ],
          [
            105.214765,
            38.60631
          ],
          [
            105.214755,
            38.606142
          ],
          [
            105.214525,
            38.605818
          ],
          [
            105.2144,
            38.605725
          ],
          [
            105.214225,
            38.605235
          ],
          [
            105.21399,
            38.604985
          ],
          [
            105.213888,
            38.604812
          ],
          [
            105.213408,
            38.604417
          ],
          [
            105.213298,
            38.604148
          ],
          [
            105.213125,
            38.603955
          ],
          [
            105.213063,
            38.60372
          ],
          [
            105.21286,
            38.603275
          ],
          [
            105.2121,
            38.602693
          ],
          [
            105.212072,
            38.602627
          ],
          [
            105.212192,
            38.602383
          ],
          [
            105.212108,
            38.602225
          ],
          [
            105.211407,
            38.601708
          ],
          [
            105.211058,
            38.601518
          ],
          [
            105.210905,
            38.601362
          ],
          [
            105.210872,
            38.600872
          ],
          [
            105.210715,
            38.600582
          ],
          [
            105.210723,
            38.600518
          ],
          [
            105.209318,
            38.599445
          ],
          [
            105.209157,
            38.59938
          ],
          [
            105.209082,
            38.599258
          ],
          [
            105.208895,
            38.599175
          ],
          [
            105.208905,
            38.598972
          ],
          [
            105.208808,
            38.598282
          ],
          [
            105.208832,
            38.598143
          ],
          [
            105.20904,
            38.597777
          ],
          [
            105.209057,
            38.597658
          ],
          [
            105.208923,
            38.597368
          ],
          [
            105.209075,
            38.597342
          ],
          [
            105.209185,
            38.59727
          ],
          [
            105.209293,
            38.59725
          ],
          [
            105.209487,
            38.597378
          ],
          [
            105.20957,
            38.597512
          ],
          [
            105.209585,
            38.597463
          ],
          [
            105.209412,
            38.597312
          ],
          [
            105.209342,
            38.59732
          ],
          [
            105.209452,
            38.597315
          ],
          [
            105.209413,
            38.597293
          ],
          [
            105.209117,
            38.597263
          ],
          [
            105.209025,
            38.597163
          ],
          [
            105.208878,
            38.597095
          ],
          [
            105.208738,
            38.596807
          ],
          [
            105.208518,
            38.596712
          ],
          [
            105.208463,
            38.596592
          ],
          [
            105.20815,
            38.596515
          ],
          [
            105.207907,
            38.596222
          ],
          [
            105.207767,
            38.595957
          ],
          [
            105.207543,
            38.595735
          ],
          [
            105.207633,
            38.595605
          ],
          [
            105.207622,
            38.595565
          ],
          [
            105.207732,
            38.595618
          ],
          [
            105.207857,
            38.59557
          ],
          [
            105.208185,
            38.595237
          ],
          [
            105.208263,
            38.594958
          ],
          [
            105.20821,
            38.59445
          ],
          [
            105.208153,
            38.594413
          ],
          [
            105.207978,
            38.593988
          ],
          [
            105.207877,
            38.5936
          ],
          [
            105.207668,
            38.59328
          ],
          [
            105.207538,
            38.593187
          ],
          [
            105.207593,
            38.592967
          ],
          [
            105.207287,
            38.592503
          ],
          [
            105.207133,
            38.591948
          ],
          [
            105.206792,
            38.591447
          ],
          [
            105.206832,
            38.591333
          ],
          [
            105.206815,
            38.59122
          ],
          [
            105.206712,
            38.590908
          ],
          [
            105.206585,
            38.590822
          ],
          [
            105.206592,
            38.59064
          ],
          [
            105.206448,
            38.590502
          ],
          [
            105.206425,
            38.5902
          ],
          [
            105.206248,
            38.590067
          ],
          [
            105.206213,
            38.58997
          ],
          [
            105.206042,
            38.589837
          ],
          [
            105.205873,
            38.589497
          ],
          [
            105.205738,
            38.589318
          ],
          [
            105.205535,
            38.589183
          ],
          [
            105.205292,
            38.589082
          ],
          [
            105.205167,
            38.588982
          ],
          [
            105.204893,
            38.588497
          ],
          [
            105.204713,
            38.588347
          ],
          [
            105.204168,
            38.58814
          ],
          [
            105.203907,
            38.587945
          ],
          [
            105.203615,
            38.587653
          ],
          [
            105.203332,
            38.587543
          ],
          [
            105.203225,
            38.587453
          ],
          [
            105.20287,
            38.58731
          ],
          [
            105.202372,
            38.587192
          ],
          [
            105.202133,
            38.587092
          ],
          [
            105.200818,
            38.586198
          ],
          [
            105.200742,
            38.586107
          ],
          [
            105.200307,
            38.585782
          ],
          [
            105.200178,
            38.585745
          ],
          [
            105.199507,
            38.585347
          ],
          [
            105.199238,
            38.58515
          ],
          [
            105.198808,
            38.58467
          ],
          [
            105.19836,
            38.584058
          ],
          [
            105.197605,
            38.583455
          ],
          [
            105.196523,
            38.581988
          ],
          [
            105.196417,
            38.581765
          ],
          [
            105.196167,
            38.581577
          ],
          [
            105.195918,
            38.581282
          ],
          [
            105.195858,
            38.581127
          ],
          [
            105.195908,
            38.580892
          ],
          [
            105.195805,
            38.580692
          ],
          [
            105.195568,
            38.5803
          ],
          [
            105.195243,
            38.579952
          ],
          [
            105.194768,
            38.578925
          ],
          [
            105.194457,
            38.578548
          ],
          [
            105.193883,
            38.578113
          ],
          [
            105.193827,
            38.578032
          ],
          [
            105.193465,
            38.577755
          ],
          [
            105.193435,
            38.577682
          ],
          [
            105.193142,
            38.577408
          ],
          [
            105.192655,
            38.577035
          ],
          [
            105.192002,
            38.576327
          ],
          [
            105.19159,
            38.57608
          ],
          [
            105.190958,
            38.575595
          ],
          [
            105.190272,
            38.575217
          ],
          [
            105.189923,
            38.57497
          ],
          [
            105.189258,
            38.574632
          ],
          [
            105.188852,
            38.574283
          ],
          [
            105.187523,
            38.57336
          ],
          [
            105.187152,
            38.572942
          ],
          [
            105.186748,
            38.572722
          ],
          [
            105.186558,
            38.572572
          ],
          [
            105.186235,
            38.572463
          ],
          [
            105.186092,
            38.572377
          ],
          [
            105.18558,
            38.572002
          ],
          [
            105.185103,
            38.571515
          ],
          [
            105.18399,
            38.570782
          ],
          [
            105.183878,
            38.570635
          ],
          [
            105.183408,
            38.570325
          ],
          [
            105.18322,
            38.570113
          ],
          [
            105.18309,
            38.569887
          ],
          [
            105.182665,
            38.56933
          ],
          [
            105.182127,
            38.56899
          ],
          [
            105.18201,
            38.568827
          ],
          [
            105.181797,
            38.568655
          ],
          [
            105.181315,
            38.568423
          ],
          [
            105.180902,
            38.568313
          ],
          [
            105.180757,
            38.568235
          ],
          [
            105.180638,
            38.568133
          ],
          [
            105.180397,
            38.56778
          ],
          [
            105.180278,
            38.56767
          ],
          [
            105.179748,
            38.567392
          ],
          [
            105.179595,
            38.567225
          ],
          [
            105.1791,
            38.566815
          ],
          [
            105.178948,
            38.566613
          ],
          [
            105.178723,
            38.5664
          ],
          [
            105.178207,
            38.566075
          ],
          [
            105.177965,
            38.565668
          ],
          [
            105.177787,
            38.565478
          ],
          [
            105.177748,
            38.565278
          ],
          [
            105.177618,
            38.565008
          ],
          [
            105.177293,
            38.564575
          ],
          [
            105.177138,
            38.563962
          ],
          [
            105.177183,
            38.563335
          ],
          [
            105.177352,
            38.562773
          ],
          [
            105.177408,
            38.56138
          ],
          [
            105.177622,
            38.56103
          ],
          [
            105.177663,
            38.560825
          ],
          [
            105.177995,
            38.560017
          ],
          [
            105.177947,
            38.55971
          ],
          [
            105.177638,
            38.559112
          ],
          [
            105.177618,
            38.558898
          ],
          [
            105.177695,
            38.558545
          ],
          [
            105.178167,
            38.557528
          ],
          [
            105.178198,
            38.557008
          ],
          [
            105.178573,
            38.556312
          ],
          [
            105.178632,
            38.555995
          ],
          [
            105.178818,
            38.555643
          ],
          [
            105.178883,
            38.555298
          ],
          [
            105.179028,
            38.554855
          ],
          [
            105.178902,
            38.554407
          ],
          [
            105.178975,
            38.553982
          ],
          [
            105.178863,
            38.553695
          ],
          [
            105.178847,
            38.553507
          ],
          [
            105.179017,
            38.552853
          ],
          [
            105.178938,
            38.55245
          ],
          [
            105.179073,
            38.552103
          ],
          [
            105.17907,
            38.551947
          ],
          [
            105.178995,
            38.551722
          ],
          [
            105.178838,
            38.551455
          ],
          [
            105.178452,
            38.55125
          ],
          [
            105.178228,
            38.55094
          ],
          [
            105.178302,
            38.550825
          ],
          [
            105.178377,
            38.550803
          ],
          [
            105.178667,
            38.550342
          ],
          [
            105.17887,
            38.54981
          ],
          [
            105.179155,
            38.549315
          ],
          [
            105.17898,
            38.548415
          ],
          [
            105.178985,
            38.548057
          ],
          [
            105.178798,
            38.5471
          ],
          [
            105.178668,
            38.546822
          ],
          [
            105.17869,
            38.546747
          ],
          [
            105.178602,
            38.546197
          ],
          [
            105.178397,
            38.544983
          ],
          [
            105.178323,
            38.544753
          ],
          [
            105.177982,
            38.544005
          ],
          [
            105.177558,
            38.5432
          ],
          [
            105.177447,
            38.54314
          ],
          [
            105.177213,
            38.543118
          ],
          [
            105.177177,
            38.543018
          ],
          [
            105.177203,
            38.542945
          ],
          [
            105.177137,
            38.543075
          ],
          [
            105.177187,
            38.543085
          ],
          [
            105.17722,
            38.542975
          ],
          [
            105.177277,
            38.54296
          ],
          [
            105.177182,
            38.543032
          ],
          [
            105.177267,
            38.542923
          ],
          [
            105.17718,
            38.5428
          ],
          [
            105.17677,
            38.542435
          ],
          [
            105.176687,
            38.542298
          ],
          [
            105.175712,
            38.541488
          ],
          [
            105.175437,
            38.541198
          ],
          [
            105.17523,
            38.540892
          ],
          [
            105.17508,
            38.540242
          ],
          [
            105.175015,
            38.54011
          ],
          [
            105.174863,
            38.539955
          ],
          [
            105.174523,
            38.539717
          ],
          [
            105.174155,
            38.539287
          ],
          [
            105.173617,
            38.538778
          ],
          [
            105.173465,
            38.538563
          ],
          [
            105.17337,
            38.53813
          ],
          [
            105.173242,
            38.538005
          ],
          [
            105.172855,
            38.537783
          ],
          [
            105.172738,
            38.537548
          ],
          [
            105.17205,
            38.536567
          ],
          [
            105.171045,
            38.535487
          ],
          [
            105.17074,
            38.535003
          ],
          [
            105.17037,
            38.53459
          ],
          [
            105.170037,
            38.534003
          ],
          [
            105.169617,
            38.533483
          ],
          [
            105.169362,
            38.533333
          ],
          [
            105.169097,
            38.533103
          ],
          [
            105.168898,
            38.532982
          ],
          [
            105.168303,
            38.532425
          ],
          [
            105.16809,
            38.53218
          ],
          [
            105.168032,
            38.532085
          ],
          [
            105.167938,
            38.531603
          ],
          [
            105.167837,
            38.531408
          ],
          [
            105.167703,
            38.531203
          ],
          [
            105.167437,
            38.530927
          ],
          [
            105.167273,
            38.530573
          ],
          [
            105.166878,
            38.529973
          ],
          [
            105.166552,
            38.529692
          ],
          [
            105.166315,
            38.529572
          ],
          [
            105.166108,
            38.529395
          ],
          [
            105.16601,
            38.52926
          ],
          [
            105.165172,
            38.528583
          ],
          [
            105.164828,
            38.528382
          ],
          [
            105.163897,
            38.527713
          ],
          [
            105.163598,
            38.527567
          ],
          [
            105.163117,
            38.527267
          ],
          [
            105.162795,
            38.526807
          ],
          [
            105.16228,
            38.526323
          ],
          [
            105.162168,
            38.526253
          ],
          [
            105.161332,
            38.52595
          ],
          [
            105.161012,
            38.52577
          ],
          [
            105.160778,
            38.525542
          ],
          [
            105.160397,
            38.524783
          ],
          [
            105.160332,
            38.524127
          ],
          [
            105.160252,
            38.524007
          ],
          [
            105.160065,
            38.523843
          ],
          [
            105.16005,
            38.523515
          ],
          [
            105.159993,
            38.523392
          ],
          [
            105.159842,
            38.522648
          ],
          [
            105.159828,
            38.522257
          ],
          [
            105.159735,
            38.522058
          ],
          [
            105.159695,
            38.521793
          ],
          [
            105.159603,
            38.521538
          ],
          [
            105.159365,
            38.52113
          ],
          [
            105.159332,
            38.520963
          ],
          [
            105.15918,
            38.520668
          ],
          [
            105.15914,
            38.52045
          ],
          [
            105.15908,
            38.520367
          ],
          [
            105.158865,
            38.520242
          ],
          [
            105.158837,
            38.52004
          ],
          [
            105.1586,
            38.5197
          ],
          [
            105.158518,
            38.519487
          ],
          [
            105.157887,
            38.518648
          ],
          [
            105.157708,
            38.518358
          ],
          [
            105.157628,
            38.518125
          ],
          [
            105.157413,
            38.517968
          ],
          [
            105.156885,
            38.517317
          ],
          [
            105.156765,
            38.51696
          ],
          [
            105.156508,
            38.516547
          ],
          [
            105.156315,
            38.515802
          ],
          [
            105.15633,
            38.515453
          ],
          [
            105.156442,
            38.515185
          ],
          [
            105.156463,
            38.514977
          ],
          [
            105.156458,
            38.514765
          ],
          [
            105.15641,
            38.51464
          ],
          [
            105.155808,
            38.514602
          ],
          [
            105.155887,
            38.514635
          ],
          [
            105.155957,
            38.514578
          ],
          [
            105.15619,
            38.514493
          ],
          [
            105.156252,
            38.51435
          ],
          [
            105.156187,
            38.51411
          ],
          [
            105.15605,
            38.513848
          ],
          [
            105.156028,
            38.513465
          ],
          [
            105.15597,
            38.513223
          ],
          [
            105.15578,
            38.51287
          ],
          [
            105.155717,
            38.512607
          ],
          [
            105.155713,
            38.512002
          ],
          [
            105.155778,
            38.511578
          ],
          [
            105.156027,
            38.510938
          ],
          [
            105.156218,
            38.51028
          ],
          [
            105.15659,
            38.509925
          ],
          [
            105.157027,
            38.509642
          ],
          [
            105.157135,
            38.509475
          ],
          [
            105.157082,
            38.50923
          ],
          [
            105.156377,
            38.508253
          ],
          [
            105.156335,
            38.508098
          ],
          [
            105.15634,
            38.507875
          ],
          [
            105.1562,
            38.50783
          ],
          [
            105.15624,
            38.507672
          ],
          [
            105.156345,
            38.507595
          ],
          [
            105.156607,
            38.50727
          ],
          [
            105.156635,
            38.506902
          ],
          [
            105.156768,
            38.506462
          ],
          [
            105.156752,
            38.50618
          ],
          [
            105.156782,
            38.506087
          ],
          [
            105.156747,
            38.505995
          ],
          [
            105.15684,
            38.505912
          ],
          [
            105.156873,
            38.505725
          ],
          [
            105.15684,
            38.505398
          ],
          [
            105.15679,
            38.505255
          ],
          [
            105.156667,
            38.505102
          ],
          [
            105.156655,
            38.504958
          ],
          [
            105.156712,
            38.504675
          ],
          [
            105.156522,
            38.504363
          ],
          [
            105.156425,
            38.504098
          ],
          [
            105.15629,
            38.50396
          ],
          [
            105.156213,
            38.503805
          ],
          [
            105.15613,
            38.503767
          ],
          [
            105.156142,
            38.503683
          ],
          [
            105.156025,
            38.503473
          ],
          [
            105.155957,
            38.503168
          ],
          [
            105.155763,
            38.502872
          ],
          [
            105.1555,
            38.5028
          ],
          [
            105.155325,
            38.502663
          ],
          [
            105.154677,
            38.50191
          ],
          [
            105.15455,
            38.501833
          ],
          [
            105.154628,
            38.501737
          ],
          [
            105.154393,
            38.501078
          ],
          [
            105.154325,
            38.500708
          ],
          [
            105.15417,
            38.500412
          ],
          [
            105.154053,
            38.499978
          ],
          [
            105.153818,
            38.499437
          ],
          [
            105.153755,
            38.499193
          ],
          [
            105.153493,
            38.49869
          ],
          [
            105.153375,
            38.49814
          ],
          [
            105.152933,
            38.497508
          ],
          [
            105.152787,
            38.49724
          ],
          [
            105.152732,
            38.49686
          ],
          [
            105.152468,
            38.496472
          ],
          [
            105.152487,
            38.496242
          ],
          [
            105.152447,
            38.496123
          ],
          [
            105.152185,
            38.495848
          ],
          [
            105.152077,
            38.495625
          ],
          [
            105.15183,
            38.495435
          ],
          [
            105.151633,
            38.495128
          ],
          [
            105.15141,
            38.49461
          ],
          [
            105.151385,
            38.494453
          ],
          [
            105.15144,
            38.494098
          ],
          [
            105.152072,
            38.493457
          ],
          [
            105.152147,
            38.493203
          ],
          [
            105.152098,
            38.492553
          ],
          [
            105.151988,
            38.492225
          ],
          [
            105.15194,
            38.491885
          ],
          [
            105.151993,
            38.491535
          ],
          [
            105.151963,
            38.491403
          ],
          [
            105.151987,
            38.490937
          ],
          [
            105.151958,
            38.490822
          ],
          [
            105.151552,
            38.490163
          ],
          [
            105.151432,
            38.490025
          ],
          [
            105.151388,
            38.489898
          ],
          [
            105.151135,
            38.489623
          ],
          [
            105.151113,
            38.489553
          ],
          [
            105.150842,
            38.48936
          ],
          [
            105.15076,
            38.48921
          ],
          [
            105.150727,
            38.489038
          ],
          [
            105.15076,
            38.488778
          ],
          [
            105.150707,
            38.488475
          ],
          [
            105.150598,
            38.488288
          ],
          [
            105.150587,
            38.487928
          ],
          [
            105.15054,
            38.487825
          ],
          [
            105.15055,
            38.487632
          ],
          [
            105.150488,
            38.487368
          ],
          [
            105.150143,
            38.487032
          ],
          [
            105.149848,
            38.486905
          ],
          [
            105.14969,
            38.48657
          ],
          [
            105.149677,
            38.486225
          ],
          [
            105.149732,
            38.486118
          ],
          [
            105.149708,
            38.486013
          ],
          [
            105.149755,
            38.485718
          ],
          [
            105.149728,
            38.485398
          ],
          [
            105.149548,
            38.485155
          ],
          [
            105.14947,
            38.484893
          ],
          [
            105.149332,
            38.484658
          ],
          [
            105.149238,
            38.484327
          ],
          [
            105.149205,
            38.483895
          ],
          [
            105.149132,
            38.483768
          ],
          [
            105.149157,
            38.483675
          ],
          [
            105.149673,
            38.483105
          ],
          [
            105.149713,
            38.482905
          ],
          [
            105.149558,
            38.48283
          ],
          [
            105.149705,
            38.482902
          ],
          [
            105.149755,
            38.482855
          ],
          [
            105.150058,
            38.482228
          ],
          [
            105.149875,
            38.481695
          ],
          [
            105.14982,
            38.481338
          ],
          [
            105.14993,
            38.480922
          ],
          [
            105.150027,
            38.48077
          ],
          [
            105.150413,
            38.480532
          ],
          [
            105.150833,
            38.480092
          ],
          [
            105.150832,
            38.479943
          ],
          [
            105.150927,
            38.479763
          ],
          [
            105.150905,
            38.479655
          ],
          [
            105.150947,
            38.479588
          ],
          [
            105.150905,
            38.479508
          ],
          [
            105.150972,
            38.479445
          ],
          [
            105.150965,
            38.479342
          ],
          [
            105.151103,
            38.478978
          ],
          [
            105.151197,
            38.47843
          ],
          [
            105.151305,
            38.478068
          ],
          [
            105.151248,
            38.47778
          ],
          [
            105.151305,
            38.477523
          ],
          [
            105.151203,
            38.477232
          ],
          [
            105.151123,
            38.476727
          ],
          [
            105.151133,
            38.476433
          ],
          [
            105.151038,
            38.476187
          ],
          [
            105.151,
            38.475777
          ],
          [
            105.151045,
            38.475602
          ],
          [
            105.150972,
            38.475323
          ],
          [
            105.151158,
            38.474707
          ],
          [
            105.151272,
            38.474537
          ],
          [
            105.151367,
            38.474467
          ],
          [
            105.151387,
            38.47439
          ],
          [
            105.15139,
            38.473997
          ],
          [
            105.151198,
            38.473862
          ],
          [
            105.151108,
            38.473668
          ],
          [
            105.151232,
            38.473358
          ],
          [
            105.151238,
            38.473213
          ],
          [
            105.151308,
            38.473183
          ],
          [
            105.151392,
            38.472768
          ],
          [
            105.151363,
            38.472543
          ],
          [
            105.15128,
            38.472378
          ],
          [
            105.151288,
            38.472197
          ],
          [
            105.151397,
            38.472098
          ],
          [
            105.151417,
            38.47195
          ],
          [
            105.151367,
            38.471587
          ],
          [
            105.151405,
            38.471397
          ],
          [
            105.151377,
            38.471183
          ],
          [
            105.151435,
            38.47103
          ],
          [
            105.151343,
            38.470975
          ],
          [
            105.151323,
            38.470798
          ],
          [
            105.151432,
            38.470548
          ],
          [
            105.151538,
            38.470478
          ],
          [
            105.151565,
            38.470397
          ],
          [
            105.15165,
            38.47034
          ],
          [
            105.151757,
            38.47017
          ],
          [
            105.151772,
            38.47009
          ],
          [
            105.151723,
            38.469997
          ],
          [
            105.151812,
            38.469487
          ],
          [
            105.151708,
            38.469273
          ],
          [
            105.151652,
            38.469043
          ],
          [
            105.151533,
            38.468932
          ],
          [
            105.151547,
            38.468668
          ],
          [
            105.151488,
            38.468433
          ],
          [
            105.151512,
            38.468355
          ],
          [
            105.151372,
            38.46815
          ],
          [
            105.151285,
            38.467838
          ],
          [
            105.151182,
            38.467763
          ],
          [
            105.151282,
            38.467685
          ],
          [
            105.151352,
            38.467533
          ],
          [
            105.151177,
            38.467482
          ],
          [
            105.151395,
            38.46726
          ],
          [
            105.151758,
            38.466653
          ],
          [
            105.151808,
            38.466448
          ],
          [
            105.151753,
            38.466387
          ],
          [
            105.15166,
            38.46638
          ],
          [
            105.151905,
            38.466135
          ],
          [
            105.15186,
            38.466048
          ],
          [
            105.151775,
            38.466065
          ],
          [
            105.151963,
            38.466017
          ],
          [
            105.152208,
            38.465527
          ],
          [
            105.152557,
            38.465137
          ],
          [
            105.152592,
            38.465017
          ],
          [
            105.152752,
            38.46493
          ],
          [
            105.153058,
            38.464638
          ],
          [
            105.15361,
            38.463945
          ],
          [
            105.153733,
            38.463727
          ],
          [
            105.153668,
            38.463565
          ],
          [
            105.15406,
            38.463368
          ],
          [
            105.154325,
            38.463088
          ],
          [
            105.154455,
            38.463022
          ],
          [
            105.154737,
            38.462595
          ],
          [
            105.155203,
            38.462343
          ],
          [
            105.155373,
            38.462363
          ],
          [
            105.155592,
            38.462567
          ],
          [
            105.155902,
            38.462555
          ],
          [
            105.155892,
            38.462645
          ],
          [
            105.15567,
            38.46257
          ],
          [
            105.155282,
            38.462502
          ],
          [
            105.155182,
            38.462528
          ],
          [
            105.15514,
            38.46258
          ],
          [
            105.155467,
            38.462717
          ],
          [
            105.155552,
            38.462675
          ],
          [
            105.155615,
            38.46277
          ],
          [
            105.155873,
            38.462902
          ],
          [
            105.156375,
            38.463305
          ],
          [
            105.156595,
            38.463418
          ],
          [
            105.156773,
            38.463465
          ],
          [
            105.157333,
            38.463463
          ],
          [
            105.157573,
            38.463367
          ],
          [
            105.157747,
            38.463435
          ],
          [
            105.15793,
            38.463633
          ],
          [
            105.158047,
            38.463693
          ],
          [
            105.158052,
            38.463608
          ],
          [
            105.158112,
            38.463558
          ],
          [
            105.158432,
            38.463497
          ],
          [
            105.158547,
            38.463442
          ],
          [
            105.15878,
            38.46342
          ],
          [
            105.159222,
            38.463522
          ],
          [
            105.159445,
            38.463533
          ],
          [
            105.159717,
            38.463692
          ],
          [
            105.160008,
            38.463735
          ],
          [
            105.160157,
            38.463737
          ],
          [
            105.16031,
            38.463702
          ],
          [
            105.160367,
            38.463657
          ],
          [
            105.160455,
            38.463658
          ],
          [
            105.16071,
            38.463743
          ],
          [
            105.160918,
            38.463663
          ],
          [
            105.161417,
            38.463668
          ],
          [
            105.161787,
            38.463618
          ],
          [
            105.16195,
            38.463637
          ],
          [
            105.162113,
            38.463582
          ],
          [
            105.162885,
            38.463757
          ],
          [
            105.163093,
            38.463727
          ],
          [
            105.163562,
            38.463832
          ],
          [
            105.16381,
            38.463818
          ],
          [
            105.164177,
            38.463872
          ],
          [
            105.164522,
            38.464068
          ],
          [
            105.16479,
            38.464135
          ],
          [
            105.16524,
            38.464152
          ],
          [
            105.165412,
            38.464242
          ],
          [
            105.165587,
            38.464388
          ],
          [
            105.165753,
            38.464415
          ],
          [
            105.166075,
            38.464543
          ],
          [
            105.166258,
            38.464563
          ],
          [
            105.166498,
            38.464738
          ],
          [
            105.166667,
            38.464797
          ],
          [
            105.166952,
            38.465092
          ],
          [
            105.167538,
            38.465483
          ],
          [
            105.168395,
            38.465492
          ],
          [
            105.168605,
            38.465535
          ],
          [
            105.16893,
            38.46567
          ],
          [
            105.169122,
            38.465845
          ],
          [
            105.169333,
            38.465895
          ],
          [
            105.169425,
            38.465877
          ],
          [
            105.169627,
            38.465738
          ],
          [
            105.169847,
            38.465688
          ],
          [
            105.170277,
            38.465902
          ],
          [
            105.170803,
            38.465995
          ],
          [
            105.170923,
            38.465983
          ],
          [
            105.171157,
            38.466263
          ],
          [
            105.171472,
            38.466495
          ],
          [
            105.171653,
            38.466722
          ],
          [
            105.171903,
            38.466808
          ],
          [
            105.172123,
            38.466952
          ],
          [
            105.172292,
            38.466988
          ],
          [
            105.172752,
            38.467168
          ],
          [
            105.17287,
            38.467322
          ],
          [
            105.172973,
            38.46738
          ],
          [
            105.173685,
            38.467602
          ],
          [
            105.17409,
            38.467882
          ],
          [
            105.174403,
            38.468038
          ],
          [
            105.174525,
            38.468155
          ],
          [
            105.174733,
            38.468222
          ],
          [
            105.175148,
            38.46848
          ],
          [
            105.175527,
            38.468635
          ],
          [
            105.175543,
            38.468717
          ],
          [
            105.175807,
            38.468953
          ],
          [
            105.176165,
            38.469188
          ],
          [
            105.1766,
            38.469352
          ],
          [
            105.176847,
            38.469502
          ],
          [
            105.17729,
            38.470128
          ],
          [
            105.177625,
            38.47032
          ],
          [
            105.17796,
            38.470602
          ],
          [
            105.178217,
            38.470642
          ],
          [
            105.178528,
            38.47086
          ],
          [
            105.178692,
            38.471037
          ],
          [
            105.178955,
            38.471135
          ],
          [
            105.178987,
            38.471202
          ],
          [
            105.179122,
            38.471303
          ],
          [
            105.179345,
            38.471415
          ],
          [
            105.179668,
            38.471408
          ],
          [
            105.180402,
            38.47155
          ],
          [
            105.180617,
            38.471743
          ],
          [
            105.18094,
            38.47222
          ],
          [
            105.181302,
            38.472612
          ],
          [
            105.181738,
            38.473005
          ],
          [
            105.182038,
            38.47319
          ],
          [
            105.182385,
            38.473275
          ],
          [
            105.182728,
            38.473438
          ],
          [
            105.182892,
            38.473447
          ],
          [
            105.183392,
            38.473958
          ],
          [
            105.183542,
            38.474167
          ],
          [
            105.183743,
            38.474297
          ],
          [
            105.183923,
            38.474367
          ],
          [
            105.184222,
            38.474367
          ],
          [
            105.184487,
            38.474602
          ],
          [
            105.184672,
            38.474617
          ],
          [
            105.184953,
            38.474712
          ],
          [
            105.185203,
            38.47498
          ],
          [
            105.185322,
            38.475025
          ],
          [
            105.185488,
            38.475178
          ],
          [
            105.185928,
            38.475403
          ],
          [
            105.18604,
            38.475492
          ],
          [
            105.186303,
            38.475597
          ],
          [
            105.186398,
            38.475595
          ],
          [
            105.18668,
            38.475673
          ],
          [
            105.186893,
            38.475783
          ],
          [
            105.187068,
            38.475922
          ],
          [
            105.187755,
            38.476217
          ],
          [
            105.188042,
            38.476415
          ],
          [
            105.18825,
            38.476513
          ],
          [
            105.188963,
            38.47712
          ],
          [
            105.189532,
            38.477802
          ],
          [
            105.189735,
            38.477977
          ],
          [
            105.190203,
            38.478228
          ],
          [
            105.190515,
            38.478563
          ],
          [
            105.190827,
            38.478705
          ],
          [
            105.191377,
            38.478808
          ],
          [
            105.191485,
            38.478885
          ],
          [
            105.191723,
            38.47937
          ],
          [
            105.192025,
            38.479665
          ],
          [
            105.192285,
            38.479845
          ],
          [
            105.193622,
            38.48055
          ],
          [
            105.19382,
            38.480705
          ],
          [
            105.19414,
            38.480833
          ],
          [
            105.194705,
            38.480977
          ],
          [
            105.194947,
            38.481087
          ],
          [
            105.195125,
            38.481225
          ],
          [
            105.19551,
            38.481373
          ],
          [
            105.195747,
            38.48153
          ],
          [
            105.196098,
            38.481618
          ],
          [
            105.19637,
            38.481793
          ],
          [
            105.19649,
            38.481947
          ],
          [
            105.196665,
            38.482022
          ],
          [
            105.197077,
            38.482382
          ],
          [
            105.197167,
            38.482375
          ],
          [
            105.19725,
            38.48226
          ],
          [
            105.197535,
            38.482175
          ],
          [
            105.197622,
            38.482222
          ],
          [
            105.197848,
            38.482257
          ],
          [
            105.19797,
            38.482367
          ],
          [
            105.198167,
            38.48239
          ],
          [
            105.19844,
            38.482413
          ],
          [
            105.198753,
            38.48231
          ],
          [
            105.199358,
            38.482562
          ],
          [
            105.199535,
            38.482667
          ],
          [
            105.199692,
            38.482813
          ],
          [
            105.200118,
            38.482977
          ],
          [
            105.200602,
            38.483073
          ],
          [
            105.200747,
            38.483177
          ],
          [
            105.201238,
            38.483312
          ],
          [
            105.201358,
            38.48339
          ],
          [
            105.201547,
            38.483433
          ],
          [
            105.20213,
            38.483703
          ],
          [
            105.202533,
            38.483762
          ],
          [
            105.202647,
            38.483868
          ],
          [
            105.202898,
            38.483958
          ],
          [
            105.203155,
            38.483962
          ],
          [
            105.20333,
            38.48401
          ],
          [
            105.203455,
            38.484092
          ],
          [
            105.204045,
            38.484345
          ],
          [
            105.204247,
            38.484358
          ],
          [
            105.20466,
            38.48447
          ],
          [
            105.205027,
            38.484495
          ],
          [
            105.20527,
            38.484573
          ],
          [
            105.20555,
            38.484915
          ],
          [
            105.20586,
            38.48494
          ],
          [
            105.206077,
            38.485005
          ],
          [
            105.206483,
            38.485292
          ],
          [
            105.206817,
            38.485407
          ],
          [
            105.2069,
            38.485528
          ],
          [
            105.207115,
            38.485617
          ],
          [
            105.20727,
            38.485745
          ],
          [
            105.207787,
            38.485893
          ],
          [
            105.208115,
            38.486093
          ],
          [
            105.208265,
            38.486148
          ],
          [
            105.208648,
            38.486248
          ],
          [
            105.208835,
            38.486245
          ],
          [
            105.209102,
            38.486435
          ],
          [
            105.209325,
            38.486445
          ],
          [
            105.209553,
            38.48655
          ],
          [
            105.209698,
            38.486545
          ],
          [
            105.209857,
            38.486602
          ],
          [
            105.209933,
            38.486555
          ],
          [
            105.210077,
            38.486578
          ],
          [
            105.210507,
            38.48679
          ],
          [
            105.210718,
            38.486823
          ],
          [
            105.21103,
            38.486995
          ],
          [
            105.211337,
            38.487013
          ],
          [
            105.211638,
            38.487128
          ],
          [
            105.21173,
            38.487115
          ],
          [
            105.212333,
            38.487317
          ],
          [
            105.212753,
            38.487332
          ],
          [
            105.213182,
            38.487487
          ],
          [
            105.213618,
            38.487775
          ],
          [
            105.213942,
            38.487905
          ],
          [
            105.214388,
            38.487925
          ],
          [
            105.214623,
            38.488117
          ],
          [
            105.21474,
            38.488162
          ],
          [
            105.214857,
            38.48816
          ],
          [
            105.214968,
            38.488095
          ],
          [
            105.215102,
            38.488117
          ],
          [
            105.215228,
            38.488075
          ],
          [
            105.215523,
            38.488058
          ],
          [
            105.216053,
            38.488172
          ],
          [
            105.216767,
            38.488235
          ],
          [
            105.216995,
            38.488325
          ],
          [
            105.218267,
            38.48841
          ],
          [
            105.218397,
            38.488448
          ],
          [
            105.218472,
            38.488523
          ],
          [
            105.218543,
            38.488543
          ],
          [
            105.218797,
            38.48856
          ],
          [
            105.218895,
            38.488535
          ],
          [
            105.219342,
            38.4886
          ],
          [
            105.219748,
            38.488603
          ],
          [
            105.220285,
            38.4887
          ],
          [
            105.220888,
            38.488635
          ],
          [
            105.221057,
            38.488667
          ],
          [
            105.221298,
            38.488783
          ],
          [
            105.221665,
            38.488902
          ],
          [
            105.221823,
            38.48891
          ],
          [
            105.222242,
            38.488842
          ],
          [
            105.222632,
            38.488863
          ],
          [
            105.222883,
            38.489
          ],
          [
            105.223152,
            38.489075
          ],
          [
            105.223287,
            38.489072
          ],
          [
            105.223417,
            38.489185
          ],
          [
            105.223872,
            38.48926
          ],
          [
            105.224313,
            38.489382
          ],
          [
            105.224745,
            38.489407
          ],
          [
            105.225263,
            38.489392
          ],
          [
            105.225502,
            38.489427
          ],
          [
            105.225785,
            38.489537
          ],
          [
            105.22601,
            38.489583
          ],
          [
            105.226408,
            38.489558
          ],
          [
            105.226768,
            38.489625
          ],
          [
            105.226823,
            38.489638
          ],
          [
            105.227043,
            38.489835
          ],
          [
            105.227298,
            38.489905
          ],
          [
            105.22752,
            38.490082
          ],
          [
            105.227677,
            38.490127
          ],
          [
            105.227877,
            38.490257
          ],
          [
            105.228402,
            38.490312
          ],
          [
            105.22856,
            38.490302
          ],
          [
            105.229032,
            38.490432
          ],
          [
            105.229163,
            38.490535
          ],
          [
            105.229395,
            38.490608
          ],
          [
            105.229678,
            38.490557
          ],
          [
            105.229898,
            38.490618
          ],
          [
            105.230097,
            38.490618
          ],
          [
            105.230402,
            38.490715
          ],
          [
            105.230853,
            38.490778
          ],
          [
            105.23152,
            38.490783
          ],
          [
            105.231787,
            38.490837
          ],
          [
            105.232007,
            38.490832
          ],
          [
            105.232205,
            38.490967
          ],
          [
            105.232625,
            38.491062
          ],
          [
            105.232862,
            38.491197
          ],
          [
            105.233432,
            38.49142
          ],
          [
            105.233612,
            38.491353
          ],
          [
            105.233628,
            38.49129
          ],
          [
            105.233738,
            38.49123
          ],
          [
            105.234207,
            38.491265
          ],
          [
            105.234545,
            38.491507
          ],
          [
            105.234912,
            38.491662
          ],
          [
            105.23512,
            38.491708
          ],
          [
            105.23524,
            38.491882
          ],
          [
            105.235438,
            38.491828
          ],
          [
            105.235665,
            38.491927
          ],
          [
            105.235995,
            38.4919
          ],
          [
            105.2363,
            38.492012
          ],
          [
            105.236527,
            38.492142
          ],
          [
            105.23709,
            38.49232
          ],
          [
            105.237467,
            38.492393
          ],
          [
            105.237728,
            38.492525
          ],
          [
            105.237798,
            38.492617
          ],
          [
            105.237972,
            38.492662
          ],
          [
            105.238023,
            38.49273
          ],
          [
            105.238198,
            38.492675
          ],
          [
            105.238363,
            38.492693
          ],
          [
            105.238572,
            38.492658
          ],
          [
            105.238772,
            38.492693
          ],
          [
            105.239,
            38.492682
          ],
          [
            105.239145,
            38.49276
          ],
          [
            105.239773,
            38.492773
          ],
          [
            105.240057,
            38.492863
          ],
          [
            105.240472,
            38.492833
          ],
          [
            105.241143,
            38.492872
          ],
          [
            105.241602,
            38.493003
          ],
          [
            105.241955,
            38.49322
          ],
          [
            105.242043,
            38.49334
          ],
          [
            105.241992,
            38.493592
          ],
          [
            105.242148,
            38.493398
          ],
          [
            105.242262,
            38.49342
          ],
          [
            105.242813,
            38.493702
          ],
          [
            105.243108,
            38.493767
          ],
          [
            105.243318,
            38.49374
          ],
          [
            105.243473,
            38.493658
          ],
          [
            105.243753,
            38.493623
          ],
          [
            105.243875,
            38.49357
          ],
          [
            105.243892,
            38.493588
          ],
          [
            105.243818,
            38.493618
          ],
          [
            105.243595,
            38.493863
          ],
          [
            105.243815,
            38.49369
          ],
          [
            105.244108,
            38.493533
          ],
          [
            105.24451,
            38.493412
          ],
          [
            105.245088,
            38.493488
          ],
          [
            105.245295,
            38.493597
          ],
          [
            105.245617,
            38.493665
          ],
          [
            105.246025,
            38.49381
          ],
          [
            105.246532,
            38.494075
          ],
          [
            105.246993,
            38.494217
          ],
          [
            105.247382,
            38.494277
          ],
          [
            105.247538,
            38.494352
          ],
          [
            105.24765,
            38.494487
          ],
          [
            105.247857,
            38.49462
          ],
          [
            105.247985,
            38.494825
          ],
          [
            105.248077,
            38.49483
          ],
          [
            105.24818,
            38.494915
          ],
          [
            105.248638,
            38.494992
          ],
          [
            105.249022,
            38.495187
          ],
          [
            105.249222,
            38.495198
          ],
          [
            105.249637,
            38.495403
          ],
          [
            105.249883,
            38.495615
          ],
          [
            105.250313,
            38.49582
          ],
          [
            105.250622,
            38.495883
          ],
          [
            105.251142,
            38.496162
          ],
          [
            105.251653,
            38.49633
          ],
          [
            105.252395,
            38.49649
          ],
          [
            105.252715,
            38.496702
          ],
          [
            105.252848,
            38.496868
          ],
          [
            105.2531,
            38.496922
          ],
          [
            105.253352,
            38.497092
          ],
          [
            105.253868,
            38.49731
          ],
          [
            105.254242,
            38.497355
          ],
          [
            105.25516,
            38.497743
          ],
          [
            105.25585,
            38.497892
          ],
          [
            105.256083,
            38.498055
          ],
          [
            105.256382,
            38.498175
          ],
          [
            105.25666,
            38.498177
          ],
          [
            105.257248,
            38.49808
          ],
          [
            105.258237,
            38.498082
          ],
          [
            105.258385,
            38.498057
          ],
          [
            105.25912,
            38.498082
          ],
          [
            105.262462,
            38.498002
          ],
          [
            105.26618,
            38.49796
          ],
          [
            105.266743,
            38.497927
          ],
          [
            105.266918,
            38.497873
          ],
          [
            105.267037,
            38.49779
          ],
          [
            105.26746,
            38.497127
          ]
        ]
      }
    }
  ]
}
