<?xml version="1.0" encoding="UTF-8"?>
<gpx version="1.1" creator="霞客示例路书" xmlns="http://www.topografix.com/GPX/1/1">
  <metadata><name>虎跳峡高路参考轨迹</name></metadata>
  <trk><name>虎跳峡高路</name><trkseg>
      <trkpt lat="27.17" lon="100.07"><ele>1800</ele></trkpt>
      <trkpt lat="27.171429" lon="100.071429"><ele>1829</ele></trkpt>
      <trkpt lat="27.172857" lon="100.072857"><ele>1857</ele></trkpt>
      <trkpt lat="27.174286" lon="100.074286"><ele>1886</ele></trkpt>
      <trkpt lat="27.175714" lon="100.075714"><ele>1914</ele></trkpt>
      <trkpt lat="27.177143" lon="100.077143"><ele>1943</ele></trkpt>
      <trkpt lat="27.178571" lon="100.078571"><ele>1971</ele></trkpt>
      <trkpt lat="27.18" lon="100.08"><ele>2000</ele></trkpt>
      <trkpt lat="27.181429" lon="100.081429"><ele>2029</ele></trkpt>
      <trkpt lat="27.182857" lon="100.082857"><ele>2057</ele></trkpt>
      <trkpt lat="27.184286" lon="100.084286"><ele>2086</ele></trkpt>
      <trkpt lat="27.185714" lon="100.085714"><ele>2114</ele></trkpt>
      <trkpt lat="27.187143" lon="100.087143"><ele>2143</ele></trkpt>
      <trkpt lat="27.188571" lon="100.088571"><ele>2171</ele></trkpt>
      <trkpt lat="27.19" lon="100.09"><ele>2200</ele></trkpt>
      <trkpt lat="27.1915" lon="100.091"><ele>2215</ele></trkpt>
      <trkpt lat="27.193" lon="100.092"><ele>2230</ele></trkpt>
      <trkpt lat="27.1945" lon="100.093"><ele>2245</ele></trkpt>
      <trkpt lat="27.196" lon="100.094"><ele>2260</ele></trkpt>
      <trkpt lat="27.1975" lon="100.095"><ele>2275</ele></trkpt>
      <trkpt lat="27.199" lon="100.096"><ele>2290</ele></trkpt>
      <trkpt lat="27.2005" lon="100.097"><ele>2305</ele></trkpt>
      <trkpt lat="27.202" lon="100.098"><ele>2320</ele></trkpt>
      <trkpt lat="27.2035" lon="100.099"><ele>2335</ele></trkpt>
      <trkpt lat="27.205" lon="100.1"><ele>2350</ele></trkpt>
      <trkpt lat="27.2065" lon="100.101"><ele>2365</ele></trkpt>
      <trkpt lat="27.208" lon="100.102"><ele>2380</ele></trkpt>
      <trkpt lat="27.2095" lon="100.103"><ele>2395</ele></trkpt>
      <trkpt lat="27.211" lon="100.104"><ele>2410</ele></trkpt>
      <trkpt lat="27.2125" lon="100.105"><ele>2425</ele></trkpt>
      <trkpt lat="27.214" lon="100.106"><ele>2440</ele></trkpt>
      <trkpt lat="27.2155" lon="100.107"><ele>2455</ele></trkpt>
      <trkpt lat="27.217" lon="100.108"><ele>2470</ele></trkpt>
      <trkpt lat="27.2185" lon="100.109"><ele>2485</ele></trkpt>
      <trkpt lat="27.22" lon="100.11"><ele>2500</ele></trkpt>
      <trkpt lat="27.2205" lon="100.1105"><ele>2509</ele></trkpt>
      <trkpt lat="27.221" lon="100.111"><ele>2517</ele></trkpt>
      <trkpt lat="27.2215" lon="100.1115"><ele>2526</ele></trkpt>
      <trkpt lat="27.222" lon="100.112"><ele>2534</ele></trkpt>
      <trkpt lat="27.2225" lon="100.1125"><ele>2543</ele></trkpt>
      <trkpt lat="27.223" lon="100.113"><ele>2551</ele></trkpt>
      <trkpt lat="27.2235" lon="100.1135"><ele>2560</ele></trkpt>
      <trkpt lat="27.224" lon="100.114"><ele>2568</ele></trkpt>
      <trkpt lat="27.2245" lon="100.1145"><ele>2577</ele></trkpt>
      <trkpt lat="27.225" lon="100.115"><ele>2585</ele></trkpt>
      <trkpt lat="27.2255" lon="100.1155"><ele>2594</ele></trkpt>
      <trkpt lat="27.226" lon="100.116"><ele>2602</ele></trkpt>
      <trkpt lat="27.2265" lon="100.1165"><ele>2611</ele></trkpt>
      <trkpt lat="27.227" lon="100.117"><ele>2619</ele></trkpt>
      <trkpt lat="27.2275" lon="100.1175"><ele>2628</ele></trkpt>
      <trkpt lat="27.228" lon="100.118"><ele>2636</ele></trkpt>
      <trkpt lat="27.2285" lon="100.1185"><ele>2645</ele></trkpt>
      <trkpt lat="27.229" lon="100.119"><ele>2653</ele></trkpt>
      <trkpt lat="27.2295" lon="100.1195"><ele>2662</ele></trkpt>
      <trkpt lat="27.23" lon="100.12"><ele>2670</ele></trkpt>
      <trkpt lat="27.228889" lon="100.118889"><ele>2636</ele></trkpt>
      <trkpt lat="27.227778" lon="100.117778"><ele>2601</ele></trkpt>
      <trkpt lat="27.226667" lon="100.116667"><ele>2567</ele></trkpt>
      <trkpt lat="27.225556" lon="100.115556"><ele>2532</ele></trkpt>
      <trkpt lat="27.224444" lon="100.114444"><ele>2498</ele></trkpt>
      <trkpt lat="27.223333" lon="100.113333"><ele>2463</ele></trkpt>
      <trkpt lat="27.222222" lon="100.112222"><ele>2429</ele></trkpt>
      <trkpt lat="27.221111" lon="100.111111"><ele>2394</ele></trkpt>
      <trkpt lat="27.22" lon="100.11"><ele>2360</ele></trkpt>
      <trkpt lat="27.218889" lon="100.108889"><ele>2326</ele></trkpt>
      <trkpt lat="27.217778" lon="100.107778"><ele>2291</ele></trkpt>
      <trkpt lat="27.216667" lon="100.106667"><ele>2257</ele></trkpt>
      <trkpt lat="27.215556" lon="100.105556"><ele>2222</ele></trkpt>
      <trkpt lat="27.214444" lon="100.104444"><ele>2188</ele></trkpt>
      <trkpt lat="27.213333" lon="100.103333"><ele>2153</ele></trkpt>
      <trkpt lat="27.212222" lon="100.102222"><ele>2119</ele></trkpt>
      <trkpt lat="27.211111" lon="100.101111"><ele>2084</ele></trkpt>
      <trkpt lat="27.21" lon="100.1"><ele>2050</ele></trkpt>
      <trkpt lat="27.209375" lon="100.099375"><ele>2031</ele></trkpt>
      <trkpt lat="27.20875" lon="100.09875"><ele>2013</ele></trkpt>
      <trkpt lat="27.208125" lon="100.098125"><ele>1994</ele></trkpt>
      <trkpt lat="27.2075" lon="100.0975"><ele>1975</ele></trkpt>
      <trkpt lat="27.206875" lon="100.096875"><ele>1956</ele></trkpt>
      <trkpt lat="27.20625" lon="100.09625"><ele>1938</ele></trkpt>
      <trkpt lat="27.205625" lon="100.095625"><ele>1919</ele></trkpt>
      <trkpt lat="27.205" lon="100.095"><ele>1900</ele></trkpt>
      <trkpt lat="27.204375" lon="100.094375"><ele>1881</ele></trkpt>
      <trkpt lat="27.20375" lon="100.09375"><ele>1863</ele></trkpt>
      <trkpt lat="27.203125" lon="100.093125"><ele>1844</ele></trkpt>
      <trkpt lat="27.2025" lon="100.0925"><ele>1825</ele></trkpt>
      <trkpt lat="27.201875" lon="100.091875"><ele>1806</ele></trkpt>
      <trkpt lat="27.20125" lon="100.09125"><ele>1788</ele></trkpt>
      <trkpt lat="27.200625" lon="100.090625"><ele>1769</ele></trkpt>
      <trkpt lat="27.2" lon="100.09"><ele>1750</ele></trkpt>
    </trkseg></trk>
</gpx>
