{
  "type": "FeatureCollection",
  "features": [
    {
      "type": "Feature",
      "properties": {
        "name": "虎跳峡高路参考轨迹",
        "type": "hiking",
        "source": "霞客示例路书"
      },
      "geometry": {
        "type": "LineString",
        "coordinates": [
          [
            100.07,
            27.17
          ],
          [
            100.071429,
            27.171429
          ],
          [
            100.072857,
            27.172857
          ],
          [
            100.074286,
            27.174286
          ],
          [
            100.075714,
            27.175714
          ],
          [
            100.077143,
            27.177143
          ],
          [
            100.078571,
            27.178571
          ],
          [
            100.08,
            27.18
          ],
          [
            100.081429,
            27.181429
          ],
          [
            100.082857,
            27.182857
          ],
          [
            100.084286,
            27.184286
          ],
          [
            100.085714,
            27.185714
          ],
          [
            100.087143,
            27.187143
          ],
          [
            100.088571,
            27.188571
          ],
          [
            100.09,
            27.19
          ],
          [
            100.091,
            27.1915
          ],
          [
            100.092,
            27.193
          ],
          [
            100.093,
            27.1945
          ],
          [
            100.094,
            27.196
          ],
          [
            100.095,
            27.1975
          ],
          [
            100.096,
            27.199
          ],
          [
            100.097,
            27.2005
          ],
          [
            100.098,
            27.202
          ],
          [
            100.099,
            27.2035
          ],
          [
            100.1,
            27.205
          ],
          [
            100.101,
            27.2065
          ],
          [
            100.102,
            27.208
          ],
          [
            100.103,
            27.2095
          ],
          [
            100.104,
            27.211
          ],
          [
            100.105,
            27.2125
          ],
          [
            100.106,
            27.214
          ],
          [
            100.107,
            27.2155
          ],
          [
            100.108,
            27.217
          ],
          [
            100.109,
            27.2185
          ],
          [
            100.11,
            27.22
          ],
          [
            100.1105,
            27.2205
          ],
          [
            100.111,
            27.221
          ],
          [
            100.1115,
            27.2215
          ],
          [
            100.112,
            27.222
          ],
          [
            100.1125,
            27.2225
          ],
          [
            100.113,
            27.223
          ],
          [
            100.1135,
            27.2235
          ],
          [
            100.114,
            27.224
          ],
          [
            100.1145,
            27.2245
          ],
          [
            100.115,
            27.225
          ],
          [
            100.1155,
            27.2255
          ],
          [
            100.116,
            27.226
          ],
          [
            100.1165,
            27.2265
          ],
          [
            100.117,
            27.227
          ],
          [
            100.1175,
            27.2275
          ],
          [
            100.118,
            27.228
          ],
          [
            100.1185,
            27.2285
          ],
          [
            100.119,
            27.229
          ],
          [
            100.1195,
            27.2295
          ],
          [
            100.12,
            27.23
          ],
          [
            100.118889,
            27.228889
          ],
          [
            100.117778,
            27.227778
          ],
          [
            100.116667,
            27.226667
          ],
          [
            100.115556,
            27.225556
          ],
          [
            100.114444,
            27.224444
          ],
          [
            100.113333,
            27.223333
          ],
          [
            100.112222,
            27.222222
          ],
          [
            100.111111,
            27.221111
          ],
          [
            100.11,
            27.22
          ],
          [
            100.108889,
            27.218889
          ],
          [
            100.107778,
            27.217778
          ],
          [
            100.106667,
            27.216667
          ],
          [
            100.105556,
            27.215556
          ],
          [
            100.104444,
            27.214444
          ],
          [
            100.103333,
            27.213333
          ],
          [
            100.102222,
            27.212222
          ],
          [
            100.101111,
            27.211111
          ],
          [
            100.1,
            27.21
          ],
          [
            100.099375,
            27.209375
          ],
          [
            100.09875,
            27.20875
          ],
          [
            100.098125,
            27.208125
          ],
          [
            100.0975,
            27.2075
          ],
          [
            100.096875,
            27.206875
          ],
          [
            100.09625,
            27.20625
          ],
          [
            100.095625,
            27.205625
          ],
          [
            100.095,
            27.205
          ],
          [
            100.094375,
            27.204375
          ],
          [
            100.09375,
            27.20375
          ],
          [
            100.093125,
            27.203125
          ],
          [
            100.0925,
            27.2025
          ],
          [
            100.091875,
            27.201875
          ],
          [
            100.09125,
            27.20125
          ],
          [
            100.090625,
            27.200625
          ],
          [
            100.09,
            27.2
          ]
        ]
      }
    }
  ]
}