{
  "type": "FeatureCollection",
  "features": [
    {
      "type": "Feature",
      "properties": {
        "name": "武功山徒步参考轨迹",
        "type": "hiking",
        "source": "霞客示例路书"
      },
      "geometry": {
        "type": "LineString",
        "coordinates": [
          [
            114.19,
            27.47
          ],
          [
            114.19125,
            27.470833
          ],
          [
            114.1925,
            27.471667
          ],
          [
            114.19375,
            27.4725
          ],
          [
            114.195,
            27.473333
          ],
          [
            114.19625,
            27.474167
          ],
          [
            114.1975,
            27.475
          ],
          [
            114.19875,
            27.475833
          ],
          [
            114.2,
            27.476667
          ],
          [
            114.20125,
            27.4775
          ],
          [
            114.2025,
            27.478333
          ],
          [
            114.20375,
            27.479167
          ],
          [
            114.205,
            27.48
          ],
          [
            114.20625,
            27.480833
          ],
          [
            114.2075,
            27.481667
          ],
          [
            114.20875,
            27.4825
          ],
          [
            114.21,
            27.483333
          ],
          [
            114.21125,
            27.484167
          ],
          [
            114.2125,
            27.485
          ],
          [
            114.21375,
            27.485833
          ],
          [
            114.215,
            27.486667
          ],
          [
            114.21625,
            27.4875
          ],
          [
            114.2175,
            27.488333
          ],
          [
            114.21875,
            27.489167
          ],
          [
            114.22,
            27.49
          ],
          [
            114.22125,
            27.490417
          ],
          [
            114.2225,
            27.490833
          ],
          [
            114.22375,
            27.49125
          ],
          [
            114.225,
            27.491667
          ],
          [
            114.22625,
            27.492083
          ],
          [
            114.2275,
            27.4925
          ],
          [
            114.22875,
            27.492917
          ],
          [
            114.23,
            27.493333
          ],
          [
            114.23125,
            27.49375
          ],
          [
            114.2325,
            27.494167
          ],
          [
            114.23375,
            27.494583
          ],
          [
            114.235,
            27.495
          ],
          [
            114.23625,
            27.495417
          ],
          [
            114.2375,
            27.495833
          ],
          [
            114.23875,
            27.49625
          ],
          [
            114.24,
            27.496667
          ],
          [
            114.24125,
            27.497083
          ],
          [
            114.2425,
            27.4975
          ],
          [
            114.24375,
            27.497917
          ],
          [
            114.245,
            27.498333
          ],
          [
            114.24625,
            27.49875
          ],
          [
            114.2475,
            27.499167
          ],
          [
            114.24875,
            27.499583
          ],
          [
            114.25,
            27.5
          ],
          [
            114.251,
            27.5005
          ],
          [
            114.252,
            27.501
          ],
          [
            114.253,
            27.5015
          ],
          [
            114.254,
            27.502
          ],
          [
            114.255,
            27.5025
          ],
          [
            114.256,
            27.503
          ],
          [
            114.257,
            27.5035
          ],
          [
            114.258,
            27.504
          ],
          [
            114.259,
            27.5045
          ],
          [
            114.26,
            27.505
          ],
          [
            114.261,
            27.5055
          ],
          [
            114.262,
            27.506
          ],
          [
            114.263,
            27.5065
          ],
          [
            114.264,
            27.507
          ],
          [
            114.265,
            27.5075
          ],
          [
            114.266,
            27.508
          ],
          [
            114.267,
            27.5085
          ],
          [
            114.268,
            27.509
          ],
          [
            114.269,
            27.5095
          ],
          [
            114.27,
            27.51
          ],
          [
            114.271071,
            27.510714
          ],
          [
            114.272143,
            27.511429
          ],
          [
            114.273214,
            27.512143
          ],
          [
            114.274286,
            27.512857
          ],
          [
            114.275357,
            27.513571
          ],
          [
            114.276429,
            27.514286
          ],
          [
            114.2775,
            27.515
          ],
          [
            114.278571,
            27.515714
          ],
          [
            114.279643,
            27.516429
          ],
          [
            114.280714,
            27.517143
          ],
          [
            114.281786,
            27.517857
          ],
          [
            114.282857,
            27.518571
          ],
          [
            114.283929,
            27.519286
          ],
          [
            114.285,
            27.52
          ],
          [
            114.286071,
            27.520714
          ],
          [
            114.287143,
            27.521429
          ],
          [
            114.288214,
            27.522143
          ],
          [
            114.289286,
            27.522857
          ],
          [
            114.290357,
            27.523571
          ],
          [
            114.291429,
            27.524286
          ],
          [
            114.2925,
            27.525
          ],
          [
            114.293571,
            27.525714
          ],
          [
            114.294643,
            27.526429
          ],
          [
            114.295714,
            27.527143
          ],
          [
            114.296786,
            27.527857
          ],
          [
            114.297857,
            27.528571
          ],
          [
            114.298929,
            27.529286
          ],
          [
            114.3,
            27.53
          ]
        ]
      }
    }
  ]
}