<?xml version="1.0" encoding="UTF-8"?>
<gpx version="1.1" creator="霞客示例路书" xmlns="http://www.topografix.com/GPX/1/1">
  <metadata><name>武功山徒步参考轨迹</name></metadata>
  <trk><name>武功山徒步</name><trkseg>
      <trkpt lat="27.47" lon="114.19"><ele>500</ele></trkpt>
      <trkpt lat="27.470833" lon="114.19125"><ele>542</ele></trkpt>
      <trkpt lat="27.471667" lon="114.1925"><ele>583</ele></trkpt>
      <trkpt lat="27.4725" lon="114.19375"><ele>625</ele></trkpt>
      <trkpt lat="27.473333" lon="114.195"><ele>667</ele></trkpt>
      <trkpt lat="27.474167" lon="114.19625"><ele>708</ele></trkpt>
      <trkpt lat="27.475" lon="114.1975"><ele>750</ele></trkpt>
      <trkpt lat="27.475833" lon="114.19875"><ele>792</ele></trkpt>
      <trkpt lat="27.476667" lon="114.2"><ele>833</ele></trkpt>
      <trkpt lat="27.4775" lon="114.20125"><ele>875</ele></trkpt>
      <trkpt lat="27.478333" lon="114.2025"><ele>917</ele></trkpt>
      <trkpt lat="27.479167" lon="114.20375"><ele>958</ele></trkpt>
      <trkpt lat="27.48" lon="114.205"><ele>1000</ele></trkpt>
      <trkpt lat="27.480833" lon="114.20625"><ele>1042</ele></trkpt>
      <trkpt lat="27.481667" lon="114.2075"><ele>1083</ele></trkpt>
      <trkpt lat="27.4825" lon="114.20875"><ele>1125</ele></trkpt>
      <trkpt lat="27.483333" lon="114.21"><ele>1167</ele></trkpt>
      <trkpt lat="27.484167" lon="114.21125"><ele>1208</ele></trkpt>
      <trkpt lat="27.485" lon="114.2125"><ele>1250</ele></trkpt>
      <trkpt lat="27.485833" lon="114.21375"><ele>1292</ele></trkpt>
      <trkpt lat="27.486667" lon="114.215"><ele>1333</ele></trkpt>
      <trkpt lat="27.4875" lon="114.21625"><ele>1375</ele></trkpt>
      <trkpt lat="27.488333" lon="114.2175"><ele>1417</ele></trkpt>
      <trkpt lat="27.489167" lon="114.21875"><ele>1458</ele></trkpt>
      <trkpt lat="27.49" lon="114.22"><ele>1500</ele></trkpt>
      <trkpt lat="27.490417" lon="114.22125"><ele>1517</ele></trkpt>
      <trkpt lat="27.490833" lon="114.2225"><ele>1535</ele></trkpt>
      <trkpt lat="27.49125" lon="114.22375"><ele>1552</ele></trkpt>
      <trkpt lat="27.491667" lon="114.225"><ele>1570</ele></trkpt>
      <trkpt lat="27.492083" lon="114.22625"><ele>1587</ele></trkpt>
      <trkpt lat="27.4925" lon="114.2275"><ele>1605</ele></trkpt>
      <trkpt lat="27.492917" lon="114.22875"><ele>1622</ele></trkpt>
      <trkpt lat="27.493333" lon="114.23"><ele>1639</ele></trkpt>
      <trkpt lat="27.49375" lon="114.23125"><ele>1657</ele></trkpt>
      <trkpt lat="27.494167" lon="114.2325"><ele>1674</ele></trkpt>
      <trkpt lat="27.494583" lon="114.23375"><ele>1692</ele></trkpt>
      <trkpt lat="27.495" lon="114.235"><ele>1709</ele></trkpt>
      <trkpt lat="27.495417" lon="114.23625"><ele>1726</ele></trkpt>
      <trkpt lat="27.495833" lon="114.2375"><ele>1744</ele></trkpt>
      <trkpt lat="27.49625" lon="114.23875"><ele>1761</ele></trkpt>
      <trkpt lat="27.496667" lon="114.24"><ele>1779</ele></trkpt>
      <trkpt lat="27.497083" lon="114.24125"><ele>1796</ele></trkpt>
      <trkpt lat="27.4975" lon="114.2425"><ele>1814</ele></trkpt>
      <trkpt lat="27.497917" lon="114.24375"><ele>1831</ele></trkpt>
      <trkpt lat="27.498333" lon="114.245"><ele>1848</ele></trkpt>
      <trkpt lat="27.49875" lon="114.24625"><ele>1866</ele></trkpt>
      <trkpt lat="27.499167" lon="114.2475"><ele>1883</ele></trkpt>
      <trkpt lat="27.499583" lon="114.24875"><ele>1901</ele></trkpt>
      <trkpt lat="27.5" lon="114.25"><ele>1918</ele></trkpt>
      <trkpt lat="27.5005" lon="114.251"><ele>1902</ele></trkpt>
      <trkpt lat="27.501" lon="114.252"><ele>1886</ele></trkpt>
      <trkpt lat="27.5015" lon="114.253"><ele>1870</ele></trkpt>
      <trkpt lat="27.502" lon="114.254"><ele>1854</ele></trkpt>
      <trkpt lat="27.5025" lon="114.255"><ele>1839</ele></trkpt>
      <trkpt lat="27.503" lon="114.256"><ele>1823</ele></trkpt>
      <trkpt lat="27.5035" lon="114.257"><ele>1807</ele></trkpt>
      <trkpt lat="27.504" lon="114.258"><ele>1791</ele></trkpt>
      <trkpt lat="27.5045" lon="114.259"><ele>1775</ele></trkpt>
      <trkpt lat="27.505" lon="114.26"><ele>1759</ele></trkpt>
      <trkpt lat="27.5055" lon="114.261"><ele>1743</ele></trkpt>
      <trkpt lat="27.506" lon="114.262"><ele>1727</ele></trkpt>
      <trkpt lat="27.5065" lon="114.263"><ele>1711</ele></trkpt>
      <trkpt lat="27.507" lon="114.264"><ele>1695</ele></trkpt>
      <trkpt lat="27.5075" lon="114.265"><ele>1680</ele></trkpt>
      <trkpt lat="27.508" lon="114.266"><ele>1664</ele></trkpt>
      <trkpt lat="27.5085" lon="114.267"><ele>1648</ele></trkpt>
      <trkpt lat="27.509" lon="114.268"><ele>1632</ele></trkpt>
      <trkpt lat="27.5095" lon="114.269"><ele>1616</ele></trkpt>
      <trkpt lat="27.51" lon="114.27"><ele>1600</ele></trkpt>
      <trkpt lat="27.510714" lon="114.271071"><ele>1601</ele></trkpt>
      <trkpt lat="27.511429" lon="114.272143"><ele>1602</ele></trkpt>
      <trkpt lat="27.512143" lon="114.273214"><ele>1603</ele></trkpt>
      <trkpt lat="27.512857" lon="114.274286"><ele>1604</ele></trkpt>
      <trkpt lat="27.513571" lon="114.275357"><ele>1605</ele></trkpt>
      <trkpt lat="27.514286" lon="114.276429"><ele>1606</ele></trkpt>
      <trkpt lat="27.515" lon="114.2775"><ele>1607</ele></trkpt>
      <trkpt lat="27.515714" lon="114.278571"><ele>1608</ele></trkpt>
      <trkpt lat="27.516429" lon="114.279643"><ele>1609</ele></trkpt>
      <trkpt lat="27.517143" lon="114.280714"><ele>1610</ele></trkpt>
      <trkpt lat="27.517857" lon="114.281786"><ele>1611</ele></trkpt>
      <trkpt lat="27.518571" lon="114.282857"><ele>1612</ele></trkpt>
      <trkpt lat="27.519286" lon="114.283929"><ele>1613</ele></trkpt>
      <trkpt lat="27.52" lon="114.285"><ele>1614</ele></trkpt>
      <trkpt lat="27.520714" lon="114.286071"><ele>1615</ele></trkpt>
      <trkpt lat="27.521429" lon="114.287143"><ele>1616</ele></trkpt>
      <trkpt lat="27.522143" lon="114.288214"><ele>1617</ele></trkpt>
      <trkpt lat="27.522857" lon="114.289286"><ele>1618</ele></trkpt>
      <trkpt lat="27.523571" lon="114.290357"><ele>1619</ele></trkpt>
      <trkpt lat="27.524286" lon="114.291429"><ele>1620</ele></trkpt>
      <trkpt lat="27.525" lon="114.2925"><ele>1621</ele></trkpt>
      <trkpt lat="27.525714" lon="114.293571"><ele>1622</ele></trkpt>
      <trkpt lat="27.526429" lon="114.294643"><ele>1623</ele></trkpt>
      <trkpt lat="27.527143" lon="114.295714"><ele>1624</ele></trkpt>
      <trkpt lat="27.527857" lon="114.296786"><ele>1625</ele></trkpt>
      <trkpt lat="27.528571" lon="114.297857"><ele>1626</ele></trkpt>
      <trkpt lat="27.529286" lon="114.298929"><ele>1627</ele></trkpt>
      <trkpt lat="27.53" lon="114.3"><ele>1628</ele></trkpt>
    </trkseg></trk>
</gpx>
