<?xml version="1.0" encoding="UTF-8"?>
<gpx version="1.1" creator="霞客示例路书" xmlns="http://www.topografix.com/GPX/1/1">
  <metadata><name>乌孙古道参考轨迹</name></metadata>
  <trk><name>乌孙古道</name><trkseg>
      <trkpt lat="42.3" lon="82.1"><ele>2000</ele></trkpt>
      <trkpt lat="42.299722" lon="82.101389"><ele>2011</ele></trkpt>
      <trkpt lat="42.299444" lon="82.102778"><ele>2022</ele></trkpt>
      <trkpt lat="42.299167" lon="82.104167"><ele>2033</ele></trkpt>
      <trkpt lat="42.298889" lon="82.105556"><ele>2044</ele></trkpt>
      <trkpt lat="42.298611" lon="82.106944"><ele>2056</ele></trkpt>
      <trkpt lat="42.298333" lon="82.108333"><ele>2067</ele></trkpt>
      <trkpt lat="42.298056" lon="82.109722"><ele>2078</ele></trkpt>
      <trkpt lat="42.297778" lon="82.111111"><ele>2089</ele></trkpt>
      <trkpt lat="42.2975" lon="82.1125"><ele>2100</ele></trkpt>
      <trkpt lat="42.297222" lon="82.113889"><ele>2111</ele></trkpt>
      <trkpt lat="42.296944" lon="82.115278"><ele>2122</ele></trkpt>
      <trkpt lat="42.296667" lon="82.116667"><ele>2133</ele></trkpt>
      <trkpt lat="42.296389" lon="82.118056"><ele>2144</ele></trkpt>
      <trkpt lat="42.296111" lon="82.119444"><ele>2156</ele></trkpt>
      <trkpt lat="42.295833" lon="82.120833"><ele>2167</ele></trkpt>
      <trkpt lat="42.295556" lon="82.122222"><ele>2178</ele></trkpt>
      <trkpt lat="42.295278" lon="82.123611"><ele>2189</ele></trkpt>
      <trkpt lat="42.295" lon="82.125"><ele>2200</ele></trkpt>
      <trkpt lat="42.294722" lon="82.126389"><ele>2211</ele></trkpt>
      <trkpt lat="42.294444" lon="82.127778"><ele>2222</ele></trkpt>
      <trkpt lat="42.294167" lon="82.129167"><ele>2233</ele></trkpt>
      <trkpt lat="42.293889" lon="82.130556"><ele>2244</ele></trkpt>
      <trkpt lat="42.293611" lon="82.131944"><ele>2256</ele></trkpt>
      <trkpt lat="42.293333" lon="82.133333"><ele>2267</ele></trkpt>
      <trkpt lat="42.293056" lon="82.134722"><ele>2278</ele></trkpt>
      <trkpt lat="42.292778" lon="82.136111"><ele>2289</ele></trkpt>
      <trkpt lat="42.2925" lon="82.1375"><ele>2300</ele></trkpt>
      <trkpt lat="42.292222" lon="82.138889"><ele>2311</ele></trkpt>
      <trkpt lat="42.291944" lon="82.140278"><ele>2322</ele></trkpt>
      <trkpt lat="42.291667" lon="82.141667"><ele>2333</ele></trkpt>
      <trkpt lat="42.291389" lon="82.143056"><ele>2344</ele></trkpt>
      <trkpt lat="42.291111" lon="82.144444"><ele>2356</ele></trkpt>
      <trkpt lat="42.290833" lon="82.145833"><ele>2367</ele></trkpt>
      <trkpt lat="42.290556" lon="82.147222"><ele>2378</ele></trkpt>
      <trkpt lat="42.290278" lon="82.148611"><ele>2389</ele></trkpt>
      <trkpt lat="42.29" lon="82.15"><ele>2400</ele></trkpt>
      <trkpt lat="42.289722" lon="82.151389"><ele>2411</ele></trkpt>
      <trkpt lat="42.289444" lon="82.152778"><ele>2422</ele></trkpt>
      <trkpt lat="42.289167" lon="82.154167"><ele>2433</ele></trkpt>
      <trkpt lat="42.288889" lon="82.155556"><ele>2444</ele></trkpt>
      <trkpt lat="42.288611" lon="82.156944"><ele>2456</ele></trkpt>
      <trkpt lat="42.288333" lon="82.158333"><ele>2467</ele></trkpt>
      <trkpt lat="42.288056" lon="82.159722"><ele>2478</ele></trkpt>
      <trkpt lat="42.287778" lon="82.161111"><ele>2489</ele></trkpt>
      <trkpt lat="42.2875" lon="82.1625"><ele>2500</ele></trkpt>
      <trkpt lat="42.287222" lon="82.163889"><ele>2511</ele></trkpt>
      <trkpt lat="42.286944" lon="82.165278"><ele>2522</ele></trkpt>
      <trkpt lat="42.286667" lon="82.166667"><ele>2533</ele></trkpt>
      <trkpt lat="42.286389" lon="82.168056"><ele>2544</ele></trkpt>
      <trkpt lat="42.286111" lon="82.169444"><ele>2556</ele></trkpt>
      <trkpt lat="42.285833" lon="82.170833"><ele>2567</ele></trkpt>
      <trkpt lat="42.285556" lon="82.172222"><ele>2578</ele></trkpt>
      <trkpt lat="42.285278" lon="82.173611"><ele>2589</ele></trkpt>
      <trkpt lat="42.285" lon="82.175"><ele>2600</ele></trkpt>
      <trkpt lat="42.284722" lon="82.176389"><ele>2611</ele></trkpt>
      <trkpt lat="42.284444" lon="82.177778"><ele>2622</ele></trkpt>
      <trkpt lat="42.284167" lon="82.179167"><ele>2633</ele></trkpt>
      <trkpt lat="42.283889" lon="82.180556"><ele>2644</ele></trkpt>
      <trkpt lat="42.283611" lon="82.181944"><ele>2656</ele></trkpt>
      <trkpt lat="42.283333" lon="82.183333"><ele>2667</ele></trkpt>
      <trkpt lat="42.283056" lon="82.184722"><ele>2678</ele></trkpt>
      <trkpt lat="42.282778" lon="82.186111"><ele>2689</ele></trkpt>
      <trkpt lat="42.2825" lon="82.1875"><ele>2700</ele></trkpt>
      <trkpt lat="42.282222" lon="82.188889"><ele>2711</ele></trkpt>
      <trkpt lat="42.281944" lon="82.190278"><ele>2722</ele></trkpt>
      <trkpt lat="42.281667" lon="82.191667"><ele>2733</ele></trkpt>
      <trkpt lat="42.281389" lon="82.193056"><ele>2744</ele></trkpt>
      <trkpt lat="42.281111" lon="82.194444"><ele>2756</ele></trkpt>
      <trkpt lat="42.280833" lon="82.195833"><ele>2767</ele></trkpt>
      <trkpt lat="42.280556" lon="82.197222"><ele>2778</ele></trkpt>
      <trkpt lat="42.280278" lon="82.198611"><ele>2789</ele></trkpt>
      <trkpt lat="42.28" lon="82.2"><ele>2800</ele></trkpt>
      <trkpt lat="42.279318" lon="82.201364"><ele>2813</ele></trkpt>
      <trkpt lat="42.278636" lon="82.202727"><ele>2825</ele></trkpt>
      <trkpt lat="42.277955" lon="82.204091"><ele>2838</ele></trkpt>
      <trkpt lat="42.277273" lon="82.205455"><ele>2850</ele></trkpt>
      <trkpt lat="42.276591" lon="82.206818"><ele>2863</ele></trkpt>
      <trkpt lat="42.275909" lon="82.208182"><ele>2875</ele></trkpt>
      <trkpt lat="42.275227" lon="82.209545"><ele>2888</ele></trkpt>
      <trkpt lat="42.274545" lon="82.210909"><ele>2900</ele></trkpt>
      <trkpt lat="42.273864" lon="82.212273"><ele>2913</ele></trkpt>
      <trkpt lat="42.273182" lon="82.213636"><ele>2925</ele></trkpt>
      <trkpt lat="42.2725" lon="82.215"><ele>2938</ele></trkpt>
      <trkpt lat="42.271818" lon="82.216364"><ele>2950</ele></trkpt>
      <trkpt lat="42.271136" lon="82.217727"><ele>2963</ele></trkpt>
      <trkpt lat="42.270455" lon="82.219091"><ele>2975</ele></trkpt>
      <trkpt lat="42.269773" lon="82.220455"><ele>2988</ele></trkpt>
      <trkpt lat="42.269091" lon="82.221818"><ele>3000</ele></trkpt>
      <trkpt lat="42.268409" lon="82.223182"><ele>3013</ele></trkpt>
      <trkpt lat="42.267727" lon="82.224545"><ele>3025</ele></trkpt>
      <trkpt lat="42.267045" lon="82.225909"><ele>3038</ele></trkpt>
      <trkpt lat="42.266364" lon="82.227273"><ele>3050</ele></trkpt>
      <trkpt lat="42.265682" lon="82.228636"><ele>3063</ele></trkpt>
      <trkpt lat="42.265" lon="82.23"><ele>3075</ele></trkpt>
      <trkpt lat="42.264318" lon="82.231364"><ele>3088</ele></trkpt>
      <trkpt lat="42.263636" lon="82.232727"><ele>3100</ele></trkpt>
      <trkpt lat="42.262955" lon="82.234091"><ele>3113</ele></trkpt>
      <trkpt lat="42.262273" lon="82.235455"><ele>3125</ele></trkpt>
      <trkpt lat="42.261591" lon="82.236818"><ele>3138</ele></trkpt>
      <trkpt lat="42.260909" lon="82.238182"><ele>3150</ele></trkpt>
      <trkpt lat="42.260227" lon="82.239545"><ele>3163</ele></trkpt>
      <trkpt lat="42.259545" lon="82.240909"><ele>3175</ele></trkpt>
      <trkpt lat="42.258864" lon="82.242273"><ele>3188</ele></trkpt>
      <trkpt lat="42.258182" lon="82.243636"><ele>3200</ele></trkpt>
      <trkpt lat="42.2575" lon="82.245"><ele>3213</ele></trkpt>
      <trkpt lat="42.256818" lon="82.246364"><ele>3225</ele></trkpt>
      <trkpt lat="42.256136" lon="82.247727"><ele>3238</ele></trkpt>
      <trkpt lat="42.255455" lon="82.249091"><ele>3250</ele></trkpt>
      <trkpt lat="42.254773" lon="82.250455"><ele>3263</ele></trkpt>
      <trkpt lat="42.254091" lon="82.251818"><ele>3275</ele></trkpt>
      <trkpt lat="42.253409" lon="82.253182"><ele>3288</ele></trkpt>
      <trkpt lat="42.252727" lon="82.254545"><ele>3300</ele></trkpt>
      <trkpt lat="42.252045" lon="82.255909"><ele>3313</ele></trkpt>
      <trkpt lat="42.251364" lon="82.257273"><ele>3325</ele></trkpt>
      <trkpt lat="42.250682" lon="82.258636"><ele>3338</ele></trkpt>
      <trkpt lat="42.25" lon="82.26"><ele>3350</ele></trkpt>
      <trkpt lat="42.249318" lon="82.261364"><ele>3363</ele></trkpt>
      <trkpt lat="42.248636" lon="82.262727"><ele>3375</ele></trkpt>
      <trkpt lat="42.247955" lon="82.264091"><ele>3388</ele></trkpt>
      <trkpt lat="42.247273" lon="82.265455"><ele>3400</ele></trkpt>
      <trkpt lat="42.246591" lon="82.266818"><ele>3413</ele></trkpt>
      <trkpt lat="42.245909" lon="82.268182"><ele>3425</ele></trkpt>
      <trkpt lat="42.245227" lon="82.269545"><ele>3438</ele></trkpt>
      <trkpt lat="42.244545" lon="82.270909"><ele>3450</ele></trkpt>
      <trkpt lat="42.243864" lon="82.272273"><ele>3463</ele></trkpt>
      <trkpt lat="42.243182" lon="82.273636"><ele>3475</ele></trkpt>
      <trkpt lat="42.2425" lon="82.275"><ele>3488</ele></trkpt>
      <trkpt lat="42.241818" lon="82.276364"><ele>3500</ele></trkpt>
      <trkpt lat="42.241136" lon="82.277727"><ele>3513</ele></trkpt>
      <trkpt lat="42.240455" lon="82.279091"><ele>3525</ele></trkpt>
      <trkpt lat="42.239773" lon="82.280455"><ele>3538</ele></trkpt>
      <trkpt lat="42.239091" lon="82.281818"><ele>3550</ele></trkpt>
      <trkpt lat="42.238409" lon="82.283182"><ele>3563</ele></trkpt>
      <trkpt lat="42.237727" lon="82.284545"><ele>3575</ele></trkpt>
      <trkpt lat="42.237045" lon="82.285909"><ele>3588</ele></trkpt>
      <trkpt lat="42.236364" lon="82.287273"><ele>3600</ele></trkpt>
      <trkpt lat="42.235682" lon="82.288636"><ele>3613</ele></trkpt>
      <trkpt lat="42.235" lon="82.29"><ele>3625</ele></trkpt>
      <trkpt lat="42.234318" lon="82.291364"><ele>3638</ele></trkpt>
      <trkpt lat="42.233636" lon="82.292727"><ele>3650</ele></trkpt>
      <trkpt lat="42.232955" lon="82.294091"><ele>3663</ele></trkpt>
      <trkpt lat="42.232273" lon="82.295455"><ele>3675</ele></trkpt>
      <trkpt lat="42.231591" lon="82.296818"><ele>3688</ele></trkpt>
      <trkpt lat="42.230909" lon="82.298182"><ele>3700</ele></trkpt>
      <trkpt lat="42.230227" lon="82.299545"><ele>3713</ele></trkpt>
      <trkpt lat="42.229545" lon="82.300909"><ele>3725</ele></trkpt>
      <trkpt lat="42.228864" lon="82.302273"><ele>3738</ele></trkpt>
      <trkpt lat="42.228182" lon="82.303636"><ele>3750</ele></trkpt>
      <trkpt lat="42.2275" lon="82.305"><ele>3763</ele></trkpt>
      <trkpt lat="42.226818" lon="82.306364"><ele>3775</ele></trkpt>
      <trkpt lat="42.226136" lon="82.307727"><ele>3788</ele></trkpt>
      <trkpt lat="42.225455" lon="82.309091"><ele>3800</ele></trkpt>
      <trkpt lat="42.224773" lon="82.310455"><ele>3813</ele></trkpt>
      <trkpt lat="42.224091" lon="82.311818"><ele>3825</ele></trkpt>
      <trkpt lat="42.223409" lon="82.313182"><ele>3838</ele></trkpt>
      <trkpt lat="42.222727" lon="82.314545"><ele>3850</ele></trkpt>
      <trkpt lat="42.222045" lon="82.315909"><ele>3863</ele></trkpt>
      <trkpt lat="42.221364" lon="82.317273"><ele>3875</ele></trkpt>
      <trkpt lat="42.220682" lon="82.318636"><ele>3888</ele></trkpt>
      <trkpt lat="42.22" lon="82.32"><ele>3900</ele></trkpt>
      <trkpt lat="42.220625" lon="82.320937"><ele>3875</ele></trkpt>
      <trkpt lat="42.22125" lon="82.321875"><ele>3850</ele></trkpt>
      <trkpt lat="42.221875" lon="82.322812"><ele>3825</ele></trkpt>
      <trkpt lat="42.2225" lon="82.32375"><ele>3800</ele></trkpt>
      <trkpt lat="42.223125" lon="82.324687"><ele>3775</ele></trkpt>
      <trkpt lat="42.22375" lon="82.325625"><ele>3750</ele></trkpt>
      <trkpt lat="42.224375" lon="82.326562"><ele>3725</ele></trkpt>
      <trkpt lat="42.225" lon="82.3275"><ele>3700</ele></trkpt>
      <trkpt lat="42.225625" lon="82.328437"><ele>3675</ele></trkpt>
      <trkpt lat="42.22625" lon="82.329375"><ele>3650</ele></trkpt>
      <trkpt lat="42.226875" lon="82.330312"><ele>3625</ele></trkpt>
      <trkpt lat="42.2275" lon="82.33125"><ele>3600</ele></trkpt>
      <trkpt lat="42.228125" lon="82.332187"><ele>3575</ele></trkpt>
      <trkpt lat="42.22875" lon="82.333125"><ele>3550</ele></trkpt>
      <trkpt lat="42.229375" lon="82.334062"><ele>3525</ele></trkpt>
      <trkpt lat="42.23" lon="82.335"><ele>3500</ele></trkpt>
      <trkpt lat="42.230625" lon="82.335938"><ele>3475</ele></trkpt>
      <trkpt lat="42.23125" lon="82.336875"><ele>3450</ele></trkpt>
      <trkpt lat="42.231875" lon="82.337812"><ele>3425</ele></trkpt>
      <trkpt lat="42.2325" lon="82.33875"><ele>3400</ele></trkpt>
      <trkpt lat="42.233125" lon="82.339687"><ele>3375</ele></trkpt>
      <trkpt lat="42.23375" lon="82.340625"><ele>3350</ele></trkpt>
      <trkpt lat="42.234375" lon="82.341562"><ele>3325</ele></trkpt>
      <trkpt lat="42.235" lon="82.3425"><ele>3300</ele></trkpt>
      <trkpt lat="42.235625" lon="82.343437"><ele>3275</ele></trkpt>
      <trkpt lat="42.23625" lon="82.344375"><ele>3250</ele></trkpt>
      <trkpt lat="42.236875" lon="82.345312"><ele>3225</ele></trkpt>
      <trkpt lat="42.2375" lon="82.34625"><ele>3200</ele></trkpt>
      <trkpt lat="42.238125" lon="82.347187"><ele>3175</ele></trkpt>
      <trkpt lat="42.23875" lon="82.348125"><ele>3150</ele></trkpt>
      <trkpt lat="42.239375" lon="82.349062"><ele>3125</ele></trkpt>
      <trkpt lat="42.24" lon="82.35"><ele>3100</ele></trkpt>
      <trkpt lat="42.239583" lon="82.351042"><ele>3089</ele></trkpt>
      <trkpt lat="42.239167" lon="82.352083"><ele>3077</ele></trkpt>
      <trkpt lat="42.23875" lon="82.353125"><ele>3066</ele></trkpt>
      <trkpt lat="42.238333" lon="82.354167"><ele>3054</ele></trkpt>
      <trkpt lat="42.237917" lon="82.355208"><ele>3043</ele></trkpt>
      <trkpt lat="42.2375" lon="82.35625"><ele>3031</ele></trkpt>
      <trkpt lat="42.237083" lon="82.357292"><ele>3020</ele></trkpt>
      <trkpt lat="42.236667" lon="82.358333"><ele>3008</ele></trkpt>
      <trkpt lat="42.23625" lon="82.359375"><ele>2997</ele></trkpt>
      <trkpt lat="42.235833" lon="82.360417"><ele>2985</ele></trkpt>
      <trkpt lat="42.235417" lon="82.361458"><ele>2974</ele></trkpt>
      <trkpt lat="42.235" lon="82.3625"><ele>2963</ele></trkpt>
      <trkpt lat="42.234583" lon="82.363542"><ele>2951</ele></trkpt>
      <trkpt lat="42.234167" lon="82.364583"><ele>2940</ele></trkpt>
      <trkpt lat="42.23375" lon="82.365625"><ele>2928</ele></trkpt>
      <trkpt lat="42.233333" lon="82.366667"><ele>2917</ele></trkpt>
      <trkpt lat="42.232917" lon="82.367708"><ele>2905</ele></trkpt>
      <trkpt lat="42.2325" lon="82.36875"><ele>2894</ele></trkpt>
      <trkpt lat="42.232083" lon="82.369792"><ele>2882</ele></trkpt>
      <trkpt lat="42.231667" lon="82.370833"><ele>2871</ele></trkpt>
      <trkpt lat="42.23125" lon="82.371875"><ele>2859</ele></trkpt>
      <trkpt lat="42.230833" lon="82.372917"><ele>2848</ele></trkpt>
      <trkpt lat="42.230417" lon="82.373958"><ele>2836</ele></trkpt>
      <trkpt lat="42.23" lon="82.375"><ele>2825</ele></trkpt>
      <trkpt lat="42.229583" lon="82.376042"><ele>2814</ele></trkpt>
      <trkpt lat="42.229167" lon="82.377083"><ele>2802</ele></trkpt>
      <trkpt lat="42.22875" lon="82.378125"><ele>2791</ele></trkpt>
      <trkpt lat="42.228333" lon="82.379167"><ele>2779</ele></trkpt>
      <trkpt lat="42.227917" lon="82.380208"><ele>2768</ele></trkpt>
      <trkpt lat="42.2275" lon="82.38125"><ele>2756</ele></trkpt>
      <trkpt lat="42.227083" lon="82.382292"><ele>2745</ele></trkpt>
      <trkpt lat="42.226667" lon="82.383333"><ele>2733</ele></trkpt>
      <trkpt lat="42.22625" lon="82.384375"><ele>2722</ele></trkpt>
      <trkpt lat="42.225833" lon="82.385417"><ele>2710</ele></trkpt>
      <trkpt lat="42.225417" lon="82.386458"><ele>2699</ele></trkpt>
      <trkpt lat="42.225" lon="82.3875"><ele>2688</ele></trkpt>
      <trkpt lat="42.224583" lon="82.388542"><ele>2676</ele></trkpt>
      <trkpt lat="42.224167" lon="82.389583"><ele>2665</ele></trkpt>
      <trkpt lat="42.22375" lon="82.390625"><ele>2653</ele></trkpt>
      <trkpt lat="42.223333" lon="82.391667"><ele>2642</ele></trkpt>
      <trkpt lat="42.222917" lon="82.392708"><ele>2630</ele></trkpt>
      <trkpt lat="42.2225" lon="82.39375"><ele>2619</ele></trkpt>
      <trkpt lat="42.222083" lon="82.394792"><ele>2607</ele></trkpt>
      <trkpt lat="42.221667" lon="82.395833"><ele>2596</ele></trkpt>
      <trkpt lat="42.22125" lon="82.396875"><ele>2584</ele></trkpt>
      <trkpt lat="42.220833" lon="82.397917"><ele>2573</ele></trkpt>
      <trkpt lat="42.220417" lon="82.398958"><ele>2561</ele></trkpt>
      <trkpt lat="42.22" lon="82.4"><ele>2550</ele></trkpt>
      <trkpt lat="42.219583" lon="82.401042"><ele>2539</ele></trkpt>
      <trkpt lat="42.219167" lon="82.402083"><ele>2527</ele></trkpt>
      <trkpt lat="42.21875" lon="82.403125"><ele>2516</ele></trkpt>
      <trkpt lat="42.218333" lon="82.404167"><ele>2504</ele></trkpt>
      <trkpt lat="42.217917" lon="82.405208"><ele>2493</ele></trkpt>
      <trkpt lat="42.2175" lon="82.40625"><ele>2481</ele></trkpt>
      <trkpt lat="42.217083" lon="82.407292"><ele>2470</ele></trkpt>
      <trkpt lat="42.216667" lon="82.408333"><ele>2458</ele></trkpt>
      <trkpt lat="42.21625" lon="82.409375"><ele>2447</ele></trkpt>
      <trkpt lat="42.215833" lon="82.410417"><ele>2435</ele></trkpt>
      <trkpt lat="42.215417" lon="82.411458"><ele>2424</ele></trkpt>
      <trkpt lat="42.215" lon="82.4125"><ele>2413</ele></trkpt>
      <trkpt lat="42.214583" lon="82.413542"><ele>2401</ele></trkpt>
      <trkpt lat="42.214167" lon="82.414583"><ele>2390</ele></trkpt>
      <trkpt lat="42.21375" lon="82.415625"><ele>2378</ele></trkpt>
      <trkpt lat="42.213333" lon="82.416667"><ele>2367</ele></trkpt>
      <trkpt lat="42.212917" lon="82.417708"><ele>2355</ele></trkpt>
      <trkpt lat="42.2125" lon="82.41875"><ele>2344</ele></trkpt>
      <trkpt lat="42.212083" lon="82.419792"><ele>2332</ele></trkpt>
      <trkpt lat="42.211667" lon="82.420833"><ele>2321</ele></trkpt>
      <trkpt lat="42.21125" lon="82.421875"><ele>2309</ele></trkpt>
      <trkpt lat="42.210833" lon="82.422917"><ele>2298</ele></trkpt>
      <trkpt lat="42.210417" lon="82.423958"><ele>2286</ele></trkpt>
      <trkpt lat="42.21" lon="82.425"><ele>2275</ele></trkpt>
      <trkpt lat="42.209583" lon="82.426042"><ele>2264</ele></trkpt>
      <trkpt lat="42.209167" lon="82.427083"><ele>2252</ele></trkpt>
      <trkpt lat="42.20875" lon="82.428125"><ele>2241</ele></trkpt>
      <trkpt lat="42.208333" lon="82.429167"><ele>2229</ele></trkpt>
      <trkpt lat="42.207917" lon="82.430208"><ele>2218</ele></trkpt>
      <trkpt lat="42.2075" lon="82.43125"><ele>2206</ele></trkpt>
      <trkpt lat="42.207083" lon="82.432292"><ele>2195</ele></trkpt>
      <trkpt lat="42.206667" lon="82.433333"><ele>2183</ele></trkpt>
      <trkpt lat="42.20625" lon="82.434375"><ele>2172</ele></trkpt>
      <trkpt lat="42.205833" lon="82.435417"><ele>2160</ele></trkpt>
      <trkpt lat="42.205417" lon="82.436458"><ele>2149</ele></trkpt>
      <trkpt lat="42.205" lon="82.4375"><ele>2138</ele></trkpt>
      <trkpt lat="42.204583" lon="82.438542"><ele>2126</ele></trkpt>
      <trkpt lat="42.204167" lon="82.439583"><ele>2115</ele></trkpt>
      <trkpt lat="42.20375" lon="82.440625"><ele>2103</ele></trkpt>
      <trkpt lat="42.203333" lon="82.441667"><ele>2092</ele></trkpt>
      <trkpt lat="42.202917" lon="82.442708"><ele>2080</ele></trkpt>
      <trkpt lat="42.2025" lon="82.44375"><ele>2069</ele></trkpt>
      <trkpt lat="42.202083" lon="82.444792"><ele>2057</ele></trkpt>
      <trkpt lat="42.201667" lon="82.445833"><ele>2046</ele></trkpt>
      <trkpt lat="42.20125" lon="82.446875"><ele>2034</ele></trkpt>
      <trkpt lat="42.200833" lon="82.447917"><ele>2023</ele></trkpt>
      <trkpt lat="42.200417" lon="82.448958"><ele>2011</ele></trkpt>
      <trkpt lat="42.2" lon="82.45"><ele>2000</ele></trkpt>
      <trkpt lat="42.199737" lon="82.450987"><ele>1999</ele></trkpt>
      <trkpt lat="42.199474" lon="82.451974"><ele>1997</ele></trkpt>
      <trkpt lat="42.199211" lon="82.452961"><ele>1996</ele></trkpt>
      <trkpt lat="42.198947" lon="82.453947"><ele>1995</ele></trkpt>
      <trkpt lat="42.198684" lon="82.454934"><ele>1993</ele></trkpt>
      <trkpt lat="42.198421" lon="82.455921"><ele>1992</ele></trkpt>
      <trkpt lat="42.198158" lon="82.456908"><ele>1991</ele></trkpt>
      <trkpt lat="42.197895" lon="82.457895"><ele>1989</ele></trkpt>
      <trkpt lat="42.197632" lon="82.458882"><ele>1988</ele></trkpt>
      <trkpt lat="42.197368" lon="82.459868"><ele>1987</ele></trkpt>
      <trkpt lat="42.197105" lon="82.460855"><ele>1986</ele></trkpt>
      <trkpt lat="42.196842" lon="82.461842"><ele>1984</ele></trkpt>
      <trkpt lat="42.196579" lon="82.462829"><ele>1983</ele></trkpt>
      <trkpt lat="42.196316" lon="82.463816"><ele>1982</ele></trkpt>
      <trkpt lat="42.196053" lon="82.464803"><ele>1980</ele></trkpt>
      <trkpt lat="42.195789" lon="82.465789"><ele>1979</ele></trkpt>
      <trkpt lat="42.195526" lon="82.466776"><ele>1978</ele></trkpt>
      <trkpt lat="42.195263" lon="82.467763"><ele>1976</ele></trkpt>
      <trkpt lat="42.195" lon="82.46875"><ele>1975</ele></trkpt>
      <trkpt lat="42.194737" lon="82.469737"><ele>1974</ele></trkpt>
      <trkpt lat="42.194474" lon="82.470724"><ele>1972</ele></trkpt>
      <trkpt lat="42.194211" lon="82.471711"><ele>1971</ele></trkpt>
      <trkpt lat="42.193947" lon="82.472697"><ele>1970</ele></trkpt>
      <trkpt lat="42.193684" lon="82.473684"><ele>1968</ele></trkpt>
      <trkpt lat="42.193421" lon="82.474671"><ele>1967</ele></trkpt>
      <trkpt lat="42.193158" lon="82.475658"><ele>1966</ele></trkpt>
      <trkpt lat="42.192895" lon="82.476645"><ele>1964</ele></trkpt>
      <trkpt lat="42.192632" lon="82.477632"><ele>1963</ele></trkpt>
      <trkpt lat="42.192368" lon="82.478618"><ele>1962</ele></trkpt>
      <trkpt lat="42.192105" lon="82.479605"><ele>1961</ele></trkpt>
      <trkpt lat="42.191842" lon="82.480592"><ele>1959</ele></trkpt>
      <trkpt lat="42.191579" lon="82.481579"><ele>1958</ele></trkpt>
      <trkpt lat="42.191316" lon="82.482566"><ele>1957</ele></trkpt>
      <trkpt lat="42.191053" lon="82.483553"><ele>1955</ele></trkpt>
      <trkpt lat="42.190789" lon="82.484539"><ele>1954</ele></trkpt>
      <trkpt lat="42.190526" lon="82.485526"><ele>1953</ele></trkpt>
      <trkpt lat="42.190263" lon="82.486513"><ele>1951</ele></trkpt>
      <trkpt lat="42.19" lon="82.4875"><ele>1950</ele></trkpt>
      <trkpt lat="42.189737" lon="82.488487"><ele>1949</ele></trkpt>
      <trkpt lat="42.189474" lon="82.489474"><ele>1947</ele></trkpt>
      <trkpt lat="42.189211" lon="82.490461"><ele>1946</ele></trkpt>
      <trkpt lat="42.188947" lon="82.491447"><ele>1945</ele></trkpt>
      <trkpt lat="42.188684" lon="82.492434"><ele>1943</ele></trkpt>
      <trkpt lat="42.188421" lon="82.493421"><ele>1942</ele></trkpt>
      <trkpt lat="42.188158" lon="82.494408"><ele>1941</ele></trkpt>
      <trkpt lat="42.187895" lon="82.495395"><ele>1939</ele></trkpt>
      <trkpt lat="42.187632" lon="82.496382"><ele>1938</ele></trkpt>
      <trkpt lat="42.187368" lon="82.497368"><ele>1937</ele></trkpt>
      <trkpt lat="42.187105" lon="82.498355"><ele>1936</ele></trkpt>
      <trkpt lat="42.186842" lon="82.499342"><ele>1934</ele></trkpt>
      <trkpt lat="42.186579" lon="82.500329"><ele>1933</ele></trkpt>
      <trkpt lat="42.186316" lon="82.501316"><ele>1932</ele></trkpt>
      <trkpt lat="42.186053" lon="82.502303"><ele>1930</ele></trkpt>
      <trkpt lat="42.185789" lon="82.503289"><ele>1929</ele></trkpt>
      <trkpt lat="42.185526" lon="82.504276"><ele>1928</ele></trkpt>
      <trkpt lat="42.185263" lon="82.505263"><ele>1926</ele></trkpt>
      <trkpt lat="42.185" lon="82.50625"><ele>1925</ele></trkpt>
      <trkpt lat="42.184737" lon="82.507237"><ele>1924</ele></trkpt>
      <trkpt lat="42.184474" lon="82.508224"><ele>1922</ele></trkpt>
      <trkpt lat="42.184211" lon="82.509211"><ele>1921</ele></trkpt>
      <trkpt lat="42.183947" lon="82.510197"><ele>1920</ele></trkpt>
      <trkpt lat="42.183684" lon="82.511184"><ele>1918</ele></trkpt>
      <trkpt lat="42.183421" lon="82.512171"><ele>1917</ele></trkpt>
      <trkpt lat="42.183158" lon="82.513158"><ele>1916</ele></trkpt>
      <trkpt lat="42.182895" lon="82.514145"><ele>1914</ele></trkpt>
      <trkpt lat="42.182632" lon="82.515132"><ele>1913</ele></trkpt>
      <trkpt lat="42.182368" lon="82.516118"><ele>1912</ele></trkpt>
      <trkpt lat="42.182105" lon="82.517105"><ele>1911</ele></trkpt>
      <trkpt lat="42.181842" lon="82.518092"><ele>1909</ele></trkpt>
      <trkpt lat="42.181579" lon="82.519079"><ele>1908</ele></trkpt>
      <trkpt lat="42.181316" lon="82.520066"><ele>1907</ele></trkpt>
      <trkpt lat="42.181053" lon="82.521053"><ele>1905</ele></trkpt>
      <trkpt lat="42.180789" lon="82.522039"><ele>1904</ele></trkpt>
      <trkpt lat="42.180526" lon="82.523026"><ele>1903</ele></trkpt>
      <trkpt lat="42.180263" lon="82.524013"><ele>1901</ele></trkpt>
      <trkpt lat="42.18" lon="82.525"><ele>1900</ele></trkpt>
      <trkpt lat="42.179737" lon="82.525987"><ele>1899</ele></trkpt>
      <trkpt lat="42.179474" lon="82.526974"><ele>1897</ele></trkpt>
      <trkpt lat="42.179211" lon="82.527961"><ele>1896</ele></trkpt>
      <trkpt lat="42.178947" lon="82.528947"><ele>1895</ele></trkpt>
      <trkpt lat="42.178684" lon="82.529934"><ele>1893</ele></trkpt>
      <trkpt lat="42.178421" lon="82.530921"><ele>1892</ele></trkpt>
      <trkpt lat="42.178158" lon="82.531908"><ele>1891</ele></trkpt>
      <trkpt lat="42.177895" lon="82.532895"><ele>1889</ele></trkpt>
      <trkpt lat="42.177632" lon="82.533882"><ele>1888</ele></trkpt>
      <trkpt lat="42.177368" lon="82.534868"><ele>1887</ele></trkpt>
      <trkpt lat="42.177105" lon="82.535855"><ele>1886</ele></trkpt>
      <trkpt lat="42.176842" lon="82.536842"><ele>1884</ele></trkpt>
      <trkpt lat="42.176579" lon="82.537829"><ele>1883</ele></trkpt>
      <trkpt lat="42.176316" lon="82.538816"><ele>1882</ele></trkpt>
      <trkpt lat="42.176053" lon="82.539803"><ele>1880</ele></trkpt>
      <trkpt lat="42.175789" lon="82.540789"><ele>1879</ele></trkpt>
      <trkpt lat="42.175526" lon="82.541776"><ele>1878</ele></trkpt>
      <trkpt lat="42.175263" lon="82.542763"><ele>1876</ele></trkpt>
      <trkpt lat="42.175" lon="82.54375"><ele>1875</ele></trkpt>
      <trkpt lat="42.174737" lon="82.544737"><ele>1874</ele></trkpt>
      <trkpt lat="42.174474" lon="82.545724"><ele>1872</ele></trkpt>
      <trkpt lat="42.174211" lon="82.546711"><ele>1871</ele></trkpt>
      <trkpt lat="42.173947" lon="82.547697"><ele>1870</ele></trkpt>
      <trkpt lat="42.173684" lon="82.548684"><ele>1868</ele></trkpt>
      <trkpt lat="42.173421" lon="82.549671"><ele>1867</ele></trkpt>
      <trkpt lat="42.173158" lon="82.550658"><ele>1866</ele></trkpt>
      <trkpt lat="42.172895" lon="82.551645"><ele>1864</ele></trkpt>
      <trkpt lat="42.172632" lon="82.552632"><ele>1863</ele></trkpt>
      <trkpt lat="42.172368" lon="82.553618"><ele>1862</ele></trkpt>
      <trkpt lat="42.172105" lon="82.554605"><ele>1861</ele></trkpt>
      <trkpt lat="42.171842" lon="82.555592"><ele>1859</ele></trkpt>
      <trkpt lat="42.171579" lon="82.556579"><ele>1858</ele></trkpt>
      <trkpt lat="42.171316" lon="82.557566"><ele>1857</ele></trkpt>
      <trkpt lat="42.171053" lon="82.558553"><ele>1855</ele></trkpt>
      <trkpt lat="42.170789" lon="82.559539"><ele>1854</ele></trkpt>
      <trkpt lat="42.170526" lon="82.560526"><ele>1853</ele></trkpt>
      <trkpt lat="42.170263" lon="82.561513"><ele>1851</ele></trkpt>
      <trkpt lat="42.17" lon="82.5625"><ele>1850</ele></trkpt>
      <trkpt lat="42.169737" lon="82.563487"><ele>1849</ele></trkpt>
      <trkpt lat="42.169474" lon="82.564474"><ele>1847</ele></trkpt>
      <trkpt lat="42.169211" lon="82.565461"><ele>1846</ele></trkpt>
      <trkpt lat="42.168947" lon="82.566447"><ele>1845</ele></trkpt>
      <trkpt lat="42.168684" lon="82.567434"><ele>1843</ele></trkpt>
      <trkpt lat="42.168421" lon="82.568421"><ele>1842</ele></trkpt>
      <trkpt lat="42.168158" lon="82.569408"><ele>1841</ele></trkpt>
      <trkpt lat="42.167895" lon="82.570395"><ele>1839</ele></trkpt>
      <trkpt lat="42.167632" lon="82.571382"><ele>1838</ele></trkpt>
      <trkpt lat="42.167368" lon="82.572368"><ele>1837</ele></trkpt>
      <trkpt lat="42.167105" lon="82.573355"><ele>1836</ele></trkpt>
      <trkpt lat="42.166842" lon="82.574342"><ele>1834</ele></trkpt>
      <trkpt lat="42.166579" lon="82.575329"><ele>1833</ele></trkpt>
      <trkpt lat="42.166316" lon="82.576316"><ele>1832</ele></trkpt>
      <trkpt lat="42.166053" lon="82.577303"><ele>1830</ele></trkpt>
      <trkpt lat="42.165789" lon="82.578289"><ele>1829</ele></trkpt>
      <trkpt lat="42.165526" lon="82.579276"><ele>1828</ele></trkpt>
      <trkpt lat="42.165263" lon="82.580263"><ele>1826</ele></trkpt>
      <trkpt lat="42.165" lon="82.58125"><ele>1825</ele></trkpt>
      <trkpt lat="42.164737" lon="82.582237"><ele>1824</ele></trkpt>
      <trkpt lat="42.164474" lon="82.583224"><ele>1822</ele></trkpt>
      <trkpt lat="42.164211" lon="82.584211"><ele>1821</ele></trkpt>
      <trkpt lat="42.163947" lon="82.585197"><ele>1820</ele></trkpt>
      <trkpt lat="42.163684" lon="82.586184"><ele>1818</ele></trkpt>
      <trkpt lat="42.163421" lon="82.587171"><ele>1817</ele></trkpt>
      <trkpt lat="42.163158" lon="82.588158"><ele>1816</ele></trkpt>
      <trkpt lat="42.162895" lon="82.589145"><ele>1814</ele></trkpt>
      <trkpt lat="42.162632" lon="82.590132"><ele>1813</ele></trkpt>
      <trkpt lat="42.162368" lon="82.591118"><ele>1812</ele></trkpt>
      <trkpt lat="42.162105" lon="82.592105"><ele>1811</ele></trkpt>
      <trkpt lat="42.161842" lon="82.593092"><ele>1809</ele></trkpt>
      <trkpt lat="42.161579" lon="82.594079"><ele>1808</ele></trkpt>
      <trkpt lat="42.161316" lon="82.595066"><ele>1807</ele></trkpt>
      <trkpt lat="42.161053" lon="82.596053"><ele>1805</ele></trkpt>
      <trkpt lat="42.160789" lon="82.597039"><ele>1804</ele></trkpt>
      <trkpt lat="42.160526" lon="82.598026"><ele>1803</ele></trkpt>
      <trkpt lat="42.160263" lon="82.599013"><ele>1801</ele></trkpt>
      <trkpt lat="42.16" lon="82.6"><ele>1800</ele></trkpt>
    </trkseg></trk>
</gpx>
