{
  "type": "FeatureCollection",
  "features": [
    {
      "type": "Feature",
      "properties": {
        "name": "乌孙古道参考轨迹",
        "type": "hiking",
        "source": "霞客示例路书"
      },
      "geometry": {
        "type": "LineString",
        "coordinates": [
          [
            82.1,
            42.3
          ],
          [
            82.101389,
            42.299722
          ],
          [
            82.102778,
            42.299444
          ],
          [
            82.104167,
            42.299167
          ],
          [
            82.105556,
            42.298889
          ],
          [
            82.106944,
            42.298611
          ],
          [
            82.108333,
            42.298333
          ],
          [
            82.109722,
            42.298056
          ],
          [
            82.111111,
            42.297778
          ],
          [
            82.1125,
            42.2975
          ],
          [
            82.113889,
            42.297222
          ],
          [
            82.115278,
            42.296944
          ],
          [
            82.116667,
            42.296667
          ],
          [
            82.118056,
            42.296389
          ],
          [
            82.119444,
            42.296111
          ],
          [
            82.120833,
            42.295833
          ],
          [
            82.122222,
            42.295556
          ],
          [
            82.123611,
            42.295278
          ],
          [
            82.125,
            42.295
          ],
          [
            82.126389,
            42.294722
          ],
          [
            82.127778,
            42.294444
          ],
          [
            82.129167,
            42.294167
          ],
          [
            82.130556,
            42.293889
          ],
          [
            82.131944,
            42.293611
          ],
          [
            82.133333,
            42.293333
          ],
          [
            82.134722,
            42.293056
          ],
          [
            82.136111,
            42.292778
          ],
          [
            82.1375,
            42.2925
          ],
          [
            82.138889,
            42.292222
          ],
          [
            82.140278,
            42.291944
          ],
          [
            82.141667,
            42.291667
          ],
          [
            82.143056,
            42.291389
          ],
          [
            82.144444,
            42.291111
          ],
          [
            82.145833,
            42.290833
          ],
          [
            82.147222,
            42.290556
          ],
          [
            82.148611,
            42.290278
          ],
          [
            82.15,
            42.29
          ],
          [
            82.151389,
            42.289722
          ],
          [
            82.152778,
            42.289444
          ],
          [
            82.154167,
            42.289167
          ],
          [
            82.155556,
            42.288889
          ],
          [
            82.156944,
            42.288611
          ],
          [
            82.158333,
            42.288333
          ],
          [
            82.159722,
            42.288056
          ],
          [
            82.161111,
            42.287778
          ],
          [
            82.1625,
            42.2875
          ],
          [
            82.163889,
            42.287222
          ],
          [
            82.165278,
            42.286944
          ],
          [
            82.166667,
            42.286667
          ],
          [
            82.168056,
            42.286389
          ],
          [
            82.169444,
            42.286111
          ],
          [
            82.170833,
            42.285833
          ],
          [
            82.172222,
            42.285556
          ],
          [
            82.173611,
            42.285278
          ],
          [
            82.175,
            42.285
          ],
          [
            82.176389,
            42.284722
          ],
          [
            82.177778,
            42.284444
          ],
          [
            82.179167,
            42.284167
          ],
          [
            82.180556,
            42.283889
          ],
          [
            82.181944,
            42.283611
          ],
          [
            82.183333,
            42.283333
          ],
          [
            82.184722,
            42.283056
          ],
          [
            82.186111,
            42.282778
          ],
          [
            82.1875,
            42.2825
          ],
          [
            82.188889,
            42.282222
          ],
          [
            82.190278,
            42.281944
          ],
          [
            82.191667,
            42.281667
          ],
          [
            82.193056,
            42.281389
          ],
          [
            82.194444,
            42.281111
          ],
          [
            82.195833,
            42.280833
          ],
          [
            82.197222,
            42.280556
          ],
          [
            82.198611,
            42.280278
          ],
          [
            82.2,
            42.28
          ],
          [
            82.201364,
            42.279318
          ],
          [
            82.202727,
            42.278636
          ],
          [
            82.204091,
            42.277955
          ],
          [
            82.205455,
            42.277273
          ],
          [
            82.206818,
            42.276591
          ],
          [
            82.208182,
            42.275909
          ],
          [
            82.209545,
            42.275227
          ],
          [
            82.210909,
            42.274545
          ],
          [
            82.212273,
            42.273864
          ],
          [
            82.213636,
            42.273182
          ],
          [
            82.215,
            42.2725
          ],
          [
            82.216364,
            42.271818
          ],
          [
            82.217727,
            42.271136
          ],
          [
            82.219091,
            42.270455
          ],
          [
            82.220455,
            42.269773
          ],
          [
            82.221818,
            42.269091
          ],
          [
            82.223182,
            42.268409
          ],
          [
            82.224545,
            42.267727
          ],
          [
            82.225909,
            42.267045
          ],
          [
            82.227273,
            42.266364
          ],
          [
            82.228636,
            42.265682
          ],
          [
            82.23,
            42.265
          ],
          [
            82.231364,
            42.264318
          ],
          [
            82.232727,
            42.263636
          ],
          [
            82.234091,
            42.262955
          ],
          [
            82.235455,
            42.262273
          ],
          [
            82.236818,
            42.261591
          ],
          [
            82.238182,
            42.260909
          ],
          [
            82.239545,
            42.260227
          ],
          [
            82.240909,
            42.259545
          ],
          [
            82.242273,
            42.258864
          ],
          [
            82.243636,
            42.258182
          ],
          [
            82.245,
            42.2575
          ],
          [
            82.246364,
            42.256818
          ],
          [
            82.247727,
            42.256136
          ],
          [
            82.249091,
            42.255455
          ],
          [
            82.250455,
            42.254773
          ],
          [
            82.251818,
            42.254091
          ],
          [
            82.253182,
            42.253409
          ],
          [
            82.254545,
            42.252727
          ],
          [
            82.255909,
            42.252045
          ],
          [
            82.257273,
            42.251364
          ],
          [
            82.258636,
            42.250682
          ],
          [
            82.26,
            42.25
          ],
          [
            82.261364,
            42.249318
          ],
          [
            82.262727,
            42.248636
          ],
          [
            82.264091,
            42.247955
          ],
          [
            82.265455,
            42.247273
          ],
          [
            82.266818,
            42.246591
          ],
          [
            82.268182,
            42.245909
          ],
          [
            82.269545,
            42.245227
          ],
          [
            82.270909,
            42.244545
          ],
          [
            82.272273,
            42.243864
          ],
          [
            82.273636,
            42.243182
          ],
          [
            82.275,
            42.2425
          ],
          [
            82.276364,
            42.241818
          ],
          [
            82.277727,
            42.241136
          ],
          [
            82.279091,
            42.240455
          ],
          [
            82.280455,
            42.239773
          ],
          [
            82.281818,
            42.239091
          ],
          [
            82.283182,
            42.238409
          ],
          [
            82.284545,
            42.237727
          ],
          [
            82.285909,
            42.237045
          ],
          [
            82.287273,
            42.236364
          ],
          [
            82.288636,
            42.235682
          ],
          [
            82.29,
            42.235
          ],
          [
            82.291364,
            42.234318
          ],
          [
            82.292727,
            42.233636
          ],
          [
            82.294091,
            42.232955
          ],
          [
            82.295455,
            42.232273
          ],
          [
            82.296818,
            42.231591
          ],
          [
            82.298182,
            42.230909
          ],
          [
            82.299545,
            42.230227
          ],
          [
            82.300909,
            42.229545
          ],
          [
            82.302273,
            42.228864
          ],
          [
            82.303636,
            42.228182
          ],
          [
            82.305,
            42.2275
          ],
          [
            82.306364,
            42.226818
          ],
          [
            82.307727,
            42.226136
          ],
          [
            82.309091,
            42.225455
          ],
          [
            82.310455,
            42.224773
          ],
          [
            82.311818,
            42.224091
          ],
          [
            82.313182,
            42.223409
          ],
          [
            82.314545,
            42.222727
          ],
          [
            82.315909,
            42.222045
          ],
          [
            82.317273,
            42.221364
          ],
          [
            82.318636,
            42.220682
          ],
          [
            82.32,
            42.22
          ],
          [
            82.320937,
            42.220625
          ],
          [
            82.321875,
            42.22125
          ],
          [
            82.322812,
            42.221875
          ],
          [
            82.32375,
            42.2225
          ],
          [
            82.324687,
            42.223125
          ],
          [
            82.325625,
            42.22375
          ],
          [
            82.326562,
            42.224375
          ],
          [
            82.3275,
            42.225
          ],
          [
            82.328437,
            42.225625
          ],
          [
            82.329375,
            42.22625
          ],
          [
            82.330312,
            42.226875
          ],
          [
            82.33125,
            42.2275
          ],
          [
            82.332187,
            42.228125
          ],
          [
            82.333125,
            42.22875
          ],
          [
            82.334062,
            42.229375
          ],
          [
            82.335,
            42.23
          ],
          [
            82.335938,
            42.230625
          ],
          [
            82.336875,
            42.23125
          ],
          [
            82.337812,
            42.231875
          ],
          [
            82.33875,
            42.2325
          ],
          [
            82.339687,
            42.233125
          ],
          [
            82.340625,
            42.23375
          ],
          [
            82.341562,
            42.234375
          ],
          [
            82.3425,
            42.235
          ],
          [
            82.343437,
            42.235625
          ],
          [
            82.344375,
            42.23625
          ],
          [
            82.345312,
            42.236875
          ],
          [
            82.34625,
            42.2375
          ],
          [
            82.347187,
            42.238125
          ],
          [
            82.348125,
            42.23875
          ],
          [
            82.349062,
            42.239375
          ],
          [
            82.35,
            42.24
          ],
          [
            82.351042,
            42.239583
          ],
          [
            82.352083,
            42.239167
          ],
          [
            82.353125,
            42.23875
          ],
          [
            82.354167,
            42.238333
          ],
          [
            82.355208,
            42.237917
          ],
          [
            82.35625,
            42.2375
          ],
          [
            82.357292,
            42.237083
          ],
          [
            82.358333,
            42.236667
          ],
          [
            82.359375,
            42.23625
          ],
          [
            82.360417,
            42.235833
          ],
          [
            82.361458,
            42.235417
          ],
          [
            82.3625,
            42.235
          ],
          [
            82.363542,
            42.234583
          ],
          [
            82.364583,
            42.234167
          ],
          [
            82.365625,
            42.23375
          ],
          [
            82.366667,
            42.233333
          ],
          [
            82.367708,
            42.232917
          ],
          [
            82.36875,
            42.2325
          ],
          [
            82.369792,
            42.232083
          ],
          [
            82.370833,
            42.231667
          ],
          [
            82.371875,
            42.23125
          ],
          [
            82.372917,
            42.230833
          ],
          [
            82.373958,
            42.230417
          ],
          [
            82.375,
            42.23
          ],
          [
            82.376042,
            42.229583
          ],
          [
            82.377083,
            42.229167
          ],
          [
            82.378125,
            42.22875
          ],
          [
            82.379167,
            42.228333
          ],
          [
            82.380208,
            42.227917
          ],
          [
            82.38125,
            42.2275
          ],
          [
            82.382292,
            42.227083
          ],
          [
            82.383333,
            42.226667
          ],
          [
            82.384375,
            42.22625
          ],
          [
            82.385417,
            42.225833
          ],
          [
            82.386458,
            42.225417
          ],
          [
            82.3875,
            42.225
          ],
          [
            82.388542,
            42.224583
          ],
          [
            82.389583,
            42.224167
          ],
          [
            82.390625,
            42.22375
          ],
          [
            82.391667,
            42.223333
          ],
          [
            82.392708,
            42.222917
          ],
          [
            82.39375,
            42.2225
          ],
          [
            82.394792,
            42.222083
          ],
          [
            82.395833,
            42.221667
          ],
          [
            82.396875,
            42.22125
          ],
          [
            82.397917,
            42.220833
          ],
          [
            82.398958,
            42.220417
          ],
          [
            82.4,
            42.22
          ],
          [
            82.401042,
            42.219583
          ],
          [
            82.402083,
            42.219167
          ],
          [
            82.403125,
            42.21875
          ],
          [
            82.404167,
            42.218333
          ],
          [
            82.405208,
            42.217917
          ],
          [
            82.40625,
            42.2175
          ],
          [
            82.407292,
            42.217083
          ],
          [
            82.408333,
            42.216667
          ],
          [
            82.409375,
            42.21625
          ],
          [
            82.410417,
            42.215833
          ],
          [
            82.411458,
            42.215417
          ],
          [
            82.4125,
            42.215
          ],
          [
            82.413542,
            42.214583
          ],
          [
            82.414583,
            42.214167
          ],
          [
            82.415625,
            42.21375
          ],
          [
            82.416667,
            42.213333
          ],
          [
            82.417708,
            42.212917
          ],
          [
            82.41875,
            42.2125
          ],
          [
            82.419792,
            42.212083
          ],
          [
            82.420833,
            42.211667
          ],
          [
            82.421875,
            42.21125
          ],
          [
            82.422917,
            42.210833
          ],
          [
            82.423958,
            42.210417
          ],
          [
            82.425,
            42.21
          ],
          [
            82.426042,
            42.209583
          ],
          [
            82.427083,
            42.209167
          ],
          [
            82.428125,
            42.20875
          ],
          [
            82.429167,
            42.208333
          ],
          [
            82.430208,
            42.207917
          ],
          [
            82.43125,
            42.2075
          ],
          [
            82.432292,
            42.207083
          ],
          [
            82.433333,
            42.206667
          ],
          [
            82.434375,
            42.20625
          ],
          [
            82.435417,
            42.205833
          ],
          [
            82.436458,
            42.205417
          ],
          [
            82.4375,
            42.205
          ],
          [
            82.438542,
            42.204583
          ],
          [
            82.439583,
            42.204167
          ],
          [
            82.440625,
            42.20375
          ],
          [
            82.441667,
            42.203333
          ],
          [
            82.442708,
            42.202917
          ],
          [
            82.44375,
            42.2025
          ],
          [
            82.444792,
            42.202083
          ],
          [
            82.445833,
            42.201667
          ],
          [
            82.446875,
            42.20125
          ],
          [
            82.447917,
            42.200833
          ],
          [
            82.448958,
            42.200417
          ],
          [
            82.45,
            42.2
          ],
          [
            82.450987,
            42.199737
          ],
          [
            82.451974,
            42.199474
          ],
          [
            82.452961,
            42.199211
          ],
          [
            82.453947,
            42.198947
          ],
          [
            82.454934,
            42.198684
          ],
          [
            82.455921,
            42.198421
          ],
          [
            82.456908,
            42.198158
          ],
          [
            82.457895,
            42.197895
          ],
          [
            82.458882,
            42.197632
          ],
          [
            82.459868,
            42.197368
          ],
          [
            82.460855,
            42.197105
          ],
          [
            82.461842,
            42.196842
          ],
          [
            82.462829,
            42.196579
          ],
          [
            82.463816,
            42.196316
          ],
          [
            82.464803,
            42.196053
          ],
          [
            82.465789,
            42.195789
          ],
          [
            82.466776,
            42.195526
          ],
          [
            82.467763,
            42.195263
          ],
          [
            82.46875,
            42.195
          ],
          [
            82.469737,
            42.194737
          ],
          [
            82.470724,
            42.194474
          ],
          [
            82.471711,
            42.194211
          ],
          [
            82.472697,
            42.193947
          ],
          [
            82.473684,
            42.193684
          ],
          [
            82.474671,
            42.193421
          ],
          [
            82.475658,
            42.193158
          ],
          [
            82.476645,
            42.192895
          ],
          [
            82.477632,
            42.192632
          ],
          [
            82.478618,
            42.192368
          ],
          [
            82.479605,
            42.192105
          ],
          [
            82.480592,
            42.191842
          ],
          [
            82.481579,
            42.191579
          ],
          [
            82.482566,
            42.191316
          ],
          [
            82.483553,
            42.191053
          ],
          [
            82.484539,
            42.190789
          ],
          [
            82.485526,
            42.190526
          ],
          [
            82.486513,
            42.190263
          ],
          [
            82.4875,
            42.19
          ],
          [
            82.488487,
            42.189737
          ],
          [
            82.489474,
            42.189474
          ],
          [
            82.490461,
            42.189211
          ],
          [
            82.491447,
            42.188947
          ],
          [
            82.492434,
            42.188684
          ],
          [
            82.493421,
            42.188421
          ],
          [
            82.494408,
            42.188158
          ],
          [
            82.495395,
            42.187895
          ],
          [
            82.496382,
            42.187632
          ],
          [
            82.497368,
            42.187368
          ],
          [
            82.498355,
            42.187105
          ],
          [
            82.499342,
            42.186842
          ],
          [
            82.500329,
            42.186579
          ],
          [
            82.501316,
            42.186316
          ],
          [
            82.502303,
            42.186053
          ],
          [
            82.503289,
            42.185789
          ],
          [
            82.504276,
            42.185526
          ],
          [
            82.505263,
            42.185263
          ],
          [
            82.50625,
            42.185
          ],
          [
            82.507237,
            42.184737
          ],
          [
            82.508224,
            42.184474
          ],
          [
            82.509211,
            42.184211
          ],
          [
            82.510197,
            42.183947
          ],
          [
            82.511184,
            42.183684
          ],
          [
            82.512171,
            42.183421
          ],
          [
            82.513158,
            42.183158
          ],
          [
            82.514145,
            42.182895
          ],
          [
            82.515132,
            42.182632
          ],
          [
            82.516118,
            42.182368
          ],
          [
            82.517105,
            42.182105
          ],
          [
            82.518092,
            42.181842
          ],
          [
            82.519079,
            42.181579
          ],
          [
            82.520066,
            42.181316
          ],
          [
            82.521053,
            42.181053
          ],
          [
            82.522039,
            42.180789
          ],
          [
            82.523026,
            42.180526
          ],
          [
            82.524013,
            42.180263
          ],
          [
            82.525,
            42.18
          ],
          [
            82.525987,
            42.179737
          ],
          [
            82.526974,
            42.179474
          ],
          [
            82.527961,
            42.179211
          ],
          [
            82.528947,
            42.178947
          ],
          [
            82.529934,
            42.178684
          ],
          [
            82.530921,
            42.178421
          ],
          [
            82.531908,
            42.178158
          ],
          [
            82.532895,
            42.177895
          ],
          [
            82.533882,
            42.177632
          ],
          [
            82.534868,
            42.177368
          ],
          [
            82.535855,
            42.177105
          ],
          [
            82.536842,
            42.176842
          ],
          [
            82.537829,
            42.176579
          ],
          [
            82.538816,
            42.176316
          ],
          [
            82.539803,
            42.176053
          ],
          [
            82.540789,
            42.175789
          ],
          [
            82.541776,
            42.175526
          ],
          [
            82.542763,
            42.175263
          ],
          [
            82.54375,
            42.175
          ],
          [
            82.544737,
            42.174737
          ],
          [
            82.545724,
            42.174474
          ],
          [
            82.546711,
            42.174211
          ],
          [
            82.547697,
            42.173947
          ],
          [
            82.548684,
            42.173684
          ],
          [
            82.549671,
            42.173421
          ],
          [
            82.550658,
            42.173158
          ],
          [
            82.551645,
            42.172895
          ],
          [
            82.552632,
            42.172632
          ],
          [
            82.553618,
            42.172368
          ],
          [
            82.554605,
            42.172105
          ],
          [
            82.555592,
            42.171842
          ],
          [
            82.556579,
            42.171579
          ],
          [
            82.557566,
            42.171316
          ],
          [
            82.558553,
            42.171053
          ],
          [
            82.559539,
            42.170789
          ],
          [
            82.560526,
            42.170526
          ],
          [
            82.561513,
            42.170263
          ],
          [
            82.5625,
            42.17
          ],
          [
            82.563487,
            42.169737
          ],
          [
            82.564474,
            42.169474
          ],
          [
            82.565461,
            42.169211
          ],
          [
            82.566447,
            42.168947
          ],
          [
            82.567434,
            42.168684
          ],
          [
            82.568421,
            42.168421
          ],
          [
            82.569408,
            42.168158
          ],
          [
            82.570395,
            42.167895
          ],
          [
            82.571382,
            42.167632
          ],
          [
            82.572368,
            42.167368
          ],
          [
            82.573355,
            42.167105
          ],
          [
            82.574342,
            42.166842
          ],
          [
            82.575329,
            42.166579
          ],
          [
            82.576316,
            42.166316
          ],
          [
            82.577303,
            42.166053
          ],
          [
            82.578289,
            42.165789
          ],
          [
            82.579276,
            42.165526
          ],
          [
            82.580263,
            42.165263
          ],
          [
            82.58125,
            42.165
          ],
          [
            82.582237,
            42.164737
          ],
          [
            82.583224,
            42.164474
          ],
          [
            82.584211,
            42.164211
          ],
          [
            82.585197,
            42.163947
          ],
          [
            82.586184,
            42.163684
          ],
          [
            82.587171,
            42.163421
          ],
          [
            82.588158,
            42.163158
          ],
          [
            82.589145,
            42.162895
          ],
          [
            82.590132,
            42.162632
          ],
          [
            82.591118,
            42.162368
          ],
          [
            82.592105,
            42.162105
          ],
          [
            82.593092,
            42.161842
          ],
          [
            82.594079,
            42.161579
          ],
          [
            82.595066,
            42.161316
          ],
          [
            82.596053,
            42.161053
          ],
          [
            82.597039,
            42.160789
          ],
          [
            82.598026,
            42.160526
          ],
          [
            82.599013,
            42.160263
          ],
          [
            82.6,
            42.16
          ]
        ]
      }
    }
  ]
}