{
  "type": "FeatureCollection",
  "features": [
    {
      "type": "Feature",
      "properties": {
        "name": "五台山大朝台参考轨迹",
        "type": "hiking",
        "source": "霞客示例路书"
      },
      "geometry": {
        "type": "LineString",
        "coordinates": [
          [
            113.59,
            39.01
          ],
          [
            113.59375,
            39.01125
          ],
          [
            113.5975,
            39.0125
          ],
          [
            113.60125,
            39.01375
          ],
          [
            113.605,
            39.015
          ],
          [
            113.60875,
            39.01625
          ],
          [
            113.6125,
            39.0175
          ],
          [
            113.61625,
            39.01875
          ],
          [
            113.62,
            39.02
          ],
          [
            113.621667,
            39.021667
          ],
          [
            113.623333,
            39.023333
          ],
          [
            113.625,
            39.025
          ],
          [
            113.626667,
            39.026667
          ],
          [
            113.628333,
            39.028333
          ],
          [
            113.63,
            39.03
          ],
          [
            113.631667,
            39.031667
          ],
          [
            113.633333,
            39.033333
          ],
          [
            113.635,
            39.035
          ],
          [
            113.636667,
            39.036667
          ],
          [
            113.638333,
            39.038333
          ],
          [
            113.64,
            39.04
          ],
          [
            113.641667,
            39.041667
          ],
          [
            113.643333,
            39.043333
          ],
          [
            113.645,
            39.045
          ],
          [
            113.646667,
            39.046667
          ],
          [
            113.648333,
            39.048333
          ],
          [
            113.65,
            39.05
          ],
          [
            113.651667,
            39.051667
          ],
          [
            113.653333,
            39.053333
          ],
          [
            113.655,
            39.055
          ],
          [
            113.656667,
            39.056667
          ],
          [
            113.658333,
            39.058333
          ],
          [
            113.66,
            39.06
          ],
          [
            113.65875,
            39.059375
          ],
          [
            113.6575,
            39.05875
          ],
          [
            113.65625,
            39.058125
          ],
          [
            113.655,
            39.0575
          ],
          [
            113.65375,
            39.056875
          ],
          [
            113.6525,
            39.05625
          ],
          [
            113.65125,
            39.055625
          ],
          [
            113.65,
            39.055
          ],
          [
            113.64875,
            39.054375
          ],
          [
            113.6475,
            39.05375
          ],
          [
            113.64625,
            39.053125
          ],
          [
            113.645,
            39.0525
          ],
          [
            113.64375,
            39.051875
          ],
          [
            113.6425,
            39.05125
          ],
          [
            113.64125,
            39.050625
          ],
          [
            113.64,
            39.05
          ],
          [
            113.63875,
            39.049375
          ],
          [
            113.6375,
            39.04875
          ],
          [
            113.63625,
            39.048125
          ],
          [
            113.635,
            39.0475
          ],
          [
            113.63375,
            39.046875
          ],
          [
            113.6325,
            39.04625
          ],
          [
            113.63125,
            39.045625
          ],
          [
            113.63,
            39.045
          ],
          [
            113.62875,
            39.044375
          ],
          [
            113.6275,
            39.04375
          ],
          [
            113.62625,
            39.043125
          ],
          [
            113.625,
            39.0425
          ],
          [
            113.62375,
            39.041875
          ],
          [
            113.6225,
            39.04125
          ],
          [
            113.62125,
            39.040625
          ],
          [
            113.62,
            39.04
          ],
          [
            113.618437,
            39.039687
          ],
          [
            113.616875,
            39.039375
          ],
          [
            113.615313,
            39.039063
          ],
          [
            113.61375,
            39.03875
          ],
          [
            113.612188,
            39.038438
          ],
          [
            113.610625,
            39.038125
          ],
          [
            113.609063,
            39.037813
          ],
          [
            113.6075,
            39.0375
          ],
          [
            113.605937,
            39.037188
          ],
          [
            113.604375,
            39.036875
          ],
          [
            113.602812,
            39.036563
          ],
          [
            113.60125,
            39.03625
          ],
          [
            113.599688,
            39.035938
          ],
          [
            113.598125,
            39.035625
          ],
          [
            113.596563,
            39.035313
          ],
          [
            113.595,
            39.035
          ],
          [
            113.593437,
            39.034687
          ],
          [
            113.591875,
            39.034375
          ],
          [
            113.590312,
            39.034062
          ],
          [
            113.58875,
            39.03375
          ],
          [
            113.587187,
            39.033437
          ],
          [
            113.585625,
            39.033125
          ],
          [
            113.584063,
            39.032812
          ],
          [
            113.5825,
            39.0325
          ],
          [
            113.580937,
            39.032187
          ],
          [
            113.579375,
            39.031875
          ],
          [
            113.577812,
            39.031562
          ],
          [
            113.57625,
            39.03125
          ],
          [
            113.574687,
            39.030938
          ],
          [
            113.573125,
            39.030625
          ],
          [
            113.571562,
            39.030313
          ],
          [
            113.57,
            39.03
          ],
          [
            113.568437,
            39.029375
          ],
          [
            113.566875,
            39.02875
          ],
          [
            113.565312,
            39.028125
          ],
          [
            113.56375,
            39.0275
          ],
          [
            113.562187,
            39.026875
          ],
          [
            113.560625,
            39.02625
          ],
          [
            113.559062,
            39.025625
          ],
          [
            113.5575,
            39.025
          ],
          [
            113.555937,
            39.024375
          ],
          [
            113.554375,
            39.02375
          ],
          [
            113.552812,
            39.023125
          ],
          [
            113.55125,
            39.0225
          ],
          [
            113.549687,
            39.021875
          ],
          [
            113.548125,
            39.02125
          ],
          [
            113.546562,
            39.020625
          ],
          [
            113.545,
            39.02
          ],
          [
            113.543437,
            39.019375
          ],
          [
            113.541875,
            39.01875
          ],
          [
            113.540312,
            39.018125
          ],
          [
            113.53875,
            39.0175
          ],
          [
            113.537188,
            39.016875
          ],
          [
            113.535625,
            39.01625
          ],
          [
            113.534062,
            39.015625
          ],
          [
            113.5325,
            39.015
          ],
          [
            113.530937,
            39.014375
          ],
          [
            113.529375,
            39.01375
          ],
          [
            113.527812,
            39.013125
          ],
          [
            113.52625,
            39.0125
          ],
          [
            113.524687,
            39.011875
          ],
          [
            113.523125,
            39.01125
          ],
          [
            113.521563,
            39.010625
          ],
          [
            113.52,
            39.01
          ],
          [
            113.519615,
            39.009038
          ],
          [
            113.519231,
            39.008077
          ],
          [
            113.518846,
            39.007115
          ],
          [
            113.518462,
            39.006154
          ],
          [
            113.518077,
            39.005192
          ],
          [
            113.517692,
            39.004231
          ],
          [
            113.517308,
            39.003269
          ],
          [
            113.516923,
            39.002308
          ],
          [
            113.516538,
            39.001346
          ],
          [
            113.516154,
            39.000385
          ],
          [
            113.515769,
            38.999423
          ],
          [
            113.515385,
            38.998462
          ],
          [
            113.515,
            38.9975
          ],
          [
            113.514615,
            38.996538
          ],
          [
            113.514231,
            38.995577
          ],
          [
            113.513846,
            38.994615
          ],
          [
            113.513462,
            38.993654
          ],
          [
            113.513077,
            38.992692
          ],
          [
            113.512692,
            38.991731
          ],
          [
            113.512308,
            38.990769
          ],
          [
            113.511923,
            38.989808
          ],
          [
            113.511538,
            38.988846
          ],
          [
            113.511154,
            38.987885
          ],
          [
            113.510769,
            38.986923
          ],
          [
            113.510385,
            38.985962
          ],
          [
            113.51,
            38.985
          ],
          [
            113.509615,
            38.984038
          ],
          [
            113.509231,
            38.983077
          ],
          [
            113.508846,
            38.982115
          ],
          [
            113.508462,
            38.981154
          ],
          [
            113.508077,
            38.980192
          ],
          [
            113.507692,
            38.979231
          ],
          [
            113.507308,
            38.978269
          ],
          [
            113.506923,
            38.977308
          ],
          [
            113.506538,
            38.976346
          ],
          [
            113.506154,
            38.975385
          ],
          [
            113.505769,
            38.974423
          ],
          [
            113.505385,
            38.973462
          ],
          [
            113.505,
            38.9725
          ],
          [
            113.504615,
            38.971538
          ],
          [
            113.504231,
            38.970577
          ],
          [
            113.503846,
            38.969615
          ],
          [
            113.503462,
            38.968654
          ],
          [
            113.503077,
            38.967692
          ],
          [
            113.502692,
            38.966731
          ],
          [
            113.502308,
            38.965769
          ],
          [
            113.501923,
            38.964808
          ],
          [
            113.501538,
            38.963846
          ],
          [
            113.501154,
            38.962885
          ],
          [
            113.500769,
            38.961923
          ],
          [
            113.500385,
            38.960962
          ],
          [
            113.5,
            38.96
          ]
        ]
      }
    }
  ]
}