<?xml version="1.0" encoding="UTF-8"?>
<gpx version="1.1" creator="霞客示例路书" xmlns="http://www.topografix.com/GPX/1/1">
  <metadata><name>五台山大朝台参考轨迹</name></metadata>
  <trk><name>五台山大朝台</name><trkseg>
      <trkpt lat="39.01" lon="113.59"><ele>2500</ele></trkpt>
      <trkpt lat="39.01125" lon="113.59375"><ele>2537</ele></trkpt>
      <trkpt lat="39.0125" lon="113.5975"><ele>2574</ele></trkpt>
      <trkpt lat="39.01375" lon="113.60125"><ele>2611</ele></trkpt>
      <trkpt lat="39.015" lon="113.605"><ele>2648</ele></trkpt>
      <trkpt lat="39.01625" lon="113.60875"><ele>2685</ele></trkpt>
      <trkpt lat="39.0175" lon="113.6125"><ele>2722</ele></trkpt>
      <trkpt lat="39.01875" lon="113.61625"><ele>2759</ele></trkpt>
      <trkpt lat="39.02" lon="113.62"><ele>2796</ele></trkpt>
      <trkpt lat="39.021667" lon="113.621667"><ele>2807</ele></trkpt>
      <trkpt lat="39.023333" lon="113.623333"><ele>2818</ele></trkpt>
      <trkpt lat="39.025" lon="113.625"><ele>2829</ele></trkpt>
      <trkpt lat="39.026667" lon="113.626667"><ele>2840</ele></trkpt>
      <trkpt lat="39.028333" lon="113.628333"><ele>2851</ele></trkpt>
      <trkpt lat="39.03" lon="113.63"><ele>2862</ele></trkpt>
      <trkpt lat="39.031667" lon="113.631667"><ele>2873</ele></trkpt>
      <trkpt lat="39.033333" lon="113.633333"><ele>2884</ele></trkpt>
      <trkpt lat="39.035" lon="113.635"><ele>2895</ele></trkpt>
      <trkpt lat="39.036667" lon="113.636667"><ele>2906</ele></trkpt>
      <trkpt lat="39.038333" lon="113.638333"><ele>2917</ele></trkpt>
      <trkpt lat="39.04" lon="113.64"><ele>2929</ele></trkpt>
      <trkpt lat="39.041667" lon="113.641667"><ele>2940</ele></trkpt>
      <trkpt lat="39.043333" lon="113.643333"><ele>2951</ele></trkpt>
      <trkpt lat="39.045" lon="113.645"><ele>2962</ele></trkpt>
      <trkpt lat="39.046667" lon="113.646667"><ele>2973</ele></trkpt>
      <trkpt lat="39.048333" lon="113.648333"><ele>2984</ele></trkpt>
      <trkpt lat="39.05" lon="113.65"><ele>2995</ele></trkpt>
      <trkpt lat="39.051667" lon="113.651667"><ele>3006</ele></trkpt>
      <trkpt lat="39.053333" lon="113.653333"><ele>3017</ele></trkpt>
      <trkpt lat="39.055" lon="113.655"><ele>3028</ele></trkpt>
      <trkpt lat="39.056667" lon="113.656667"><ele>3039</ele></trkpt>
      <trkpt lat="39.058333" lon="113.658333"><ele>3050</ele></trkpt>
      <trkpt lat="39.06" lon="113.66"><ele>3061</ele></trkpt>
      <trkpt lat="39.059375" lon="113.65875"><ele>3056</ele></trkpt>
      <trkpt lat="39.05875" lon="113.6575"><ele>3050</ele></trkpt>
      <trkpt lat="39.058125" lon="113.65625"><ele>3045</ele></trkpt>
      <trkpt lat="39.0575" lon="113.655"><ele>3040</ele></trkpt>
      <trkpt lat="39.056875" lon="113.65375"><ele>3034</ele></trkpt>
      <trkpt lat="39.05625" lon="113.6525"><ele>3029</ele></trkpt>
      <trkpt lat="39.055625" lon="113.65125"><ele>3024</ele></trkpt>
      <trkpt lat="39.055" lon="113.65"><ele>3018</ele></trkpt>
      <trkpt lat="39.054375" lon="113.64875"><ele>3013</ele></trkpt>
      <trkpt lat="39.05375" lon="113.6475"><ele>3008</ele></trkpt>
      <trkpt lat="39.053125" lon="113.64625"><ele>3002</ele></trkpt>
      <trkpt lat="39.0525" lon="113.645"><ele>2997</ele></trkpt>
      <trkpt lat="39.051875" lon="113.64375"><ele>2992</ele></trkpt>
      <trkpt lat="39.05125" lon="113.6425"><ele>2986</ele></trkpt>
      <trkpt lat="39.050625" lon="113.64125"><ele>2981</ele></trkpt>
      <trkpt lat="39.05" lon="113.64"><ele>2976</ele></trkpt>
      <trkpt lat="39.049375" lon="113.63875"><ele>2970</ele></trkpt>
      <trkpt lat="39.04875" lon="113.6375"><ele>2965</ele></trkpt>
      <trkpt lat="39.048125" lon="113.63625"><ele>2959</ele></trkpt>
      <trkpt lat="39.0475" lon="113.635"><ele>2954</ele></trkpt>
      <trkpt lat="39.046875" lon="113.63375"><ele>2949</ele></trkpt>
      <trkpt lat="39.04625" lon="113.6325"><ele>2943</ele></trkpt>
      <trkpt lat="39.045625" lon="113.63125"><ele>2938</ele></trkpt>
      <trkpt lat="39.045" lon="113.63"><ele>2933</ele></trkpt>
      <trkpt lat="39.044375" lon="113.62875"><ele>2927</ele></trkpt>
      <trkpt lat="39.04375" lon="113.6275"><ele>2922</ele></trkpt>
      <trkpt lat="39.043125" lon="113.62625"><ele>2917</ele></trkpt>
      <trkpt lat="39.0425" lon="113.625"><ele>2911</ele></trkpt>
      <trkpt lat="39.041875" lon="113.62375"><ele>2906</ele></trkpt>
      <trkpt lat="39.04125" lon="113.6225"><ele>2901</ele></trkpt>
      <trkpt lat="39.040625" lon="113.62125"><ele>2895</ele></trkpt>
      <trkpt lat="39.04" lon="113.62"><ele>2890</ele></trkpt>
      <trkpt lat="39.039687" lon="113.618437"><ele>2886</ele></trkpt>
      <trkpt lat="39.039375" lon="113.616875"><ele>2883</ele></trkpt>
      <trkpt lat="39.039063" lon="113.615313"><ele>2879</ele></trkpt>
      <trkpt lat="39.03875" lon="113.61375"><ele>2875</ele></trkpt>
      <trkpt lat="39.038438" lon="113.612188"><ele>2872</ele></trkpt>
      <trkpt lat="39.038125" lon="113.610625"><ele>2868</ele></trkpt>
      <trkpt lat="39.037813" lon="113.609063"><ele>2864</ele></trkpt>
      <trkpt lat="39.0375" lon="113.6075"><ele>2861</ele></trkpt>
      <trkpt lat="39.037188" lon="113.605937"><ele>2857</ele></trkpt>
      <trkpt lat="39.036875" lon="113.604375"><ele>2853</ele></trkpt>
      <trkpt lat="39.036563" lon="113.602812"><ele>2850</ele></trkpt>
      <trkpt lat="39.03625" lon="113.60125"><ele>2846</ele></trkpt>
      <trkpt lat="39.035938" lon="113.599688"><ele>2842</ele></trkpt>
      <trkpt lat="39.035625" lon="113.598125"><ele>2839</ele></trkpt>
      <trkpt lat="39.035313" lon="113.596563"><ele>2835</ele></trkpt>
      <trkpt lat="39.035" lon="113.595"><ele>2832</ele></trkpt>
      <trkpt lat="39.034687" lon="113.593437"><ele>2828</ele></trkpt>
      <trkpt lat="39.034375" lon="113.591875"><ele>2824</ele></trkpt>
      <trkpt lat="39.034062" lon="113.590312"><ele>2821</ele></trkpt>
      <trkpt lat="39.03375" lon="113.58875"><ele>2817</ele></trkpt>
      <trkpt lat="39.033437" lon="113.587187"><ele>2813</ele></trkpt>
      <trkpt lat="39.033125" lon="113.585625"><ele>2810</ele></trkpt>
      <trkpt lat="39.032812" lon="113.584063"><ele>2806</ele></trkpt>
      <trkpt lat="39.0325" lon="113.5825"><ele>2802</ele></trkpt>
      <trkpt lat="39.032187" lon="113.580937"><ele>2799</ele></trkpt>
      <trkpt lat="39.031875" lon="113.579375"><ele>2795</ele></trkpt>
      <trkpt lat="39.031562" lon="113.577812"><ele>2791</ele></trkpt>
      <trkpt lat="39.03125" lon="113.57625"><ele>2788</ele></trkpt>
      <trkpt lat="39.030938" lon="113.574687"><ele>2784</ele></trkpt>
      <trkpt lat="39.030625" lon="113.573125"><ele>2780</ele></trkpt>
      <trkpt lat="39.030313" lon="113.571562"><ele>2777</ele></trkpt>
      <trkpt lat="39.03" lon="113.57"><ele>2773</ele></trkpt>
      <trkpt lat="39.029375" lon="113.568437"><ele>2758</ele></trkpt>
      <trkpt lat="39.02875" lon="113.566875"><ele>2743</ele></trkpt>
      <trkpt lat="39.028125" lon="113.565312"><ele>2729</ele></trkpt>
      <trkpt lat="39.0275" lon="113.56375"><ele>2714</ele></trkpt>
      <trkpt lat="39.026875" lon="113.562187"><ele>2699</ele></trkpt>
      <trkpt lat="39.02625" lon="113.560625"><ele>2684</ele></trkpt>
      <trkpt lat="39.025625" lon="113.559062"><ele>2670</ele></trkpt>
      <trkpt lat="39.025" lon="113.5575"><ele>2655</ele></trkpt>
      <trkpt lat="39.024375" lon="113.555937"><ele>2640</ele></trkpt>
      <trkpt lat="39.02375" lon="113.554375"><ele>2625</ele></trkpt>
      <trkpt lat="39.023125" lon="113.552812"><ele>2610</ele></trkpt>
      <trkpt lat="39.0225" lon="113.55125"><ele>2596</ele></trkpt>
      <trkpt lat="39.021875" lon="113.549687"><ele>2581</ele></trkpt>
      <trkpt lat="39.02125" lon="113.548125"><ele>2566</ele></trkpt>
      <trkpt lat="39.020625" lon="113.546562"><ele>2551</ele></trkpt>
      <trkpt lat="39.02" lon="113.545"><ele>2537</ele></trkpt>
      <trkpt lat="39.019375" lon="113.543437"><ele>2522</ele></trkpt>
      <trkpt lat="39.01875" lon="113.541875"><ele>2507</ele></trkpt>
      <trkpt lat="39.018125" lon="113.540312"><ele>2492</ele></trkpt>
      <trkpt lat="39.0175" lon="113.53875"><ele>2477</ele></trkpt>
      <trkpt lat="39.016875" lon="113.537188"><ele>2463</ele></trkpt>
      <trkpt lat="39.01625" lon="113.535625"><ele>2448</ele></trkpt>
      <trkpt lat="39.015625" lon="113.534062"><ele>2433</ele></trkpt>
      <trkpt lat="39.015" lon="113.5325"><ele>2418</ele></trkpt>
      <trkpt lat="39.014375" lon="113.530937"><ele>2403</ele></trkpt>
      <trkpt lat="39.01375" lon="113.529375"><ele>2389</ele></trkpt>
      <trkpt lat="39.013125" lon="113.527812"><ele>2374</ele></trkpt>
      <trkpt lat="39.0125" lon="113.52625"><ele>2359</ele></trkpt>
      <trkpt lat="39.011875" lon="113.524687"><ele>2344</ele></trkpt>
      <trkpt lat="39.01125" lon="113.523125"><ele>2330</ele></trkpt>
      <trkpt lat="39.010625" lon="113.521563"><ele>2315</ele></trkpt>
      <trkpt lat="39.01" lon="113.52"><ele>2300</ele></trkpt>
      <trkpt lat="39.009038" lon="113.519615"><ele>2304</ele></trkpt>
      <trkpt lat="39.008077" lon="113.519231"><ele>2307</ele></trkpt>
      <trkpt lat="39.007115" lon="113.518846"><ele>2311</ele></trkpt>
      <trkpt lat="39.006154" lon="113.518462"><ele>2314</ele></trkpt>
      <trkpt lat="39.005192" lon="113.518077"><ele>2318</ele></trkpt>
      <trkpt lat="39.004231" lon="113.517692"><ele>2321</ele></trkpt>
      <trkpt lat="39.003269" lon="113.517308"><ele>2325</ele></trkpt>
      <trkpt lat="39.002308" lon="113.516923"><ele>2328</ele></trkpt>
      <trkpt lat="39.001346" lon="113.516538"><ele>2332</ele></trkpt>
      <trkpt lat="39.000385" lon="113.516154"><ele>2336</ele></trkpt>
      <trkpt lat="38.999423" lon="113.515769"><ele>2339</ele></trkpt>
      <trkpt lat="38.998462" lon="113.515385"><ele>2343</ele></trkpt>
      <trkpt lat="38.9975" lon="113.515"><ele>2346</ele></trkpt>
      <trkpt lat="38.996538" lon="113.514615"><ele>2350</ele></trkpt>
      <trkpt lat="38.995577" lon="113.514231"><ele>2353</ele></trkpt>
      <trkpt lat="38.994615" lon="113.513846"><ele>2357</ele></trkpt>
      <trkpt lat="38.993654" lon="113.513462"><ele>2360</ele></trkpt>
      <trkpt lat="38.992692" lon="113.513077"><ele>2364</ele></trkpt>
      <trkpt lat="38.991731" lon="113.512692"><ele>2368</ele></trkpt>
      <trkpt lat="38.990769" lon="113.512308"><ele>2371</ele></trkpt>
      <trkpt lat="38.989808" lon="113.511923"><ele>2375</ele></trkpt>
      <trkpt lat="38.988846" lon="113.511538"><ele>2378</ele></trkpt>
      <trkpt lat="38.987885" lon="113.511154"><ele>2382</ele></trkpt>
      <trkpt lat="38.986923" lon="113.510769"><ele>2385</ele></trkpt>
      <trkpt lat="38.985962" lon="113.510385"><ele>2389</ele></trkpt>
      <trkpt lat="38.985" lon="113.51"><ele>2393</ele></trkpt>
      <trkpt lat="38.984038" lon="113.509615"><ele>2396</ele></trkpt>
      <trkpt lat="38.983077" lon="113.509231"><ele>2400</ele></trkpt>
      <trkpt lat="38.982115" lon="113.508846"><ele>2403</ele></trkpt>
      <trkpt lat="38.981154" lon="113.508462"><ele>2407</ele></trkpt>
      <trkpt lat="38.980192" lon="113.508077"><ele>2410</ele></trkpt>
      <trkpt lat="38.979231" lon="113.507692"><ele>2414</ele></trkpt>
      <trkpt lat="38.978269" lon="113.507308"><ele>2417</ele></trkpt>
      <trkpt lat="38.977308" lon="113.506923"><ele>2421</ele></trkpt>
      <trkpt lat="38.976346" lon="113.506538"><ele>2425</ele></trkpt>
      <trkpt lat="38.975385" lon="113.506154"><ele>2428</ele></trkpt>
      <trkpt lat="38.974423" lon="113.505769"><ele>2432</ele></trkpt>
      <trkpt lat="38.973462" lon="113.505385"><ele>2435</ele></trkpt>
      <trkpt lat="38.9725" lon="113.505"><ele>2439</ele></trkpt>
      <trkpt lat="38.971538" lon="113.504615"><ele>2442</ele></trkpt>
      <trkpt lat="38.970577" lon="113.504231"><ele>2446</ele></trkpt>
      <trkpt lat="38.969615" lon="113.503846"><ele>2449</ele></trkpt>
      <trkpt lat="38.968654" lon="113.503462"><ele>2453</ele></trkpt>
      <trkpt lat="38.967692" lon="113.503077"><ele>2457</ele></trkpt>
      <trkpt lat="38.966731" lon="113.502692"><ele>2460</ele></trkpt>
      <trkpt lat="38.965769" lon="113.502308"><ele>2464</ele></trkpt>
      <trkpt lat="38.964808" lon="113.501923"><ele>2467</ele></trkpt>
      <trkpt lat="38.963846" lon="113.501538"><ele>2471</ele></trkpt>
      <trkpt lat="38.962885" lon="113.501154"><ele>2474</ele></trkpt>
      <trkpt lat="38.961923" lon="113.500769"><ele>2478</ele></trkpt>
      <trkpt lat="38.960962" lon="113.500385"><ele>2481</ele></trkpt>
      <trkpt lat="38.96" lon="113.5"><ele>2485</ele></trkpt>
    </trkseg></trk>
</gpx>
