<?xml version="1.0" encoding="UTF-8"?>
<gpx version="1.1" creator="霞客示例路书" xmlns="http://www.topografix.com/GPX/1/1">
  <metadata><name>稻城亚丁小转山参考轨迹</name></metadata>
  <trk><name>稻城亚丁小转山</name><trkseg>
      <trkpt lat="28.56" lon="100.34"><ele>2900</ele></trkpt>
      <trkpt lat="28.5555" lon="100.3405"><ele>2950</ele></trkpt>
      <trkpt lat="28.551" lon="100.341"><ele>3000</ele></trkpt>
      <trkpt lat="28.5465" lon="100.3415"><ele>3050</ele></trkpt>
      <trkpt lat="28.542" lon="100.342"><ele>3100</ele></trkpt>
      <trkpt lat="28.5375" lon="100.3425"><ele>3150</ele></trkpt>
      <trkpt lat="28.533" lon="100.343"><ele>3200</ele></trkpt>
      <trkpt lat="28.5285" lon="100.3435"><ele>3250</ele></trkpt>
      <trkpt lat="28.524" lon="100.344"><ele>3300</ele></trkpt>
      <trkpt lat="28.5195" lon="100.3445"><ele>3350</ele></trkpt>
      <trkpt lat="28.515" lon="100.345"><ele>3400</ele></trkpt>
      <trkpt lat="28.5105" lon="100.3455"><ele>3450</ele></trkpt>
      <trkpt lat="28.506" lon="100.346"><ele>3500</ele></trkpt>
      <trkpt lat="28.5015" lon="100.3465"><ele>3550</ele></trkpt>
      <trkpt lat="28.497" lon="100.347"><ele>3600</ele></trkpt>
      <trkpt lat="28.4925" lon="100.3475"><ele>3650</ele></trkpt>
      <trkpt lat="28.488" lon="100.348"><ele>3700</ele></trkpt>
      <trkpt lat="28.4835" lon="100.3485"><ele>3750</ele></trkpt>
      <trkpt lat="28.479" lon="100.349"><ele>3800</ele></trkpt>
      <trkpt lat="28.4745" lon="100.3495"><ele>3850</ele></trkpt>
      <trkpt lat="28.47" lon="100.35"><ele>3900</ele></trkpt>
      <trkpt lat="28.4675" lon="100.34875"><ele>3900</ele></trkpt>
      <trkpt lat="28.465" lon="100.3475"><ele>3900</ele></trkpt>
      <trkpt lat="28.4625" lon="100.34625"><ele>3900</ele></trkpt>
      <trkpt lat="28.46" lon="100.345"><ele>3900</ele></trkpt>
      <trkpt lat="28.4575" lon="100.34375"><ele>3900</ele></trkpt>
      <trkpt lat="28.455" lon="100.3425"><ele>3900</ele></trkpt>
      <trkpt lat="28.4525" lon="100.34125"><ele>3900</ele></trkpt>
      <trkpt lat="28.45" lon="100.34"><ele>3900</ele></trkpt>
      <trkpt lat="28.4475" lon="100.339167"><ele>3923</ele></trkpt>
      <trkpt lat="28.445" lon="100.338333"><ele>3947</ele></trkpt>
      <trkpt lat="28.4425" lon="100.3375"><ele>3970</ele></trkpt>
      <trkpt lat="28.44" lon="100.336667"><ele>3993</ele></trkpt>
      <trkpt lat="28.4375" lon="100.335833"><ele>4017</ele></trkpt>
      <trkpt lat="28.435" lon="100.335"><ele>4040</ele></trkpt>
      <trkpt lat="28.4325" lon="100.334167"><ele>4063</ele></trkpt>
      <trkpt lat="28.43" lon="100.333333"><ele>4087</ele></trkpt>
      <trkpt lat="28.4275" lon="100.3325"><ele>4110</ele></trkpt>
      <trkpt lat="28.425" lon="100.331667"><ele>4133</ele></trkpt>
      <trkpt lat="28.4225" lon="100.330833"><ele>4157</ele></trkpt>
      <trkpt lat="28.42" lon="100.33"><ele>4180</ele></trkpt>
      <trkpt lat="28.41875" lon="100.329375"><ele>4206</ele></trkpt>
      <trkpt lat="28.4175" lon="100.32875"><ele>4233</ele></trkpt>
      <trkpt lat="28.41625" lon="100.328125"><ele>4259</ele></trkpt>
      <trkpt lat="28.415" lon="100.3275"><ele>4285</ele></trkpt>
      <trkpt lat="28.41375" lon="100.326875"><ele>4311</ele></trkpt>
      <trkpt lat="28.4125" lon="100.32625"><ele>4338</ele></trkpt>
      <trkpt lat="28.41125" lon="100.325625"><ele>4364</ele></trkpt>
      <trkpt lat="28.41" lon="100.325"><ele>4390</ele></trkpt>
      <trkpt lat="28.40875" lon="100.324375"><ele>4416</ele></trkpt>
      <trkpt lat="28.4075" lon="100.32375"><ele>4443</ele></trkpt>
      <trkpt lat="28.40625" lon="100.323125"><ele>4469</ele></trkpt>
      <trkpt lat="28.405" lon="100.3225"><ele>4495</ele></trkpt>
      <trkpt lat="28.40375" lon="100.321875"><ele>4521</ele></trkpt>
      <trkpt lat="28.4025" lon="100.32125"><ele>4548</ele></trkpt>
      <trkpt lat="28.40125" lon="100.320625"><ele>4574</ele></trkpt>
      <trkpt lat="28.4" lon="100.32"><ele>4600</ele></trkpt>
      <trkpt lat="28.3975" lon="100.3175"><ele>4625</ele></trkpt>
      <trkpt lat="28.395" lon="100.315"><ele>4650</ele></trkpt>
      <trkpt lat="28.3925" lon="100.3125"><ele>4675</ele></trkpt>
      <trkpt lat="28.39" lon="100.31"><ele>4700</ele></trkpt>
    </trkseg></trk>
</gpx>
