{
  "type": "FeatureCollection",
  "features": [
    {
      "type": "Feature",
      "properties": {
        "name": "稻城亚丁小转山参考轨迹",
        "type": "hiking",
        "source": "霞客示例路书"
      },
      "geometry": {
        "type": "LineString",
        "coordinates": [
          [
            100.34,
            28.56
          ],
          [
            100.3405,
            28.5555
          ],
          [
            100.341,
            28.551
          ],
          [
            100.3415,
            28.5465
          ],
          [
            100.342,
            28.542
          ],
          [
            100.3425,
            28.5375
          ],
          [
            100.343,
            28.533
          ],
          [
            100.3435,
            28.5285
          ],
          [
            100.344,
            28.524
          ],
          [
            100.3445,
            28.5195
          ],
          [
            100.345,
            28.515
          ],
          [
            100.3455,
            28.5105
          ],
          [
            100.346,
            28.506
          ],
          [
            100.3465,
            28.5015
          ],
          [
            100.347,
            28.497
          ],
          [
            100.3475,
            28.4925
          ],
          [
            100.348,
            28.488
          ],
          [
            100.3485,
            28.4835
          ],
          [
            100.349,
            28.479
          ],
          [
            100.3495,
            28.4745
          ],
          [
            100.35,
            28.47
          ],
          [
            100.34875,
            28.4675
          ],
          [
            100.3475,
            28.465
          ],
          [
            100.34625,
            28.4625
          ],
          [
            100.345,
            28.46
          ],
          [
            100.34375,
            28.4575
          ],
          [
            100.3425,
            28.455
          ],
          [
            100.34125,
            28.4525
          ],
          [
            100.34,
            28.45
          ],
          [
            100.339167,
            28.4475
          ],
          [
            100.338333,
            28.445
          ],
          [
            100.3375,
            28.4425
          ],
          [
            100.336667,
            28.44
          ],
          [
            100.335833,
            28.4375
          ],
          [
            100.335,
            28.435
          ],
          [
            100.334167,
            28.4325
          ],
          [
            100.333333,
            28.43
          ],
          [
            100.3325,
            28.4275
          ],
          [
            100.331667,
            28.425
          ],
          [
            100.330833,
            28.4225
          ],
          [
            100.33,
            28.42
          ],
          [
            100.329375,
            28.41875
          ],
          [
            100.32875,
            28.4175
          ],
          [
            100.328125,
            28.41625
          ],
          [
            100.3275,
            28.415
          ],
          [
            100.326875,
            28.41375
          ],
          [
            100.32625,
            28.4125
          ],
          [
            100.325625,
            28.41125
          ],
          [
            100.325,
            28.41
          ],
          [
            100.324375,
            28.40875
          ],
          [
            100.32375,
            28.4075
          ],
          [
            100.323125,
            28.40625
          ],
          [
            100.3225,
            28.405
          ],
          [
            100.321875,
            28.40375
          ],
          [
            100.32125,
            28.4025
          ],
          [
            100.320625,
            28.40125
          ],
          [
            100.32,
            28.4
          ],
          [
            100.3175,
            28.3975
          ],
          [
            100.315,
            28.395
          ],
          [
            100.3125,
            28.3925
          ],
          [
            100.31,
            28.39
          ]
        ]
      }
    }
  ]
}