<?xml version="1.0" encoding="UTF-8"?>
<gpx version="1.1" creator="霞客示例路书" xmlns="http://www.topografix.com/GPX/1/1">
  <metadata><name>雨崩徒步参考轨迹</name></metadata>
  <trk><name>雨崩徒步</name><trkseg>
      <trkpt lat="28.362" lon="98.828"><ele>2600</ele></trkpt>
      <trkpt lat="28.362643" lon="98.828429"><ele>2640</ele></trkpt>
      <trkpt lat="28.363286" lon="98.828857"><ele>2681</ele></trkpt>
      <trkpt lat="28.363929" lon="98.829286"><ele>2721</ele></trkpt>
      <trkpt lat="28.364571" lon="98.829714"><ele>2761</ele></trkpt>
      <trkpt lat="28.365214" lon="98.830143"><ele>2802</ele></trkpt>
      <trkpt lat="28.365857" lon="98.830571"><ele>2842</ele></trkpt>
      <trkpt lat="28.3665" lon="98.831"><ele>2882</ele></trkpt>
      <trkpt lat="28.367143" lon="98.831429"><ele>2923</ele></trkpt>
      <trkpt lat="28.367786" lon="98.831857"><ele>2963</ele></trkpt>
      <trkpt lat="28.368429" lon="98.832286"><ele>3003</ele></trkpt>
      <trkpt lat="28.369071" lon="98.832714"><ele>3044</ele></trkpt>
      <trkpt lat="28.369714" lon="98.833143"><ele>3084</ele></trkpt>
      <trkpt lat="28.370357" lon="98.833571"><ele>3124</ele></trkpt>
      <trkpt lat="28.371" lon="98.834"><ele>3165</ele></trkpt>
      <trkpt lat="28.371643" lon="98.834429"><ele>3205</ele></trkpt>
      <trkpt lat="28.372286" lon="98.834857"><ele>3245</ele></trkpt>
      <trkpt lat="28.372929" lon="98.835286"><ele>3285</ele></trkpt>
      <trkpt lat="28.373571" lon="98.835714"><ele>3326</ele></trkpt>
      <trkpt lat="28.374214" lon="98.836143"><ele>3366</ele></trkpt>
      <trkpt lat="28.374857" lon="98.836571"><ele>3406</ele></trkpt>
      <trkpt lat="28.3755" lon="98.837"><ele>3447</ele></trkpt>
      <trkpt lat="28.376143" lon="98.837429"><ele>3487</ele></trkpt>
      <trkpt lat="28.376786" lon="98.837857"><ele>3527</ele></trkpt>
      <trkpt lat="28.377429" lon="98.838286"><ele>3568</ele></trkpt>
      <trkpt lat="28.378071" lon="98.838714"><ele>3608</ele></trkpt>
      <trkpt lat="28.378714" lon="98.839143"><ele>3648</ele></trkpt>
      <trkpt lat="28.379357" lon="98.839571"><ele>3689</ele></trkpt>
      <trkpt lat="28.38" lon="98.84"><ele>3729</ele></trkpt>
      <trkpt lat="28.380889" lon="98.837278"><ele>3697</ele></trkpt>
      <trkpt lat="28.381778" lon="98.834556"><ele>3665</ele></trkpt>
      <trkpt lat="28.382667" lon="98.831833"><ele>3633</ele></trkpt>
      <trkpt lat="28.383556" lon="98.829111"><ele>3600</ele></trkpt>
      <trkpt lat="28.384444" lon="98.826389"><ele>3568</ele></trkpt>
      <trkpt lat="28.385333" lon="98.823667"><ele>3536</ele></trkpt>
      <trkpt lat="28.386222" lon="98.820944"><ele>3504</ele></trkpt>
      <trkpt lat="28.387111" lon="98.818222"><ele>3472</ele></trkpt>
      <trkpt lat="28.388" lon="98.8155"><ele>3440</ele></trkpt>
      <trkpt lat="28.388889" lon="98.812778"><ele>3407</ele></trkpt>
      <trkpt lat="28.389778" lon="98.810056"><ele>3375</ele></trkpt>
      <trkpt lat="28.390667" lon="98.807333"><ele>3343</ele></trkpt>
      <trkpt lat="28.391556" lon="98.804611"><ele>3311</ele></trkpt>
      <trkpt lat="28.392444" lon="98.801889"><ele>3279</ele></trkpt>
      <trkpt lat="28.393333" lon="98.799167"><ele>3247</ele></trkpt>
      <trkpt lat="28.394222" lon="98.796444"><ele>3214</ele></trkpt>
      <trkpt lat="28.395111" lon="98.793722"><ele>3182</ele></trkpt>
      <trkpt lat="28.396" lon="98.791"><ele>3150</ele></trkpt>
      <trkpt lat="28.3962" lon="98.790467"><ele>3172</ele></trkpt>
      <trkpt lat="28.3964" lon="98.789933"><ele>3193</ele></trkpt>
      <trkpt lat="28.3966" lon="98.7894"><ele>3215</ele></trkpt>
      <trkpt lat="28.3968" lon="98.788867"><ele>3237</ele></trkpt>
      <trkpt lat="28.397" lon="98.788333"><ele>3258</ele></trkpt>
      <trkpt lat="28.3972" lon="98.7878"><ele>3280</ele></trkpt>
      <trkpt lat="28.3974" lon="98.787267"><ele>3302</ele></trkpt>
      <trkpt lat="28.3976" lon="98.786733"><ele>3323</ele></trkpt>
      <trkpt lat="28.3978" lon="98.7862"><ele>3345</ele></trkpt>
      <trkpt lat="28.398" lon="98.785667"><ele>3367</ele></trkpt>
      <trkpt lat="28.3982" lon="98.785133"><ele>3388</ele></trkpt>
      <trkpt lat="28.3984" lon="98.7846"><ele>3410</ele></trkpt>
      <trkpt lat="28.3986" lon="98.784067"><ele>3432</ele></trkpt>
      <trkpt lat="28.3988" lon="98.783533"><ele>3453</ele></trkpt>
      <trkpt lat="28.399" lon="98.783"><ele>3475</ele></trkpt>
      <trkpt lat="28.3992" lon="98.782467"><ele>3497</ele></trkpt>
      <trkpt lat="28.3994" lon="98.781933"><ele>3518</ele></trkpt>
      <trkpt lat="28.3996" lon="98.7814"><ele>3540</ele></trkpt>
      <trkpt lat="28.3998" lon="98.780867"><ele>3562</ele></trkpt>
      <trkpt lat="28.4" lon="98.780333"><ele>3583</ele></trkpt>
      <trkpt lat="28.4002" lon="98.7798"><ele>3605</ele></trkpt>
      <trkpt lat="28.4004" lon="98.779267"><ele>3627</ele></trkpt>
      <trkpt lat="28.4006" lon="98.778733"><ele>3648</ele></trkpt>
      <trkpt lat="28.4008" lon="98.7782"><ele>3670</ele></trkpt>
      <trkpt lat="28.401" lon="98.777667"><ele>3692</ele></trkpt>
      <trkpt lat="28.4012" lon="98.777133"><ele>3713</ele></trkpt>
      <trkpt lat="28.4014" lon="98.7766"><ele>3735</ele></trkpt>
      <trkpt lat="28.4016" lon="98.776067"><ele>3757</ele></trkpt>
      <trkpt lat="28.4018" lon="98.775533"><ele>3778</ele></trkpt>
      <trkpt lat="28.402" lon="98.775"><ele>3800</ele></trkpt>
      <trkpt lat="28.401567" lon="98.775233"><ele>3775</ele></trkpt>
      <trkpt lat="28.401133" lon="98.775467"><ele>3750</ele></trkpt>
      <trkpt lat="28.4007" lon="98.7757"><ele>3725</ele></trkpt>
      <trkpt lat="28.400267" lon="98.775933"><ele>3700</ele></trkpt>
      <trkpt lat="28.399833" lon="98.776167"><ele>3675</ele></trkpt>
      <trkpt lat="28.3994" lon="98.7764"><ele>3650</ele></trkpt>
      <trkpt lat="28.398967" lon="98.776633"><ele>3625</ele></trkpt>
      <trkpt lat="28.398533" lon="98.776867"><ele>3600</ele></trkpt>
      <trkpt lat="28.3981" lon="98.7771"><ele>3575</ele></trkpt>
      <trkpt lat="28.397667" lon="98.777333"><ele>3550</ele></trkpt>
      <trkpt lat="28.397233" lon="98.777567"><ele>3525</ele></trkpt>
      <trkpt lat="28.3968" lon="98.7778"><ele>3500</ele></trkpt>
      <trkpt lat="28.396367" lon="98.778033"><ele>3475</ele></trkpt>
      <trkpt lat="28.395933" lon="98.778267"><ele>3450</ele></trkpt>
      <trkpt lat="28.3955" lon="98.7785"><ele>3425</ele></trkpt>
      <trkpt lat="28.395067" lon="98.778733"><ele>3400</ele></trkpt>
      <trkpt lat="28.394633" lon="98.778967"><ele>3375</ele></trkpt>
      <trkpt lat="28.3942" lon="98.7792"><ele>3350</ele></trkpt>
      <trkpt lat="28.393767" lon="98.779433"><ele>3325</ele></trkpt>
      <trkpt lat="28.393333" lon="98.779667"><ele>3300</ele></trkpt>
      <trkpt lat="28.3929" lon="98.7799"><ele>3275</ele></trkpt>
      <trkpt lat="28.392467" lon="98.780133"><ele>3250</ele></trkpt>
      <trkpt lat="28.392033" lon="98.780367"><ele>3225</ele></trkpt>
      <trkpt lat="28.3916" lon="98.7806"><ele>3200</ele></trkpt>
      <trkpt lat="28.391167" lon="98.780833"><ele>3175</ele></trkpt>
      <trkpt lat="28.390733" lon="98.781067"><ele>3150</ele></trkpt>
      <trkpt lat="28.3903" lon="98.7813"><ele>3125</ele></trkpt>
      <trkpt lat="28.389867" lon="98.781533"><ele>3100</ele></trkpt>
      <trkpt lat="28.389433" lon="98.781767"><ele>3075</ele></trkpt>
      <trkpt lat="28.389" lon="98.782"><ele>3050</ele></trkpt>
      <trkpt lat="28.388778" lon="98.781481"><ele>3072</ele></trkpt>
      <trkpt lat="28.388556" lon="98.780963"><ele>3094</ele></trkpt>
      <trkpt lat="28.388333" lon="98.780444"><ele>3117</ele></trkpt>
      <trkpt lat="28.388111" lon="98.779926"><ele>3139</ele></trkpt>
      <trkpt lat="28.387889" lon="98.779407"><ele>3161</ele></trkpt>
      <trkpt lat="28.387667" lon="98.778889"><ele>3183</ele></trkpt>
      <trkpt lat="28.387444" lon="98.77837"><ele>3206</ele></trkpt>
      <trkpt lat="28.387222" lon="98.777852"><ele>3228</ele></trkpt>
      <trkpt lat="28.387" lon="98.777333"><ele>3250</ele></trkpt>
      <trkpt lat="28.386778" lon="98.776815"><ele>3272</ele></trkpt>
      <trkpt lat="28.386556" lon="98.776296"><ele>3294</ele></trkpt>
      <trkpt lat="28.386333" lon="98.775778"><ele>3317</ele></trkpt>
      <trkpt lat="28.386111" lon="98.775259"><ele>3339</ele></trkpt>
      <trkpt lat="28.385889" lon="98.774741"><ele>3361</ele></trkpt>
      <trkpt lat="28.385667" lon="98.774222"><ele>3383</ele></trkpt>
      <trkpt lat="28.385444" lon="98.773704"><ele>3406</ele></trkpt>
      <trkpt lat="28.385222" lon="98.773185"><ele>3428</ele></trkpt>
      <trkpt lat="28.385" lon="98.772667"><ele>3450</ele></trkpt>
      <trkpt lat="28.384778" lon="98.772148"><ele>3472</ele></trkpt>
      <trkpt lat="28.384556" lon="98.77163"><ele>3494</ele></trkpt>
      <trkpt lat="28.384333" lon="98.771111"><ele>3517</ele></trkpt>
      <trkpt lat="28.384111" lon="98.770593"><ele>3539</ele></trkpt>
      <trkpt lat="28.383889" lon="98.770074"><ele>3561</ele></trkpt>
      <trkpt lat="28.383667" lon="98.769556"><ele>3583</ele></trkpt>
      <trkpt lat="28.383444" lon="98.769037"><ele>3606</ele></trkpt>
      <trkpt lat="28.383222" lon="98.768519"><ele>3628</ele></trkpt>
      <trkpt lat="28.383" lon="98.768"><ele>3650</ele></trkpt>
      <trkpt lat="28.38169" lon="98.76919"><ele>3612</ele></trkpt>
      <trkpt lat="28.380381" lon="98.770381"><ele>3574</ele></trkpt>
      <trkpt lat="28.379071" lon="98.771571"><ele>3536</ele></trkpt>
      <trkpt lat="28.377762" lon="98.772762"><ele>3498</ele></trkpt>
      <trkpt lat="28.376452" lon="98.773952"><ele>3460</ele></trkpt>
      <trkpt lat="28.375143" lon="98.775143"><ele>3421</ele></trkpt>
      <trkpt lat="28.373833" lon="98.776333"><ele>3383</ele></trkpt>
      <trkpt lat="28.372524" lon="98.777524"><ele>3345</ele></trkpt>
      <trkpt lat="28.371214" lon="98.778714"><ele>3307</ele></trkpt>
      <trkpt lat="28.369905" lon="98.779905"><ele>3269</ele></trkpt>
      <trkpt lat="28.368595" lon="98.781095"><ele>3231</ele></trkpt>
      <trkpt lat="28.367286" lon="98.782286"><ele>3193</ele></trkpt>
      <trkpt lat="28.365976" lon="98.783476"><ele>3155</ele></trkpt>
      <trkpt lat="28.364667" lon="98.784667"><ele>3117</ele></trkpt>
      <trkpt lat="28.363357" lon="98.785857"><ele>3079</ele></trkpt>
      <trkpt lat="28.362048" lon="98.787048"><ele>3040</ele></trkpt>
      <trkpt lat="28.360738" lon="98.788238"><ele>3002</ele></trkpt>
      <trkpt lat="28.359429" lon="98.789429"><ele>2964</ele></trkpt>
      <trkpt lat="28.358119" lon="98.790619"><ele>2926</ele></trkpt>
      <trkpt lat="28.35681" lon="98.79181"><ele>2888</ele></trkpt>
      <trkpt lat="28.3555" lon="98.793"><ele>2850</ele></trkpt>
      <trkpt lat="28.35419" lon="98.79419"><ele>2812</ele></trkpt>
      <trkpt lat="28.352881" lon="98.795381"><ele>2774</ele></trkpt>
      <trkpt lat="28.351571" lon="98.796571"><ele>2736</ele></trkpt>
      <trkpt lat="28.350262" lon="98.797762"><ele>2698</ele></trkpt>
      <trkpt lat="28.348952" lon="98.798952"><ele>2660</ele></trkpt>
      <trkpt lat="28.347643" lon="98.800143"><ele>2621</ele></trkpt>
      <trkpt lat="28.346333" lon="98.801333"><ele>2583</ele></trkpt>
      <trkpt lat="28.345024" lon="98.802524"><ele>2545</ele></trkpt>
      <trkpt lat="28.343714" lon="98.803714"><ele>2507</ele></trkpt>
      <trkpt lat="28.342405" lon="98.804905"><ele>2469</ele></trkpt>
      <trkpt lat="28.341095" lon="98.806095"><ele>2431</ele></trkpt>
      <trkpt lat="28.339786" lon="98.807286"><ele>2393</ele></trkpt>
      <trkpt lat="28.338476" lon="98.808476"><ele>2355</ele></trkpt>
      <trkpt lat="28.337167" lon="98.809667"><ele>2317</ele></trkpt>
      <trkpt lat="28.335857" lon="98.810857"><ele>2279</ele></trkpt>
      <trkpt lat="28.334548" lon="98.812048"><ele>2240</ele></trkpt>
      <trkpt lat="28.333238" lon="98.813238"><ele>2202</ele></trkpt>
      <trkpt lat="28.331929" lon="98.814429"><ele>2164</ele></trkpt>
      <trkpt lat="28.330619" lon="98.815619"><ele>2126</ele></trkpt>
      <trkpt lat="28.32931" lon="98.81681"><ele>2088</ele></trkpt>
      <trkpt lat="28.328" lon="98.818"><ele>2050</ele></trkpt>
    </trkseg></trk>
</gpx>
