{
  "type": "FeatureCollection",
  "features": [
    {
      "type": "Feature",
      "properties": {
        "name": "雨崩徒步参考轨迹",
        "type": "hiking",
        "source": "霞客示例路书"
      },
      "geometry": {
        "type": "LineString",
        "coordinates": [
          [
            98.828,
            28.362
          ],
          [
            98.828429,
            28.362643
          ],
          [
            98.828857,
            28.363286
          ],
          [
            98.829286,
            28.363929
          ],
          [
            98.829714,
            28.364571
          ],
          [
            98.830143,
            28.365214
          ],
          [
            98.830571,
            28.365857
          ],
          [
            98.831,
            28.3665
          ],
          [
            98.831429,
            28.367143
          ],
          [
            98.831857,
            28.367786
          ],
          [
            98.832286,
            28.368429
          ],
          [
            98.832714,
            28.369071
          ],
          [
            98.833143,
            28.369714
          ],
          [
            98.833571,
            28.370357
          ],
          [
            98.834,
            28.371
          ],
          [
            98.834429,
            28.371643
          ],
          [
            98.834857,
            28.372286
          ],
          [
            98.835286,
            28.372929
          ],
          [
            98.835714,
            28.373571
          ],
          [
            98.836143,
            28.374214
          ],
          [
            98.836571,
            28.374857
          ],
          [
            98.837,
            28.3755
          ],
          [
            98.837429,
            28.376143
          ],
          [
            98.837857,
            28.376786
          ],
          [
            98.838286,
            28.377429
          ],
          [
            98.838714,
            28.378071
          ],
          [
            98.839143,
            28.378714
          ],
          [
            98.839571,
            28.379357
          ],
          [
            98.84,
            28.38
          ],
          [
            98.837278,
            28.380889
          ],
          [
            98.834556,
            28.381778
          ],
          [
            98.831833,
            28.382667
          ],
          [
            98.829111,
            28.383556
          ],
          [
            98.826389,
            28.384444
          ],
          [
            98.823667,
            28.385333
          ],
          [
            98.820944,
            28.386222
          ],
          [
            98.818222,
            28.387111
          ],
          [
            98.8155,
            28.388
          ],
          [
            98.812778,
            28.388889
          ],
          [
            98.810056,
            28.389778
          ],
          [
            98.807333,
            28.390667
          ],
          [
            98.804611,
            28.391556
          ],
          [
            98.801889,
            28.392444
          ],
          [
            98.799167,
            28.393333
          ],
          [
            98.796444,
            28.394222
          ],
          [
            98.793722,
            28.395111
          ],
          [
            98.791,
            28.396
          ],
          [
            98.790467,
            28.3962
          ],
          [
            98.789933,
            28.3964
          ],
          [
            98.7894,
            28.3966
          ],
          [
            98.788867,
            28.3968
          ],
          [
            98.788333,
            28.397
          ],
          [
            98.7878,
            28.3972
          ],
          [
            98.787267,
            28.3974
          ],
          [
            98.786733,
            28.3976
          ],
          [
            98.7862,
            28.3978
          ],
          [
            98.785667,
            28.398
          ],
          [
            98.785133,
            28.3982
          ],
          [
            98.7846,
            28.3984
          ],
          [
            98.784067,
            28.3986
          ],
          [
            98.783533,
            28.3988
          ],
          [
            98.783,
            28.399
          ],
          [
            98.782467,
            28.3992
          ],
          [
            98.781933,
            28.3994
          ],
          [
            98.7814,
            28.3996
          ],
          [
            98.780867,
            28.3998
          ],
          [
            98.780333,
            28.4
          ],
          [
            98.7798,
            28.4002
          ],
          [
            98.779267,
            28.4004
          ],
          [
            98.778733,
            28.4006
          ],
          [
            98.7782,
            28.4008
          ],
          [
            98.777667,
            28.401
          ],
          [
            98.777133,
            28.4012
          ],
          [
            98.7766,
            28.4014
          ],
          [
            98.776067,
            28.4016
          ],
          [
            98.775533,
            28.4018
          ],
          [
            98.775,
            28.402
          ],
          [
            98.775233,
            28.401567
          ],
          [
            98.775467,
            28.401133
          ],
          [
            98.7757,
            28.4007
          ],
          [
            98.775933,
            28.400267
          ],
          [
            98.776167,
            28.399833
          ],
          [
            98.7764,
            28.3994
          ],
          [
            98.776633,
            28.398967
          ],
          [
            98.776867,
            28.398533
          ],
          [
            98.7771,
            28.3981
          ],
          [
            98.777333,
            28.397667
          ],
          [
            98.777567,
            28.397233
          ],
          [
            98.7778,
            28.3968
          ],
          [
            98.778033,
            28.396367
          ],
          [
            98.778267,
            28.395933
          ],
          [
            98.7785,
            28.3955
          ],
          [
            98.778733,
            28.395067
          ],
          [
            98.778967,
            28.394633
          ],
          [
            98.7792,
            28.3942
          ],
          [
            98.779433,
            28.393767
          ],
          [
            98.779667,
            28.393333
          ],
          [
            98.7799,
            28.3929
          ],
          [
            98.780133,
            28.392467
          ],
          [
            98.780367,
            28.392033
          ],
          [
            98.7806,
            28.3916
          ],
          [
            98.780833,
            28.391167
          ],
          [
            98.781067,
            28.390733
          ],
          [
            98.7813,
            28.3903
          ],
          [
            98.781533,
            28.389867
          ],
          [
            98.781767,
            28.389433
          ],
          [
            98.782,
            28.389
          ],
          [
            98.781481,
            28.388778
          ],
          [
            98.780963,
            28.388556
          ],
          [
            98.780444,
            28.388333
          ],
          [
            98.779926,
            28.388111
          ],
          [
            98.779407,
            28.387889
          ],
          [
            98.778889,
            28.387667
          ],
          [
            98.77837,
            28.387444
          ],
          [
            98.777852,
            28.387222
          ],
          [
            98.777333,
            28.387
          ],
          [
            98.776815,
            28.386778
          ],
          [
            98.776296,
            28.386556
          ],
          [
            98.775778,
            28.386333
          ],
          [
            98.775259,
            28.386111
          ],
          [
            98.774741,
            28.385889
          ],
          [
            98.774222,
            28.385667
          ],
          [
            98.773704,
            28.385444
          ],
          [
            98.773185,
            28.385222
          ],
          [
            98.772667,
            28.385
          ],
          [
            98.772148,
            28.384778
          ],
          [
            98.77163,
            28.384556
          ],
          [
            98.771111,
            28.384333
          ],
          [
            98.770593,
            28.384111
          ],
          [
            98.770074,
            28.383889
          ],
          [
            98.769556,
            28.383667
          ],
          [
            98.769037,
            28.383444
          ],
          [
            98.768519,
            28.383222
          ],
          [
            98.768,
            28.383
          ],
          [
            98.76919,
            28.38169
          ],
          [
            98.770381,
            28.380381
          ],
          [
            98.771571,
            28.379071
          ],
          [
            98.772762,
            28.377762
          ],
          [
            98.773952,
            28.376452
          ],
          [
            98.775143,
            28.375143
          ],
          [
            98.776333,
            28.373833
          ],
          [
            98.777524,
            28.372524
          ],
          [
            98.778714,
            28.371214
          ],
          [
            98.779905,
            28.369905
          ],
          [
            98.781095,
            28.368595
          ],
          [
            98.782286,
            28.367286
          ],
          [
            98.783476,
            28.365976
          ],
          [
            98.784667,
            28.364667
          ],
          [
            98.785857,
            28.363357
          ],
          [
            98.787048,
            28.362048
          ],
          [
            98.788238,
            28.360738
          ],
          [
            98.789429,
            28.359429
          ],
          [
            98.790619,
            28.358119
          ],
          [
            98.79181,
            28.35681
          ],
          [
            98.793,
            28.3555
          ],
          [
            98.79419,
            28.35419
          ],
          [
            98.795381,
            28.352881
          ],
          [
            98.796571,
            28.351571
          ],
          [
            98.797762,
            28.350262
          ],
          [
            98.798952,
            28.348952
          ],
          [
            98.800143,
            28.347643
          ],
          [
            98.801333,
            28.346333
          ],
          [
            98.802524,
            28.345024
          ],
          [
            98.803714,
            28.343714
          ],
          [
            98.804905,
            28.342405
          ],
          [
            98.806095,
            28.341095
          ],
          [
            98.807286,
            28.339786
          ],
          [
            98.808476,
            28.338476
          ],
          [
            98.809667,
            28.337167
          ],
          [
            98.810857,
            28.335857
          ],
          [
            98.812048,
            28.334548
          ],
          [
            98.813238,
            28.333238
          ],
          [
            98.814429,
            28.331929
          ],
          [
            98.815619,
            28.330619
          ],
          [
            98.81681,
            28.32931
          ],
          [
            98.818,
            28.328
          ]
        ]
      }
    }
  ]
}