{
  "type": "FeatureCollection",
  "features": [
    {
      "type": "Feature",
      "properties": {
        "name": "扎尕那—卓尼穿越参考轨迹",
        "type": "hiking",
        "source": "两步路用户轨迹",
        "segments": 1
      },
      "geometry": {
        "type": "LineString",
        "coordinates": [
          [
            103.200645,
            34.247932
          ],
          [
            103.200607,
            34.248032
          ],
          [
            103.199928,
            34.248283
          ],
          [
            103.199379,
            34.248886
          ],
          [
            103.198982,
            34.249607
          ],
          [
            103.198952,
            34.249836
          ],
          [
            103.199135,
            34.250134
          ],
          [
            103.199005,
            34.250458
          ],
          [
            103.198395,
            34.250805
          ],
          [
            103.198723,
            34.250957
          ],
          [
            103.198738,
            34.251163
          ],
          [
            103.199097,
            34.251362
          ],
          [
            103.199333,
            34.252018
          ],
          [
            103.199669,
            34.252323
          ],
          [
            103.199585,
            34.252472
          ],
          [
            103.199409,
            34.252373
          ],
          [
            103.199356,
            34.252556
          ],
          [
            103.199783,
            34.252686
          ],
          [
            103.199554,
            34.252884
          ],
          [
            103.199493,
            34.253132
          ],
          [
            103.199524,
            34.254723
          ],
          [
            103.199707,
            34.254791
          ],
          [
            103.199745,
            34.255039
          ],
          [
            103.199982,
            34.255196
          ],
          [
            103.199997,
            34.25568
          ],
          [
            103.200279,
            34.2561
          ],
          [
            103.20018,
            34.256084
          ],
          [
            103.200058,
            34.255699
          ],
          [
            103.199768,
            34.255386
          ],
          [
            103.199509,
            34.255264
          ],
          [
            103.199326,
            34.255402
          ],
          [
            103.199852,
            34.255848
          ],
          [
            103.19986,
            34.256084
          ],
          [
            103.199623,
            34.25655
          ],
          [
            103.199776,
            34.256664
          ],
          [
            103.200165,
            34.257427
          ],
          [
            103.200264,
            34.258125
          ],
          [
            103.200203,
            34.258526
          ],
          [
            103.200478,
            34.258713
          ],
          [
            103.200783,
            34.258774
          ],
          [
            103.200821,
            34.259411
          ],
          [
            103.200546,
            34.259781
          ],
          [
            103.20047,
            34.260223
          ],
          [
            103.200706,
            34.260452
          ],
          [
            103.200638,
            34.260612
          ],
          [
            103.200775,
            34.260838
          ],
          [
            103.200745,
            34.261009
          ],
          [
            103.20092,
            34.261093
          ],
          [
            103.200912,
            34.261353
          ],
          [
            103.201042,
            34.261341
          ],
          [
            103.20118,
            34.261574
          ],
          [
            103.201263,
            34.262066
          ],
          [
            103.201172,
            34.262325
          ],
          [
            103.201363,
            34.262581
          ],
          [
            103.201218,
            34.262894
          ],
          [
            103.201378,
            34.263027
          ],
          [
            103.201271,
            34.263142
          ],
          [
            103.201683,
            34.263588
          ],
          [
            103.20163,
            34.263847
          ],
          [
            103.201782,
            34.26424
          ],
          [
            103.201981,
            34.2645
          ],
          [
            103.202385,
            34.264706
          ],
          [
            103.202774,
            34.265694
          ],
          [
            103.203087,
            34.266106
          ],
          [
            103.203072,
            34.266476
          ],
          [
            103.202866,
            34.266827
          ],
          [
            103.202888,
            34.267067
          ],
          [
            103.203239,
            34.267487
          ],
          [
            103.203346,
            34.267853
          ],
          [
            103.204063,
            34.268539
          ],
          [
            103.204506,
            34.269184
          ],
          [
            103.204514,
            34.269527
          ],
          [
            103.204857,
            34.27
          ],
          [
            103.204933,
            34.270401
          ],
          [
            103.20549,
            34.270885
          ],
          [
            103.20575,
            34.271244
          ],
          [
            103.205864,
            34.271156
          ],
          [
            103.205719,
            34.27076
          ],
          [
            103.205849,
            34.27055
          ],
          [
            103.206032,
            34.270538
          ],
          [
            103.205917,
            34.270863
          ],
          [
            103.207611,
            34.273014
          ],
          [
            103.207825,
            34.273647
          ],
          [
            103.207794,
            34.274014
          ],
          [
            103.208061,
            34.274483
          ],
          [
            103.208138,
            34.274979
          ],
          [
            103.208374,
            34.275261
          ],
          [
            103.208672,
            34.275921
          ],
          [
            103.20887,
            34.277004
          ],
          [
            103.209457,
            34.277855
          ],
          [
            103.209793,
            34.278194
          ],
          [
            103.209747,
            34.278572
          ],
          [
            103.209213,
            34.278809
          ],
          [
            103.208878,
            34.279083
          ],
          [
            103.208923,
            34.279259
          ],
          [
            103.209129,
            34.279255
          ],
          [
            103.209137,
            34.279316
          ],
          [
            103.209,
            34.279522
          ],
          [
            103.209015,
            34.280186
          ],
          [
            103.208427,
            34.280926
          ],
          [
            103.208488,
            34.281593
          ],
          [
            103.208679,
            34.281918
          ],
          [
            103.208954,
            34.282074
          ],
          [
            103.209419,
            34.282139
          ],
          [
            103.209068,
            34.282417
          ],
          [
            103.20887,
            34.282745
          ],
          [
            103.208977,
            34.282833
          ],
          [
            103.209282,
            34.282574
          ],
          [
            103.209778,
            34.282364
          ],
          [
            103.210228,
            34.282578
          ],
          [
            103.210632,
            34.282608
          ],
          [
            103.21138,
            34.28315
          ],
          [
            103.211731,
            34.283276
          ],
          [
            103.213356,
            34.283295
          ],
          [
            103.213783,
            34.28339
          ],
          [
            103.214203,
            34.283669
          ],
          [
            103.215263,
            34.283775
          ],
          [
            103.215919,
            34.283741
          ],
          [
            103.216591,
            34.283463
          ],
          [
            103.217293,
            34.283512
          ],
          [
            103.217369,
            34.283585
          ],
          [
            103.216797,
            34.283867
          ],
          [
            103.216713,
            34.283997
          ],
          [
            103.216766,
            34.284058
          ],
          [
            103.218437,
            34.283901
          ],
          [
            103.218887,
            34.284229
          ],
          [
            103.219276,
            34.284363
          ],
          [
            103.220154,
            34.284355
          ],
          [
            103.221573,
            34.284489
          ],
          [
            103.224144,
            34.284199
          ],
          [
            103.224709,
            34.284
          ],
          [
            103.22525,
            34.283638
          ],
          [
            103.22551,
            34.282959
          ],
          [
            103.225861,
            34.282612
          ],
          [
            103.2258,
            34.282459
          ],
          [
            103.225189,
            34.28249
          ],
          [
            103.225487,
            34.282223
          ],
          [
            103.226166,
            34.281887
          ],
          [
            103.227104,
            34.281628
          ],
          [
            103.227417,
            34.281315
          ],
          [
            103.227943,
            34.281021
          ],
          [
            103.228218,
            34.280956
          ],
          [
            103.228348,
            34.280968
          ],
          [
            103.228401,
            34.281063
          ],
          [
            103.228958,
            34.281036
          ],
          [
            103.229546,
            34.280861
          ],
          [
            103.230179,
            34.279602
          ],
          [
            103.230797,
            34.27948
          ],
          [
            103.231071,
            34.27932
          ],
          [
            103.232018,
            34.279362
          ],
          [
            103.232529,
            34.279671
          ],
          [
            103.233009,
            34.279766
          ],
          [
            103.23288,
            34.2799
          ],
          [
            103.232933,
            34.28006
          ],
          [
            103.233887,
            34.280212
          ],
          [
            103.234108,
            34.280346
          ],
          [
            103.234451,
            34.280293
          ],
          [
            103.234558,
            34.280136
          ],
          [
            103.23439,
            34.280399
          ],
          [
            103.234215,
            34.280357
          ],
          [
            103.234444,
            34.280293
          ],
          [
            103.234207,
            34.280334
          ],
          [
            103.234467,
            34.28019
          ],
          [
            103.234436,
            34.28006
          ],
          [
            103.234627,
            34.27998
          ],
          [
            103.234573,
            34.279873
          ],
          [
            103.234764,
            34.279709
          ],
          [
            103.235794,
            34.279312
          ],
          [
            103.236015,
            34.279312
          ],
          [
            103.23616,
            34.279194
          ],
          [
            103.237312,
            34.278904
          ],
          [
            103.237831,
            34.278877
          ],
          [
            103.238182,
            34.278973
          ],
          [
            103.239082,
            34.278774
          ],
          [
            103.239616,
            34.278511
          ],
          [
            103.240417,
            34.278458
          ],
          [
            103.240845,
            34.278282
          ],
          [
            103.242027,
            34.27808
          ],
          [
            103.242378,
            34.277924
          ],
          [
            103.243515,
            34.277966
          ],
          [
            103.243614,
            34.277878
          ],
          [
            103.24379,
            34.277905
          ],
          [
            103.243896,
            34.278027
          ],
          [
            103.245125,
            34.277847
          ],
          [
            103.245522,
            34.277992
          ],
          [
            103.24707,
            34.278038
          ],
          [
            103.247314,
            34.277985
          ],
          [
            103.248238,
            34.277473
          ],
          [
            103.248787,
            34.277378
          ],
          [
            103.249023,
            34.277225
          ],
          [
            103.249779,
            34.277077
          ],
          [
            103.249969,
            34.276974
          ],
          [
            103.250671,
            34.277161
          ],
          [
            103.251038,
            34.277061
          ],
          [
            103.251228,
            34.277119
          ],
          [
            103.251244,
            34.277214
          ],
          [
            103.251526,
            34.277203
          ],
          [
            103.251999,
            34.277008
          ],
          [
            103.252281,
            34.276978
          ],
          [
            103.252655,
            34.27668
          ],
          [
            103.253334,
            34.276463
          ],
          [
            103.253883,
            34.276096
          ],
          [
            103.254677,
            34.276001
          ],
          [
            103.255081,
            34.275673
          ],
          [
            103.255409,
            34.275539
          ],
          [
            103.255951,
            34.275467
          ],
          [
            103.256927,
            34.275047
          ],
          [
            103.257729,
            34.274899
          ],
          [
            103.258629,
            34.274334
          ],
          [
            103.259254,
            34.27422
          ],
          [
            103.259537,
            34.274078
          ],
          [
            103.259811,
            34.274086
          ],
          [
            103.260002,
            34.273979
          ],
          [
            103.260185,
            34.273762
          ],
          [
            103.260178,
            34.273434
          ],
          [
            103.260666,
            34.272404
          ],
          [
            103.261139,
            34.271629
          ],
          [
            103.26178,
            34.270855
          ],
          [
            103.262611,
            34.270275
          ],
          [
            103.26371,
            34.270565
          ],
          [
            103.264114,
            34.270512
          ],
          [
            103.264656,
            34.270695
          ],
          [
            103.264931,
            34.270599
          ],
          [
            103.265228,
            34.269794
          ],
          [
            103.265472,
            34.269615
          ],
          [
            103.265694,
            34.269524
          ],
          [
            103.266205,
            34.269615
          ],
          [
            103.266899,
            34.269485
          ],
          [
            103.267349,
            34.26965
          ],
          [
            103.26757,
            34.269943
          ],
          [
            103.267952,
            34.270184
          ],
          [
            103.268196,
            34.270218
          ],
          [
            103.268639,
            34.269573
          ],
          [
            103.269028,
            34.269287
          ],
          [
            103.27079,
            34.269035
          ],
          [
            103.271317,
            34.268875
          ],
          [
            103.271912,
            34.268532
          ],
          [
            103.272446,
            34.268425
          ],
          [
            103.272812,
            34.268467
          ],
          [
            103.273315,
            34.268059
          ],
          [
            103.273804,
            34.267879
          ],
          [
            103.275406,
            34.267788
          ],
          [
            103.276352,
            34.267544
          ],
          [
            103.276268,
            34.267361
          ],
          [
            103.276428,
            34.267452
          ],
          [
            103.276466,
            34.267357
          ],
          [
            103.276627,
            34.267334
          ],
          [
            103.277252,
            34.266891
          ],
          [
            103.277466,
            34.266586
          ],
          [
            103.277679,
            34.266712
          ],
          [
            103.277786,
            34.266907
          ],
          [
            103.278358,
            34.267075
          ],
          [
            103.278839,
            34.267365
          ],
          [
            103.279053,
            34.267357
          ],
          [
            103.279266,
            34.267197
          ],
          [
            103.27961,
            34.267139
          ],
          [
            103.280113,
            34.267399
          ],
          [
            103.280319,
            34.267387
          ],
          [
            103.281052,
            34.26704
          ],
          [
            103.2817,
            34.266861
          ],
          [
            103.282806,
            34.26627
          ],
          [
            103.283478,
            34.26582
          ],
          [
            103.283592,
            34.265625
          ],
          [
            103.284348,
            34.265182
          ],
          [
            103.28463,
            34.264793
          ],
          [
            103.285164,
            34.264656
          ],
          [
            103.286346,
            34.264732
          ],
          [
            103.286522,
            34.264606
          ],
          [
            103.286934,
            34.264622
          ],
          [
            103.28717,
            34.264515
          ],
          [
            103.287186,
            34.264072
          ],
          [
            103.287445,
            34.263954
          ],
          [
            103.287567,
            34.263779
          ],
          [
            103.287918,
            34.263706
          ],
          [
            103.287849,
            34.263573
          ],
          [
            103.288284,
            34.263702
          ],
          [
            103.289246,
            34.2631
          ],
          [
            103.291527,
            34.262333
          ],
          [
            103.291878,
            34.262341
          ],
          [
            103.292274,
            34.262142
          ],
          [
            103.292366,
            34.261997
          ],
          [
            103.292969,
            34.261742
          ],
          [
            103.293251,
            34.261688
          ],
          [
            103.293533,
            34.261787
          ],
          [
            103.294128,
            34.261749
          ],
          [
            103.294868,
            34.26152
          ],
          [
            103.296471,
            34.261433
          ],
          [
            103.297897,
            34.26099
          ],
          [
            103.299751,
            34.260876
          ],
          [
            103.299927,
            34.26075
          ],
          [
            103.300522,
            34.260746
          ],
          [
            103.30098,
            34.260864
          ],
          [
            103.301163,
            34.260826
          ],
          [
            103.301071,
            34.260807
          ],
          [
            103.301102,
            34.260899
          ],
          [
            103.301407,
            34.260822
          ],
          [
            103.301804,
            34.260838
          ],
          [
            103.302193,
            34.260582
          ],
          [
            103.303436,
            34.260391
          ],
          [
            103.304817,
            34.259983
          ],
          [
            103.305275,
            34.259727
          ],
          [
            103.30629,
            34.25948
          ],
          [
            103.306778,
            34.259209
          ],
          [
            103.307678,
            34.259014
          ],
          [
            103.307953,
            34.259026
          ],
          [
            103.308586,
            34.258739
          ],
          [
            103.308853,
            34.258701
          ],
          [
            103.309052,
            34.258526
          ],
          [
            103.310081,
            34.258198
          ],
          [
            103.310349,
            34.257992
          ],
          [
            103.310997,
            34.257935
          ],
          [
            103.311111,
            34.25806
          ],
          [
            103.311104,
            34.257935
          ],
          [
            103.311241,
            34.257828
          ],
          [
            103.311363,
            34.257839
          ],
          [
            103.311722,
            34.257629
          ],
          [
            103.312012,
            34.257603
          ],
          [
            103.312149,
            34.257454
          ],
          [
            103.312088,
            34.257275
          ],
          [
            103.312157,
            34.257236
          ],
          [
            103.312241,
            34.257343
          ],
          [
            103.312416,
            34.25737
          ],
          [
            103.313049,
            34.257317
          ],
          [
            103.313324,
            34.257168
          ],
          [
            103.313507,
            34.256927
          ],
          [
            103.315979,
            34.256561
          ],
          [
            103.316444,
            34.256618
          ],
          [
            103.317078,
            34.256855
          ],
          [
            103.317604,
            34.256947
          ],
          [
            103.318169,
            34.256771
          ],
          [
            103.318733,
            34.256828
          ],
          [
            103.319519,
            34.256733
          ],
          [
            103.320312,
            34.25647
          ],
          [
            103.320679,
            34.256485
          ],
          [
            103.321274,
            34.256325
          ],
          [
            103.321594,
            34.256363
          ],
          [
            103.322578,
            34.256123
          ],
          [
            103.323334,
            34.256084
          ],
          [
            103.323761,
            34.255978
          ],
          [
            103.32428,
            34.256134
          ],
          [
            103.324524,
            34.256123
          ],
          [
            103.325035,
            34.256344
          ],
          [
            103.325432,
            34.256287
          ],
          [
            103.325752,
            34.256386
          ],
          [
            103.32592,
            34.256325
          ],
          [
            103.326828,
            34.2565
          ],
          [
            103.329094,
            34.257492
          ],
          [
            103.329231,
            34.257793
          ],
          [
            103.330223,
            34.257565
          ],
          [
            103.330849,
            34.257523
          ],
          [
            103.331749,
            34.257771
          ],
          [
            103.332085,
            34.257786
          ],
          [
            103.332512,
            34.258156
          ],
          [
            103.33268,
            34.258171
          ],
          [
            103.332985,
            34.258102
          ],
          [
            103.333603,
            34.257687
          ],
          [
            103.335274,
            34.257832
          ],
          [
            103.336174,
            34.25774
          ],
          [
            103.336792,
            34.257523
          ],
          [
            103.337288,
            34.257874
          ],
          [
            103.337769,
            34.257954
          ],
          [
            103.338585,
            34.258274
          ],
          [
            103.338997,
            34.257519
          ],
          [
            103.339165,
            34.257408
          ],
          [
            103.339027,
            34.257168
          ],
          [
            103.339355,
            34.257027
          ],
          [
            103.339577,
            34.256584
          ],
          [
            103.340263,
            34.256077
          ],
          [
            103.341049,
            34.255638
          ],
          [
            103.341286,
            34.255615
          ],
          [
            103.341492,
            34.255283
          ],
          [
            103.341957,
            34.255184
          ],
          [
            103.342323,
            34.254936
          ],
          [
            103.342613,
            34.254337
          ],
          [
            103.342857,
            34.254131
          ],
          [
            103.343262,
            34.253963
          ],
          [
            103.343193,
            34.253407
          ],
          [
            103.343262,
            34.253441
          ],
          [
            103.343216,
            34.253716
          ],
          [
            103.3433,
            34.253986
          ],
          [
            103.343781,
            34.253933
          ],
          [
            103.343933,
            34.253998
          ],
          [
            103.344559,
            34.253891
          ],
          [
            103.346207,
            34.253323
          ],
          [
            103.34668,
            34.253674
          ],
          [
            103.34774,
            34.253769
          ],
          [
            103.348068,
            34.253418
          ],
          [
            103.348015,
            34.252934
          ],
          [
            103.348145,
            34.252621
          ],
          [
            103.348747,
            34.252193
          ],
          [
            103.351105,
            34.251999
          ],
          [
            103.351463,
            34.251698
          ],
          [
            103.352028,
            34.25198
          ],
          [
            103.352211,
            34.252262
          ],
          [
            103.352509,
            34.252148
          ],
          [
            103.352936,
            34.252125
          ],
          [
            103.352974,
            34.251991
          ],
          [
            103.353279,
            34.251926
          ],
          [
            103.353134,
            34.251995
          ],
          [
            103.353149,
            34.251835
          ],
          [
            103.353172,
            34.251987
          ],
          [
            103.35305,
            34.251812
          ],
          [
            103.353081,
            34.251995
          ],
          [
            103.353371,
            34.252491
          ],
          [
            103.353798,
            34.252758
          ],
          [
            103.354286,
            34.252949
          ],
          [
            103.354469,
            34.252941
          ],
          [
            103.35453,
            34.252632
          ],
          [
            103.354424,
            34.252499
          ],
          [
            103.354462,
            34.252224
          ],
          [
            103.355148,
            34.251423
          ],
          [
            103.355125,
            34.25124
          ],
          [
            103.355301,
            34.251041
          ],
          [
            103.355591,
            34.250378
          ],
          [
            103.355896,
            34.250267
          ],
          [
            103.356697,
            34.249626
          ],
          [
            103.35675,
            34.249439
          ],
          [
            103.357094,
            34.249161
          ],
          [
            103.357498,
            34.249016
          ],
          [
            103.357483,
            34.248833
          ],
          [
            103.358658,
            34.247456
          ],
          [
            103.358574,
            34.247112
          ],
          [
            103.358826,
            34.246387
          ],
          [
            103.359497,
            34.24572
          ],
          [
            103.360283,
            34.24472
          ],
          [
            103.361015,
            34.244102
          ],
          [
            103.361382,
            34.243671
          ],
          [
            103.361893,
            34.243671
          ],
          [
            103.362846,
            34.243462
          ],
          [
            103.363609,
            34.243378
          ],
          [
            103.364006,
            34.243412
          ],
          [
            103.364304,
            34.243332
          ],
          [
            103.364479,
            34.243446
          ],
          [
            103.364777,
            34.243359
          ],
          [
            103.365036,
            34.243378
          ],
          [
            103.365845,
            34.243664
          ],
          [
            103.366486,
            34.243473
          ],
          [
            103.366806,
            34.242577
          ],
          [
            103.367409,
            34.242393
          ],
          [
            103.367645,
            34.242245
          ],
          [
            103.367752,
            34.24205
          ],
          [
            103.36821,
            34.24231
          ],
          [
            103.3685,
            34.242157
          ],
          [
            103.368584,
            34.242348
          ],
          [
            103.36895,
            34.242413
          ],
          [
            103.369476,
            34.242279
          ],
          [
            103.369652,
            34.242336
          ],
          [
            103.369888,
            34.242226
          ],
          [
            103.370483,
            34.241539
          ],
          [
            103.371094,
            34.241352
          ],
          [
            103.372009,
            34.241364
          ],
          [
            103.372253,
            34.241436
          ],
          [
            103.373116,
            34.241257
          ],
          [
            103.375031,
            34.241337
          ],
          [
            103.375626,
            34.241627
          ],
          [
            103.376602,
            34.242344
          ],
          [
            103.376823,
            34.242638
          ],
          [
            103.377251,
            34.242874
          ],
          [
            103.377769,
            34.243423
          ],
          [
            103.377937,
            34.243923
          ],
          [
            103.378525,
            34.244518
          ],
          [
            103.379654,
            34.245193
          ],
          [
            103.380119,
            34.245331
          ],
          [
            103.380272,
            34.245293
          ],
          [
            103.380249,
            34.245388
          ],
          [
            103.380562,
            34.245483
          ],
          [
            103.380501,
            34.245701
          ],
          [
            103.380646,
            34.245834
          ],
          [
            103.38089,
            34.245964
          ],
          [
            103.380943,
            34.245865
          ],
          [
            103.381035,
            34.246044
          ],
          [
            103.381134,
            34.246002
          ],
          [
            103.381592,
            34.24614
          ],
          [
            103.383469,
            34.24691
          ],
          [
            103.384926,
            34.247204
          ],
          [
            103.385468,
            34.247478
          ],
          [
            103.386055,
            34.247219
          ],
          [
            103.386559,
            34.247066
          ],
          [
            103.386436,
            34.247169
          ],
          [
            103.386627,
            34.247105
          ],
          [
            103.386528,
            34.247066
          ],
          [
            103.387177,
            34.247112
          ],
          [
            103.387672,
            34.247032
          ],
          [
            103.388054,
            34.247105
          ],
          [
            103.389,
            34.24678
          ],
          [
            103.389435,
            34.246777
          ],
          [
            103.389687,
            34.246872
          ],
          [
            103.390335,
            34.246712
          ],
          [
            103.390739,
            34.246735
          ],
          [
            103.391289,
            34.247242
          ],
          [
            103.391266,
            34.24744
          ],
          [
            103.391396,
            34.247616
          ],
          [
            103.391434,
            34.247978
          ],
          [
            103.391647,
            34.248062
          ],
          [
            103.391518,
            34.248295
          ],
          [
            103.391571,
            34.248417
          ],
          [
            103.392502,
            34.248512
          ],
          [
            103.39328,
            34.248428
          ],
          [
            103.393677,
            34.248566
          ],
          [
            103.394318,
            34.248192
          ],
          [
            103.39473,
            34.248287
          ],
          [
            103.394775,
            34.248543
          ],
          [
            103.395027,
            34.248852
          ],
          [
            103.395546,
            34.248932
          ],
          [
            103.396126,
            34.248695
          ],
          [
            103.396019,
            34.248417
          ],
          [
            103.396194,
            34.248131
          ],
          [
            103.396461,
            34.248032
          ],
          [
            103.396393,
            34.247822
          ],
          [
            103.396706,
            34.247459
          ],
          [
            103.397461,
            34.246998
          ],
          [
            103.39782,
            34.24691
          ],
          [
            103.39827,
            34.246628
          ],
          [
            103.398537,
            34.246746
          ],
          [
            103.398834,
            34.246597
          ],
          [
            103.398979,
            34.246777
          ],
          [
            103.399117,
            34.246807
          ],
          [
            103.39904,
            34.247055
          ],
          [
            103.399185,
            34.247372
          ],
          [
            103.399582,
            34.247684
          ],
          [
            103.400391,
            34.247128
          ],
          [
            103.401222,
            34.247017
          ],
          [
            103.401611,
            34.247169
          ],
          [
            103.401817,
            34.247158
          ],
          [
            103.402748,
            34.2477
          ],
          [
            103.402855,
            34.247677
          ],
          [
            103.402939,
            34.24778
          ],
          [
            103.403473,
            34.247929
          ],
          [
            103.405022,
            34.248814
          ],
          [
            103.405045,
            34.248943
          ],
          [
            103.405472,
            34.249306
          ],
          [
            103.405571,
            34.249557
          ],
          [
            103.405624,
            34.249519
          ],
          [
            103.405586,
            34.24987
          ],
          [
            103.405823,
            34.250282
          ],
          [
            103.405731,
            34.250557
          ],
          [
            103.406227,
            34.250656
          ],
          [
            103.406921,
            34.251053
          ],
          [
            103.407249,
            34.251083
          ],
          [
            103.407318,
            34.2514
          ],
          [
            103.408066,
            34.250927
          ],
          [
            103.409233,
            34.251114
          ],
          [
            103.409584,
            34.251312
          ],
          [
            103.409767,
            34.251747
          ],
          [
            103.410515,
            34.252403
          ],
          [
            103.410667,
            34.252666
          ],
          [
            103.411079,
            34.252663
          ],
          [
            103.411179,
            34.252754
          ],
          [
            103.41098,
            34.25301
          ],
          [
            103.410988,
            34.253242
          ],
          [
            103.411308,
            34.2533
          ],
          [
            103.412323,
            34.253098
          ],
          [
            103.412643,
            34.253239
          ],
          [
            103.412827,
            34.253426
          ],
          [
            103.412994,
            34.253445
          ],
          [
            103.413086,
            34.253708
          ],
          [
            103.412987,
            34.253887
          ],
          [
            103.413078,
            34.254036
          ],
          [
            103.41404,
            34.253708
          ],
          [
            103.414314,
            34.253685
          ],
          [
            103.414543,
            34.253166
          ],
          [
            103.414467,
            34.253471
          ],
          [
            103.414307,
            34.253658
          ],
          [
            103.415138,
            34.253944
          ],
          [
            103.415329,
            34.254169
          ],
          [
            103.415443,
            34.254505
          ],
          [
            103.415596,
            34.254459
          ],
          [
            103.416031,
            34.254021
          ],
          [
            103.41658,
            34.253883
          ],
          [
            103.417336,
            34.253986
          ],
          [
            103.417992,
            34.254337
          ],
          [
            103.418465,
            34.254337
          ],
          [
            103.419098,
            34.254459
          ],
          [
            103.419289,
            34.253952
          ],
          [
            103.419701,
            34.253902
          ],
          [
            103.419716,
            34.254211
          ],
          [
            103.419891,
            34.254223
          ],
          [
            103.41996,
            34.254314
          ],
          [
            103.419853,
            34.254406
          ],
          [
            103.419998,
            34.254551
          ],
          [
            103.419899,
            34.25481
          ],
          [
            103.420067,
            34.254959
          ],
          [
            103.4207,
            34.255085
          ],
          [
            103.420776,
            34.254986
          ],
          [
            103.421066,
            34.255116
          ],
          [
            103.421173,
            34.254875
          ],
          [
            103.421303,
            34.254894
          ],
          [
            103.421814,
            34.255287
          ],
          [
            103.422615,
            34.255493
          ],
          [
            103.422798,
            34.255692
          ],
          [
            103.423424,
            34.256042
          ],
          [
            103.423332,
            34.256214
          ],
          [
            103.423485,
            34.256256
          ],
          [
            103.42292,
            34.256302
          ],
          [
            103.422676,
            34.256439
          ],
          [
            103.422874,
            34.256618
          ],
          [
            103.423218,
            34.256687
          ],
          [
            103.423378,
            34.256844
          ],
          [
            103.422905,
            34.257084
          ],
          [
            103.422905,
            34.257214
          ],
          [
            103.423164,
            34.257324
          ],
          [
            103.423393,
            34.257305
          ],
          [
            103.423615,
            34.257442
          ],
          [
            103.42392,
            34.258072
          ],
          [
            103.423981,
            34.258354
          ],
          [
            103.423828,
            34.258568
          ],
          [
            103.423691,
            34.259087
          ],
          [
            103.423523,
            34.259212
          ],
          [
            103.423744,
            34.259655
          ],
          [
            103.423508,
            34.260231
          ],
          [
            103.423943,
            34.260471
          ],
          [
            103.424072,
            34.260799
          ],
          [
            103.424248,
            34.26086
          ],
          [
            103.424339,
            34.261009
          ],
          [
            103.424866,
            34.261131
          ],
          [
            103.424957,
            34.261227
          ],
          [
            103.425552,
            34.261234
          ],
          [
            103.425728,
            34.26133
          ],
          [
            103.425789,
            34.261246
          ],
          [
            103.425949,
            34.261398
          ],
          [
            103.426598,
            34.261681
          ],
          [
            103.426727,
            34.26194
          ],
          [
            103.426865,
            34.262005
          ],
          [
            103.427048,
            34.261978
          ],
          [
            103.427101,
            34.262043
          ],
          [
            103.427444,
            34.261894
          ],
          [
            103.427574,
            34.261791
          ],
          [
            103.427628,
            34.261528
          ],
          [
            103.42807,
            34.261307
          ],
          [
            103.428528,
            34.261383
          ],
          [
            103.429169,
            34.261776
          ],
          [
            103.429359,
            34.261822
          ],
          [
            103.429443,
            34.261753
          ],
          [
            103.429848,
            34.262032
          ],
          [
            103.430077,
            34.262093
          ],
          [
            103.430679,
            34.262554
          ],
          [
            103.430885,
            34.263065
          ],
          [
            103.431145,
            34.263325
          ],
          [
            103.431381,
            34.263382
          ],
          [
            103.431511,
            34.26318
          ],
          [
            103.431602,
            34.26321
          ],
          [
            103.431679,
            34.263409
          ],
          [
            103.432304,
            34.264084
          ],
          [
            103.432297,
            34.264359
          ],
          [
            103.432465,
            34.264599
          ],
          [
            103.43322,
            34.264957
          ],
          [
            103.433685,
            34.265285
          ],
          [
            103.433945,
            34.265697
          ],
          [
            103.434196,
            34.265884
          ],
          [
            103.43483,
            34.26606
          ],
          [
            103.435188,
            34.266315
          ],
          [
            103.435364,
            34.26667
          ],
          [
            103.435722,
            34.266895
          ],
          [
            103.435875,
            34.267056
          ],
          [
            103.435806,
            34.267132
          ],
          [
            103.435982,
            34.267269
          ],
          [
            103.435753,
            34.267597
          ],
          [
            103.436394,
            34.267849
          ],
          [
            103.437103,
            34.268364
          ],
          [
            103.43737,
            34.268436
          ],
          [
            103.437828,
            34.268379
          ],
          [
            103.438446,
            34.26862
          ],
          [
            103.439537,
            34.268715
          ],
          [
            103.440048,
            34.269444
          ],
          [
            103.440361,
            34.269703
          ],
          [
            103.44117,
            34.270145
          ],
          [
            103.441177,
            34.270245
          ],
          [
            103.441338,
            34.270271
          ],
          [
            103.441307,
            34.270355
          ],
          [
            103.44136,
            34.270283
          ],
          [
            103.441765,
            34.270302
          ],
          [
            103.442261,
            34.270401
          ],
          [
            103.442474,
            34.27037
          ],
          [
            103.44265,
            34.270451
          ],
          [
            103.443222,
            34.270386
          ],
          [
            103.44352,
            34.270504
          ],
          [
            103.443924,
            34.270538
          ],
          [
            103.444344,
            34.270454
          ],
          [
            103.44519,
            34.270756
          ],
          [
            103.445808,
            34.270859
          ],
          [
            103.446091,
            34.270866
          ],
          [
            103.446472,
            34.270718
          ],
          [
            103.447052,
            34.271008
          ],
          [
            103.447556,
            34.270958
          ],
          [
            103.448128,
            34.271172
          ],
          [
            103.448616,
            34.271046
          ],
          [
            103.448929,
            34.271294
          ],
          [
            103.449249,
            34.271412
          ],
          [
            103.449547,
            34.271416
          ],
          [
            103.450111,
            34.271664
          ],
          [
            103.4506,
            34.272179
          ],
          [
            103.450996,
            34.272305
          ],
          [
            103.451019,
            34.272541
          ],
          [
            103.451187,
            34.272758
          ],
          [
            103.451591,
            34.273026
          ],
          [
            103.452209,
            34.273277
          ],
          [
            103.453285,
            34.273655
          ],
          [
            103.453728,
            34.273628
          ],
          [
            103.454163,
            34.273735
          ],
          [
            103.454956,
            34.27422
          ],
          [
            103.455612,
            34.274101
          ],
          [
            103.455986,
            34.27425
          ],
          [
            103.4562,
            34.27422
          ],
          [
            103.456329,
            34.274082
          ],
          [
            103.456398,
            34.273823
          ],
          [
            103.456329,
            34.273785
          ],
          [
            103.456413,
            34.273708
          ],
          [
            103.456665,
            34.273712
          ],
          [
            103.457138,
            34.274044
          ],
          [
            103.457314,
            34.274319
          ],
          [
            103.457474,
            34.274323
          ],
          [
            103.457733,
            34.274086
          ],
          [
            103.457848,
            34.274128
          ],
          [
            103.457985,
            34.274559
          ],
          [
            103.458748,
            34.275311
          ],
          [
            103.459793,
            34.275597
          ],
          [
            103.46032,
            34.275654
          ],
          [
            103.46138,
            34.276028
          ],
          [
            103.461601,
            34.276043
          ],
          [
            103.462059,
            34.27589
          ],
          [
            103.4627,
            34.275806
          ],
          [
            103.463135,
            34.275356
          ],
          [
            103.463829,
            34.275475
          ],
          [
            103.464394,
            34.27533
          ],
          [
            103.464714,
            34.275341
          ],
          [
            103.464806,
            34.275658
          ],
          [
            103.465263,
            34.276146
          ],
          [
            103.465691,
            34.27634
          ],
          [
            103.465889,
            34.27652
          ],
          [
            103.466301,
            34.276573
          ],
          [
            103.467377,
            34.277321
          ],
          [
            103.467575,
            34.277596
          ],
          [
            103.467972,
            34.27787
          ],
          [
            103.468422,
            34.278488
          ],
          [
            103.469223,
            34.27924
          ],
          [
            103.469673,
            34.279533
          ],
          [
            103.469994,
            34.279896
          ],
          [
            103.470673,
            34.280338
          ],
          [
            103.471008,
            34.280857
          ],
          [
            103.472092,
            34.281929
          ],
          [
            103.472176,
            34.282204
          ],
          [
            103.471748,
            34.28289
          ],
          [
            103.471748,
            34.283154
          ],
          [
            103.471176,
            34.283607
          ],
          [
            103.471245,
            34.283779
          ],
          [
            103.470985,
            34.284508
          ],
          [
            103.471046,
            34.28479
          ],
          [
            103.471184,
            34.284889
          ],
          [
            103.471336,
            34.28492
          ],
          [
            103.471214,
            34.284859
          ],
          [
            103.471504,
            34.284878
          ],
          [
            103.472054,
            34.28476
          ],
          [
            103.472038,
            34.284454
          ],
          [
            103.472015,
            34.284653
          ],
          [
            103.472153,
            34.284794
          ],
          [
            103.47242,
            34.284809
          ],
          [
            103.472755,
            34.284706
          ],
          [
            103.472038,
            34.28476
          ],
          [
            103.471649,
            34.284607
          ],
          [
            103.472122,
            34.284725
          ],
          [
            103.47187,
            34.284695
          ],
          [
            103.471481,
            34.284855
          ],
          [
            103.471619,
            34.284977
          ],
          [
            103.471794,
            34.284752
          ],
          [
            103.471947,
            34.284718
          ],
          [
            103.473511,
            34.284847
          ],
          [
            103.474289,
            34.285023
          ],
          [
            103.475372,
            34.285019
          ],
          [
            103.475594,
            34.285179
          ],
          [
            103.476273,
            34.285286
          ],
          [
            103.477417,
            34.285637
          ],
          [
            103.478104,
            34.286091
          ],
          [
            103.478561,
            34.286526
          ],
          [
            103.479401,
            34.286743
          ],
          [
            103.479546,
            34.286865
          ],
          [
            103.480171,
            34.286926
          ],
          [
            103.480522,
            34.286823
          ],
          [
            103.481018,
            34.287178
          ],
          [
            103.481438,
            34.287182
          ],
          [
            103.482254,
            34.287441
          ],
          [
            103.482353,
            34.287392
          ],
          [
            103.482307,
            34.287239
          ],
          [
            103.48278,
            34.287163
          ],
          [
            103.48349,
            34.287647
          ],
          [
            103.484077,
            34.287464
          ],
          [
            103.484688,
            34.287502
          ],
          [
            103.484749,
            34.287296
          ],
          [
            103.485046,
            34.287632
          ],
          [
            103.486053,
            34.288136
          ],
          [
            103.486794,
            34.288406
          ],
          [
            103.48703,
            34.28875
          ],
          [
            103.487152,
            34.288776
          ],
          [
            103.487061,
            34.289085
          ],
          [
            103.487213,
            34.289303
          ],
          [
            103.487236,
            34.289211
          ],
          [
            103.487663,
            34.289158
          ],
          [
            103.487541,
            34.289116
          ],
          [
            103.487221,
            34.289204
          ],
          [
            103.48719,
            34.289333
          ],
          [
            103.486969,
            34.289364
          ],
          [
            103.487129,
            34.289337
          ],
          [
            103.487633,
            34.289532
          ],
          [
            103.487823,
            34.290188
          ],
          [
            103.487816,
            34.290466
          ],
          [
            103.487968,
            34.290558
          ],
          [
            103.4888,
            34.290314
          ],
          [
            103.489464,
            34.290249
          ],
          [
            103.490013,
            34.289749
          ],
          [
            103.49041,
            34.28978
          ],
          [
            103.490791,
            34.289581
          ],
          [
            103.491104,
            34.289577
          ],
          [
            103.491371,
            34.289661
          ],
          [
            103.491623,
            34.289867
          ],
          [
            103.492332,
            34.290115
          ],
          [
            103.49276,
            34.290039
          ],
          [
            103.493118,
            34.29007
          ],
          [
            103.494148,
            34.290302
          ],
          [
            103.495224,
            34.290688
          ],
          [
            103.49601,
            34.29073
          ],
          [
            103.496826,
            34.290901
          ],
          [
            103.497078,
            34.291107
          ],
          [
            103.497055,
            34.291512
          ],
          [
            103.497437,
            34.291576
          ],
          [
            103.497696,
            34.291458
          ],
          [
            103.498131,
            34.291523
          ],
          [
            103.49839,
            34.291634
          ],
          [
            103.498444,
            34.291744
          ],
          [
            103.498184,
            34.29134
          ],
          [
            103.498306,
            34.291439
          ],
          [
            103.498108,
            34.291481
          ],
          [
            103.498466,
            34.291744
          ],
          [
            103.499794,
            34.292217
          ],
          [
            103.500328,
            34.292583
          ],
          [
            103.50058,
            34.292923
          ],
          [
            103.501022,
            34.292984
          ],
          [
            103.501488,
            34.293327
          ],
          [
            103.501915,
            34.294079
          ],
          [
            103.501717,
            34.294445
          ],
          [
            103.501976,
            34.294571
          ],
          [
            103.502312,
            34.294975
          ],
          [
            103.502686,
            34.295677
          ],
          [
            103.503052,
            34.295944
          ],
          [
            103.503242,
            34.296406
          ],
          [
            103.503586,
            34.296646
          ],
          [
            103.504295,
            34.297417
          ],
          [
            103.504234,
            34.297699
          ],
          [
            103.504547,
            34.298222
          ],
          [
            103.504822,
            34.298416
          ],
          [
            103.504898,
            34.298691
          ],
          [
            103.505188,
            34.298958
          ],
          [
            103.505379,
            34.299316
          ],
          [
            103.505363,
            34.299492
          ],
          [
            103.505592,
            34.299747
          ],
          [
            103.506126,
            34.299969
          ],
          [
            103.506546,
            34.30106
          ],
          [
            103.506935,
            34.301273
          ],
          [
            103.507317,
            34.301899
          ],
          [
            103.508728,
            34.302109
          ],
          [
            103.509125,
            34.302475
          ],
          [
            103.509636,
            34.302559
          ],
          [
            103.510117,
            34.302864
          ],
          [
            103.510803,
            34.3027
          ],
          [
            103.511139,
            34.302944
          ],
          [
            103.511642,
            34.303116
          ],
          [
            103.511726,
            34.303375
          ],
          [
            103.512238,
            34.303776
          ],
          [
            103.512672,
            34.304333
          ],
          [
            103.512825,
            34.304409
          ],
          [
            103.513016,
            34.30481
          ],
          [
            103.513275,
            34.304939
          ],
          [
            103.513687,
            34.305531
          ],
          [
            103.51429,
            34.306026
          ],
          [
            103.514328,
            34.306576
          ],
          [
            103.514526,
            34.306721
          ],
          [
            103.514778,
            34.306705
          ],
          [
            103.515228,
            34.307407
          ],
          [
            103.516098,
            34.307926
          ],
          [
            103.516487,
            34.30809
          ],
          [
            103.517319,
            34.308254
          ],
          [
            103.51767,
            34.30846
          ],
          [
            103.517815,
            34.30867
          ],
          [
            103.518394,
            34.308537
          ],
          [
            103.519104,
            34.308693
          ],
          [
            103.51944,
            34.308826
          ],
          [
            103.519867,
            34.309273
          ],
          [
            103.520256,
            34.308796
          ],
          [
            103.520844,
            34.308929
          ],
          [
            103.52153,
            34.308796
          ],
          [
            103.522156,
            34.308155
          ],
          [
            103.522507,
            34.308155
          ],
          [
            103.522881,
            34.308426
          ],
          [
            103.523308,
            34.308502
          ],
          [
            103.523476,
            34.308422
          ],
          [
            103.523491,
            34.308315
          ],
          [
            103.523941,
            34.308125
          ],
          [
            103.525253,
            34.307957
          ],
          [
            103.52565,
            34.308037
          ],
          [
            103.526176,
            34.307423
          ],
          [
            103.526749,
            34.307148
          ],
          [
            103.526947,
            34.306965
          ],
          [
            103.52713,
            34.306755
          ],
          [
            103.527168,
            34.306545
          ],
          [
            103.527313,
            34.306454
          ],
          [
            103.52829,
            34.30648
          ],
          [
            103.529404,
            34.306805
          ],
          [
            103.529686,
            34.307045
          ],
          [
            103.530579,
            34.306835
          ],
          [
            103.532295,
            34.307304
          ],
          [
            103.532593,
            34.307003
          ],
          [
            103.53273,
            34.307243
          ],
          [
            103.532661,
            34.307503
          ],
          [
            103.532944,
            34.308125
          ],
          [
            103.53318,
            34.308258
          ],
          [
            103.533028,
            34.30901
          ],
          [
            103.533379,
            34.309444
          ],
          [
            103.533478,
            34.309437
          ],
          [
            103.533722,
            34.309662
          ],
          [
            103.534081,
            34.309681
          ],
          [
            103.534592,
            34.309895
          ],
          [
            103.534721,
            34.310223
          ],
          [
            103.535309,
            34.310268
          ],
          [
            103.535736,
            34.310421
          ],
          [
            103.536018,
            34.310642
          ],
          [
            103.53653,
            34.310539
          ],
          [
            103.536942,
            34.310654
          ],
          [
            103.538132,
            34.311447
          ],
          [
            103.53833,
            34.311424
          ],
          [
            103.539299,
            34.311668
          ],
          [
            103.539421,
            34.312122
          ],
          [
            103.539764,
            34.312336
          ],
          [
            103.540413,
            34.312496
          ],
          [
            103.540871,
            34.312843
          ],
          [
            103.541107,
            34.313229
          ],
          [
            103.541267,
            34.31321
          ],
          [
            103.541328,
            34.313637
          ],
          [
            103.54126,
            34.313789
          ],
          [
            103.541588,
            34.314163
          ],
          [
            103.541443,
            34.314396
          ],
          [
            103.541428,
            34.314789
          ],
          [
            103.541534,
            34.314861
          ],
          [
            103.541405,
            34.31501
          ],
          [
            103.541466,
            34.315155
          ],
          [
            103.54129,
            34.315281
          ],
          [
            103.541214,
            34.315544
          ],
          [
            103.541435,
            34.315521
          ],
          [
            103.541344,
            34.315697
          ],
          [
            103.541473,
            34.315762
          ],
          [
            103.541443,
            34.315678
          ],
          [
            103.541328,
            34.315742
          ],
          [
            103.541222,
            34.316227
          ],
          [
            103.541054,
            34.316528
          ],
          [
            103.541115,
            34.317142
          ],
          [
            103.54129,
            34.317348
          ],
          [
            103.541695,
            34.317406
          ],
          [
            103.541878,
            34.317524
          ],
          [
            103.542336,
            34.318291
          ],
          [
            103.542465,
            34.318718
          ],
          [
            103.543015,
            34.319401
          ],
          [
            103.543243,
            34.319469
          ],
          [
            103.543182,
            34.319504
          ],
          [
            103.543304,
            34.31963
          ],
          [
            103.543358,
            34.319469
          ],
          [
            103.543274,
            34.319599
          ],
          [
            103.543442,
            34.319527
          ]
        ]
      }
    }
  ]
}
